{"type":"FeatureCollection","features":[{"type":"Feature","properties":{"state":"Johor","district":"Segamat"},"geometry":{"type":"Polygon","coordinates":[[[102.7013222156915,2.832076560575578],[102.62557158400006,2.632085474000064],[102.62723774600005,2.618770170000062],[102.63937692500008,2.608308047000037],[102.63437843900005,2.58809688100007],[102.63247425400004,2.587145759000066],[102.62890390700005,2.590712462000056],[102.62271530600003,2.589285782000047],[102.62390542200006,2.58429239000003],[102.61652670500007,2.580250106000051],[102.61676472800008,2.576921156000026],[102.60890996500007,2.56526976400005],[102.61319438200007,2.554569413000024],[102.61010008100004,2.552191545000028],[102.60890996500007,2.543631184000049],[102.61081415000007,2.531028327000058],[102.61914496000009,2.522467826000025],[102.61890693600009,2.518900933000054],[102.61224228900005,2.511767120000059],[102.60676775700006,2.510102558000028],[102.60771985000008,2.506297836000044],[102.60510159600005,2.501779715000055],[102.60724380400006,2.489889849000065],[102.61176624300003,2.489414252000074],[102.61401572700004,2.482204927000055],[102.63110562100007,2.48210192800002],[102.63296517700007,2.464638390000061],[102.62478313200006,2.446059907000063],[102.62887415400007,2.443458898000074],[102.63259326600007,2.429710628000066],[102.65490793300006,2.408902169000044],[102.65862704400007,2.415590637000037],[102.66904055600008,2.420049598000048],[102.67090011100004,2.40667267300006],[102.68317317800006,2.397011478000024],[102.68726420100006,2.398126235000063],[102.68763611200006,2.40555792300006],[102.68986757800008,2.408159004000026],[102.69358669000007,2.41187482600003],[102.70139682300004,2.410760080000045],[102.69990917900009,2.415962218000061],[102.71478562400006,2.428595897000037],[102.71924855700007,2.421164335000071],[102.72966206900009,2.411503244000073],[102.74044749100005,2.409645334000061],[102.75123291400007,2.413361151000061],[102.76945655900005,2.414475895000066],[102.77615095900006,2.40853058700003],[102.77723991500005,2.399941949000038],[102.77967727100008,2.398572137000031],[102.79186405500008,2.394767099000035],[102.80009013400007,2.398572137000031],[102.80313683000008,2.391266454000061],[102.80755453900008,2.391723060000061],[102.80618352600004,2.385939369000027],[102.80953489100006,2.386243774000036],[102.80557418700005,2.379546839000056],[102.80267982500004,2.383199717000025],[102.80039480400006,2.380003449000071],[102.80526951700006,2.374067504000038],[102.81867497900004,2.370871216000069],[102.82126467100005,2.372241055000075],[102.82233101400004,2.369044762000044],[102.82720572800008,2.372849871000028],[102.82949075000005,2.380155653000031],[102.83345145400006,2.375437340000076],[102.83954484600008,2.376350563000074],[102.83893550700009,2.385482760000059],[102.84015418500007,2.387461395000059],[102.84304854600003,2.383351920000052],[102.84320088100009,2.387918003000038],[102.84838026400007,2.388374610000028],[102.85036061700004,2.392788475000032],[102.84746625500009,2.399789748000046],[102.84944660800005,2.403290371000026],[102.85340731200006,2.403594772000076],[102.85764412400005,2.413554374000057],[102.86050040100008,2.414743433000069],[102.86002435500006,2.410938440000052],[102.86383272500007,2.409273752000047],[102.86835516400004,2.414267809000023],[102.88168445900004,2.41070062700004],[102.88358864400004,2.40261497900002],[102.89072933700004,2.39904776700007],[102.89548980000006,2.392626760000041],[102.89977421600008,2.392388944000061],[102.90120235500007,2.39643180500002],[102.90596281700005,2.395718359000057],[102.91976815800007,2.38406537100002],[102.91976815800007,2.379784657000073],[102.93881000700009,2.35600266900002],[102.95309139400007,2.346727584000064],[102.95856592600006,2.337214611000036],[102.96427848100006,2.333647230000054],[102.97998800700009,2.332458101000043],[103.02354623700006,2.30201605600007],[102.96856289700008,2.213778048000052],[102.96472006700009,2.204046559000062],[103.02827909700005,2.17410488400003],[103.05551868100008,2.168660879000072],[103.07731034800008,2.171382884000025],[103.10454993200005,2.171382884000025],[103.10818187700005,2.212212366000074],[103.12997354400005,2.237616812000056],[103.15448917000003,2.253040725000062],[103.16447701800007,2.253948009000055],[103.21714021400004,2.278444461000049],[103.28614716000004,2.302940496000076],[103.32065063300007,2.321992677000026],[103.38057771800004,2.37642605700006],[103.28855210200004,2.577741797000044],[103.15148146600006,2.523101853000071],[102.97414042300005,2.593967551000048],[102.79679938100008,2.802289303000066],[102.76151385712328,2.818555336465124],[102.7013222156915,2.832076560575578]]]}},{"type":"Feature","properties":{"state":"Johor","district":"Ledang"},"geometry":{"type":"Polygon","coordinates":[[[102.59391450900006,2.410760080000045],[102.56553304100004,2.395223221000037],[102.54751859600003,2.396384427000044],[102.53415304100008,2.387094749000028],[102.53415304100008,2.374901951000027],[102.52078748500008,2.356322242000033],[102.51497637300008,2.353999761000068],[102.50916526200007,2.344129174000045],[102.50916526200007,2.33832291300007],[102.51381415100008,2.332516629000054],[102.51439526200005,2.323807157000033],[102.50974637300004,2.318000813000026],[102.50684081800006,2.304065489000038],[102.50161081700008,2.295355843000038],[102.49579970600007,2.254710127000067],[102.48998859500006,2.243096856000022],[102.49638081700004,2.236128849000067],[102.49638081700004,2.225096104000045],[102.48650192800005,2.214063276000047],[102.46964970500005,2.202449685000033],[102.47081192800005,2.195481486000062],[102.47778526100007,2.189093943000046],[102.47490295000006,2.184522767000033],[102.47609306500004,2.182382115000053],[102.48323375900009,2.178814353000064],[102.49418282200008,2.182857815000034],[102.49442084600008,2.174295177000033],[102.50203758500004,2.174533028000042],[102.50560793200003,2.167635313000062],[102.51203455600006,2.166921755000033],[102.51584292600006,2.169062429000064],[102.51703304200004,2.165256783000075],[102.52107943500005,2.164305370000022],[102.52941024400008,2.166683902000045],[102.53083838300006,2.159786150000059],[102.53440872900006,2.159548296000025],[102.53226652100005,2.150509815000021],[102.53940721500004,2.137903423000068],[102.53440872900006,2.131956975000037],[102.53012431300004,2.130767683000045],[102.53393268300005,2.127675519000036],[102.53036233600005,2.123869770000056],[102.53036233600005,2.120064011000068],[102.52131745800006,2.11839898900007],[102.51536688000004,2.114117495000073],[102.51631897200008,2.120539732000054],[102.50679804800006,2.121253312000022],[102.50417979300005,2.127437660000055],[102.50227560800005,2.126010505000067],[102.50489386300006,2.121015452000051],[102.50251363200005,2.119112570000027],[102.49054582900004,2.120929822000051],[102.48247208500004,2.113470513000038],[102.48460477200007,2.110882581000055],[102.48536644600006,2.113927206000028],[102.49298318600006,2.11042588600003],[102.49298318600006,2.105706704000056],[102.49100283400008,2.10722902200007],[102.48826080700007,2.105554472000051],[102.49115516800003,2.097029460000044],[102.51004468300005,2.086829830000056],[102.53335190700005,2.067800495000029],[102.54706203800004,2.082567279000045],[102.55163208200008,2.081501640000056],[102.55486384100004,2.084845438000059],[102.56416161900006,2.082615447000023],[102.56639308600006,2.08447377300007],[102.57308748600008,2.105658537000068],[102.59019539800005,2.089305411000055],[102.60060890900007,2.093765371000075],[102.60321228700008,2.098596981000071],[102.60060890900007,2.104171896000025],[102.59428642000006,2.105658537000068],[102.58573246400005,2.103800236000041],[102.58126953100003,2.107888495000054],[102.58907966400005,2.122011490000034],[102.58722010900004,2.130187903000035],[102.59688979800006,2.135391051000056],[102.59837744200007,2.138364271000057],[102.59503024200006,2.143195741000056],[102.59949317600007,2.145425646000035],[102.60060890900007,2.149885444000063],[102.60804713200008,2.151000392000071],[102.62069211000005,2.146912247000046],[102.62366739900006,2.139850879000051],[102.61622917600005,2.136506010000062],[102.61065050900004,2.13724931400003],[102.60469993200007,2.124613081000064],[102.60655948700008,2.116808297000034],[102.61362579800004,2.116436639000028],[102.62106402100005,2.128329631000042],[102.62775842100007,2.131302865000066],[102.63780002100003,2.127957976000062],[102.64412251000005,2.130559557000026],[102.64598206600004,2.135019398000054],[102.63408091000008,2.145797296000069],[102.63408091000008,2.151743690000046],[102.63668428800008,2.155088526000043],[102.64858544400005,2.159548296000025],[102.65267646600006,2.156946765000043],[102.66048660000007,2.139479227000038],[102.67090011100004,2.142452439000067],[102.67796642300004,2.146912247000046],[102.68131362300005,2.152115339000034],[102.69209904500008,2.151743690000046],[102.69767771200009,2.155831822000039],[102.70660357900005,2.147283897000023],[102.71515753500006,2.153601933000061],[102.71515753500006,2.17404245900002],[102.74267895800006,2.181475309000064],[102.74788571400006,2.196340899000063],[102.75309246900008,2.201172184000029],[102.76759700300005,2.199685637000073],[102.77466331400007,2.202287094000042],[102.78693638100003,2.215665945000069],[102.79028358100004,2.22607163400005],[102.78552311900006,2.228524393000043],[102.77362196300004,2.226859491000027],[102.77171777800004,2.229475765000075],[102.77314591700008,2.234232617000032],[102.78076265700008,2.239465135000046],[102.80123264500008,2.241130023000039],[102.80861136200008,2.246124677000068],[102.81051554700008,2.251594992000037],[102.81075357000009,2.257065287000046],[102.79718625200007,2.253973384000062],[102.79337788200007,2.258967994000045],[102.79361590500008,2.26253556100005],[102.79885241400007,2.267767978000052],[102.80980147700006,2.27347604800002],[102.81146763900006,2.280373268000062],[102.80765926900006,2.282513779000055],[102.80551706100005,2.277757085000076],[102.79956648300004,2.279897599000037],[102.79671020600006,2.28370294900003],[102.79861439100006,2.289173123000069],[102.78718928100005,2.301540394000028],[102.79004555800009,2.304632195000067],[102.80028055200006,2.302967380000041],[102.79671020600006,2.314383216000067],[102.80575508400005,2.340781984000046],[102.81718019400006,2.33293375300002],[102.82194065600004,2.341971106000074],[102.81884635600005,2.347203231000037],[102.83146158100004,2.348630170000035],[102.83074751200007,2.354575737000062],[102.82765321100004,2.356478313000025],[102.82568238000005,2.371327829000052],[102.82233101400004,2.369044762000044],[102.82126467100005,2.372241055000075],[102.81121057400009,2.371784442000035],[102.80526951700006,2.374067504000038],[102.80039480400006,2.380003449000071],[102.80267982500004,2.383199717000025],[102.80557418700005,2.379546839000056],[102.80831621300007,2.382743108000057],[102.80679286500003,2.384265138000046],[102.80953489100006,2.386243774000036],[102.80572652100005,2.387461395000059],[102.80755453900008,2.391723060000061],[102.80313683000008,2.391266454000061],[102.80009013400007,2.398572137000031],[102.79186405500008,2.394767099000035],[102.77723991500005,2.399941949000038],[102.77615095900006,2.40853058700003],[102.76945655900005,2.414475895000066],[102.75123291400007,2.413361151000061],[102.74044749100005,2.409645334000061],[102.72966206900009,2.411503244000073],[102.71924855700007,2.421164335000071],[102.71478562400006,2.428595897000037],[102.69990917900009,2.415962218000061],[102.70139682300004,2.410760080000045],[102.69358669000007,2.41187482600003],[102.68986757800008,2.408159004000026],[102.68763611200006,2.40555792300006],[102.68726420100006,2.398126235000063],[102.68317317800006,2.397011478000024],[102.67090011100004,2.40667267300006],[102.66904055600008,2.420049598000048],[102.65862704400007,2.415590637000037],[102.65490793300006,2.408902169000044],[102.63259326600007,2.429710628000066],[102.62887415400007,2.443458898000074],[102.62478313200006,2.446059907000063],[102.63296517700007,2.464638390000061],[102.63110562100007,2.48210192800002],[102.61401572700004,2.482204927000055],[102.61652670500007,2.471579245000044],[102.60557764200007,2.464682978000042],[102.60510159600005,2.459213500000033],[102.59986508700007,2.458024480000063],[102.59605671700007,2.453743999000039],[102.59272439300008,2.442329316000041],[102.59415253200007,2.434006049000061],[102.59105823200008,2.42592054000005],[102.59201032400006,2.421639957000025],[102.59510462500003,2.419975282000053],[102.59391450900006,2.410760080000045]]]}},{"type":"Feature","properties":{"state":"Johor","district":"Muar"},"geometry":{"type":"Polygon","coordinates":[[[102.82568238000005,2.371327829000052],[102.82765321100004,2.356478313000025],[102.83074751200007,2.354575737000062],[102.83146158100004,2.348630170000035],[102.81884635600005,2.347203231000037],[102.82194065600004,2.341971106000074],[102.81718019400006,2.33293375300002],[102.80575508400005,2.340781984000046],[102.79671020600006,2.314383216000067],[102.80028055200006,2.302967380000041],[102.79004555800009,2.304632195000067],[102.78718928100005,2.301540394000028],[102.79861439100006,2.289173123000069],[102.79671020600006,2.28370294900003],[102.79956648300004,2.279897599000037],[102.80551706100005,2.277757085000076],[102.80765926900006,2.282513779000055],[102.81146763900006,2.280373268000062],[102.80980147700006,2.27347604800002],[102.79885241400007,2.267767978000052],[102.79361590500008,2.26253556100005],[102.79337788200007,2.258967994000045],[102.79718625200007,2.253973384000062],[102.81075357000009,2.257065287000046],[102.81051554700008,2.251594992000037],[102.80861136200008,2.246124677000068],[102.80123264500008,2.241130023000039],[102.78076265700008,2.239465135000046],[102.77314591700008,2.234232617000032],[102.77171777800004,2.229475765000075],[102.77362196300004,2.226859491000027],[102.78552311900006,2.228524393000043],[102.79028358100004,2.22607163400005],[102.78693638100003,2.215665945000069],[102.77466331400007,2.202287094000042],[102.76759700300005,2.199685637000073],[102.75309246900008,2.201172184000029],[102.74788571400006,2.196340899000063],[102.74267895800006,2.181475309000064],[102.71515753500006,2.17404245900002],[102.71515753500006,2.153601933000061],[102.70660357900005,2.147283897000023],[102.69767771200009,2.155831822000039],[102.69209904500008,2.151743690000046],[102.68131362300005,2.152115339000034],[102.67796642300004,2.146912247000046],[102.67090011100004,2.142452439000067],[102.66048660000007,2.139479227000038],[102.65267646600006,2.156946765000043],[102.64858544400005,2.159548296000025],[102.63668428800008,2.155088526000043],[102.63408091000008,2.151743690000046],[102.63408091000008,2.145797296000069],[102.64598206600004,2.135019398000054],[102.64412251000005,2.130559557000026],[102.63780002100003,2.127957976000062],[102.62775842100007,2.131302865000066],[102.62106402100005,2.128329631000042],[102.61362579800004,2.116436639000028],[102.60655948700008,2.116808297000034],[102.60469993200007,2.124613081000064],[102.61065050900004,2.13724931400003],[102.61622917600005,2.136506010000062],[102.62366739900006,2.139850879000051],[102.62069211000005,2.146912247000046],[102.60804713200008,2.151000392000071],[102.60060890900007,2.149885444000063],[102.59949317600007,2.145425646000035],[102.59503024200006,2.143195741000056],[102.59837744200007,2.138364271000057],[102.59688979800006,2.135391051000056],[102.58722010900004,2.130187903000035],[102.58907966400005,2.122011490000034],[102.58126953100003,2.107888495000054],[102.58573246400005,2.103800236000041],[102.59428642000006,2.105658537000068],[102.60060890900007,2.104171896000025],[102.60321228700008,2.098596981000071],[102.60060890900007,2.093765371000075],[102.59019539800005,2.089305411000055],[102.57308748600008,2.105658537000068],[102.56639308600006,2.08447377300007],[102.56416161900006,2.082615447000023],[102.55486384100004,2.084845438000059],[102.55163208200008,2.081501640000056],[102.54706203800004,2.082567279000045],[102.53327579300009,2.067861837000066],[102.53763970700004,2.060756721000075],[102.55855970800008,2.056110832000059],[102.56437081900003,2.051464929000076],[102.56320859700008,2.047980493000068],[102.54461304100005,2.042173083000023],[102.54345081900004,2.036946396000076],[102.54693748500006,2.027073719000043],[102.62887415400007,1.952736356000059],[102.64223971000007,1.935313056000041],[102.67826860000008,1.877814904000047],[102.69744526800008,1.864456475000054],[102.70674304600004,1.854001981000067],[102.71778415700004,1.854582788000073],[102.72940638000006,1.866198885000074],[102.73754193500008,1.869102897000062],[102.77647638100007,1.866779687000076],[102.77987007000007,1.891196463000028],[102.79474651500004,1.920189486000027],[102.79995327100005,1.958846083000026],[102.82598704900005,1.997130104000064],[102.83342527200006,2.012369126000067],[102.84941745000003,2.033183171000076],[102.87247593900008,2.051766913000051],[102.87433549500008,2.061058703000072],[102.86838491700007,2.076297122000028],[102.86912873900008,2.080757119000054],[102.87321976200008,2.08670376200007],[102.88698047300005,2.082615447000023],[102.96472006700009,2.204046559000062],[102.96856289700008,2.213778048000052],[103.02354623700006,2.30201605600007],[102.97998800700009,2.332458101000043],[102.96427848100006,2.333647230000054],[102.95856592600006,2.337214611000036],[102.95309139400007,2.346727584000064],[102.93881000700009,2.35600266900002],[102.91976815800007,2.379784657000073],[102.91976815800007,2.38406537100002],[102.90596281700005,2.395718359000057],[102.90120235500007,2.39643180500002],[102.89977421600008,2.392388944000061],[102.89548980000006,2.392626760000041],[102.89072933700004,2.39904776700007],[102.88358864400004,2.40261497900002],[102.88168445900004,2.41070062700004],[102.86835516400004,2.414267809000023],[102.86383272500007,2.409273752000047],[102.86002435500006,2.410938440000052],[102.86050040100008,2.414743433000069],[102.85764412400005,2.413554374000057],[102.85340731200006,2.403594772000076],[102.84944660800005,2.403290371000026],[102.84746625500009,2.399789748000046],[102.85036061700004,2.392788475000032],[102.84838026400007,2.388374610000028],[102.84320088100009,2.387918003000038],[102.84304854600003,2.383351920000052],[102.84015418500007,2.387461395000059],[102.83893550700009,2.385482760000059],[102.83954484600008,2.376350563000074],[102.83345145400006,2.375437340000076],[102.82949075000005,2.380155653000031],[102.82568238000005,2.371327829000052]]]}},{"type":"Feature","properties":{"state":"Johor","district":"Batu Pahat"},"geometry":{"type":"Polygon","coordinates":[[[102.96472006700009,2.204046559000062],[102.88698047300005,2.082615447000023],[102.87321976200008,2.08670376200007],[102.86912873900008,2.080757119000054],[102.86838491700007,2.076297122000028],[102.87433549500008,2.061058703000072],[102.87247593900008,2.051766913000051],[102.84941745000003,2.033183171000076],[102.83342527200006,2.012369126000067],[102.82598704900005,1.997130104000064],[102.79995327100005,1.958846083000026],[102.79474651500004,1.920189486000027],[102.77987007000007,1.891196463000028],[102.77589527000003,1.866779687000076],[102.79565304800008,1.865037278000045],[102.81599193800008,1.858067625000047],[102.84214193900004,1.844709046000048],[102.88572527300005,1.816829950000056],[102.89560416200004,1.823218948000033],[102.89327971800009,1.799405297000021],[102.88688749500005,1.793597042000044],[102.88863082900008,1.785465454000075],[102.90722638500006,1.764555491000067],[102.94093083000007,1.741321924000033],[102.95894527500008,1.744806978000042],[102.97870305400005,1.743645294000032],[103.02984083300004,1.728543340000044],[103.03971972200009,1.720992318000071],[103.07516750100007,1.70356676900002],[103.12979194700006,1.655936134000058],[103.18499750400008,1.623407236000048],[103.18822848200006,1.630238348000034],[103.20050154900008,1.62837954500003],[103.20198919400008,1.637301787000069],[103.19343523800006,1.672246853000047],[103.19603861600007,1.697525875000053],[103.20422066000003,1.724663280000073],[103.21389035000004,1.735072046000028],[103.22723906676885,1.766215760473978],[103.18897230400006,1.781539046000034],[103.18934421600005,1.85551207900005],[103.19306332700006,1.86852209500006],[103.19678243800007,1.865548385000068],[103.20050154900008,1.87000894800002],[103.18934421600005,1.877814904000047],[103.20347683800009,1.899374032000026],[103.20384874900009,1.903462802000035],[103.19827008200008,1.908666676000053],[103.19343523800006,1.908666676000053],[103.19083186000006,1.912755424000068],[103.20273301600008,1.930597118000037],[103.19752626000007,1.936544308000066],[103.20793977200009,1.946951840000054],[103.21389035000004,1.961076245000072],[103.22207239400007,1.964421481000045],[103.23137017200008,1.976687290000029],[103.24597408100004,1.982850788000064],[103.23713866300005,1.996400411000025],[103.23992412800004,1.998616844000026],[103.17112057100007,2.098596981000071],[103.17298012600008,2.125728047000052],[103.16293852600006,2.140594183000076],[103.16851719300007,2.150628743000027],[103.10454993200005,2.171382884000025],[103.07731034800008,2.171382884000025],[103.05551868100008,2.168660879000072],[103.02827909700005,2.17410488400003],[102.96472006700009,2.204046559000062]]]}},{"type":"Feature","properties":{"state":"Johor","district":"Kluang"},"geometry":{"type":"Polygon","coordinates":[[[103.10454993200005,2.171382884000025],[103.16851719300007,2.150628743000027],[103.16293852600006,2.140594183000076],[103.17298012600008,2.125728047000052],[103.17112057100007,2.098596981000071],[103.23992412800004,1.998616844000026],[103.23713866300005,1.996400411000025],[103.24597408100004,1.982850788000064],[103.23137017200008,1.976687290000029],[103.22207239400007,1.964421481000045],[103.21389035000004,1.961076245000072],[103.20793977200009,1.946951840000054],[103.19752626000007,1.936544308000066],[103.20273301600008,1.930597118000037],[103.19083186000006,1.912755424000068],[103.19343523800006,1.908666676000053],[103.19827008200008,1.908666676000053],[103.20384874900009,1.903462802000035],[103.20347683800009,1.899374032000026],[103.18934421600005,1.877814904000047],[103.20050154900008,1.87000894800002],[103.19678243800007,1.865548385000068],[103.19306332700006,1.86852209500006],[103.18934421600005,1.85551207900005],[103.18897230400006,1.781539046000034],[103.25879861800007,1.751777065000056],[103.27448861800008,1.750034546000052],[103.36339862100004,1.709956155000043],[103.40795357300004,1.764662365000049],[103.42959880000006,1.784884625000075],[103.43703702300007,1.783397701000069],[103.44484715600004,1.772617472000036],[103.48612929100005,1.803471064000064],[103.52555187000007,1.805329698000037],[103.55418902600007,1.792690952000044],[103.56237107100009,1.791204035000021],[103.56943738200005,1.791204035000021],[103.58357000500007,1.798266880000028],[103.60774422800006,1.801612429000045],[103.63229036200005,1.791575765000061],[103.63824094000006,1.79231922300005],[103.63005889500005,1.809046959000057],[103.62968698400005,1.814622837000059],[103.62336449500003,1.82019869800007],[103.61927347300008,1.830235203000029],[103.60997569500006,1.834695854000074],[103.59932416000004,1.849594348000039],[103.59265951300006,1.852687034000041],[103.57480777900008,1.879807276000065],[103.56052639200004,1.887182006000046],[103.55076744400009,1.903834508000045],[103.55171953700005,1.938328461000026],[103.56838115500005,1.939042122000046],[103.56130710800005,2.044051564000029],[103.61385751700004,2.252968142000043],[103.61385751700004,2.258774750000043],[103.61037085000004,2.264581335000059],[103.61850640600005,2.275033128000075],[103.62896640600007,2.278517042000033],[103.62315529500006,2.362128428000062],[103.63012862900007,2.376063174000024],[103.53482640400006,2.338903540000047],[103.46451195700007,2.393481410000049],[103.38057771800004,2.37642605700006],[103.32065063300007,2.321992677000026],[103.28614716000004,2.302940496000076],[103.21714021400004,2.278444461000049],[103.16447701800007,2.253948009000055],[103.15448917000003,2.253040725000062],[103.12997354400005,2.237616812000056],[103.10818187700005,2.212212366000074],[103.10454993200005,2.171382884000025]]]}},{"type":"Feature","properties":{"state":"Johor","district":"Kulaijaya"},"geometry":{"type":"Polygon","coordinates":[[[103.36243282500004,1.710391517000062],[103.45811973500008,1.631539510000039],[103.50170306900009,1.581002710000064],[103.50506700500006,1.583366233000049],[103.50720921300007,1.582176572000037],[103.50744723700006,1.561000483000043],[103.51339781400009,1.54458291900005],[103.51577804600004,1.544820855000069],[103.52053850800007,1.535779245000072],[103.52577501700006,1.537206870000034],[103.53224627000009,1.531719431000056],[103.54191595900005,1.542500972000028],[103.55046991500006,1.540642090000063],[103.55307329300007,1.551423586000055],[103.56199916000008,1.552910685000029],[103.56861917800006,1.559334939000053],[103.58290056500005,1.561952222000059],[103.59384962800004,1.556955588000051],[103.60194241400006,1.56552123900002],[103.60075229900008,1.569804051000062],[103.60908310800005,1.585031758000071],[103.63859797500004,1.585507622000023],[103.64193029800003,1.588124872000037],[103.65097517700008,1.585031758000071],[103.65335540800004,1.589790393000044],[103.66049610200008,1.588124872000037],[103.66882691100005,1.592883501000074],[103.67287330400006,1.599307631000045],[103.68810678300008,1.608824825000056],[103.68263225100009,1.616200620000029],[103.68810678300008,1.619055759000048],[103.70215014700005,1.603590374000021],[103.71952583500007,1.605731742000046],[103.72023990400004,1.620245399000055],[103.73618745300007,1.639755397000044],[103.67287330400006,1.726358426000047],[103.67120714200007,1.729689234000034],[103.67810981200006,1.733257951000041],[103.66597063300009,1.757762956000022],[103.65859191700008,1.755383843000061],[103.64383448300003,1.787501607000024],[103.64502459900007,1.791070213000069],[103.63229036200005,1.791575765000061],[103.60774422800006,1.801612429000045],[103.58357000500007,1.798266880000028],[103.56943738200005,1.791204035000021],[103.56237107100009,1.791204035000021],[103.55418902600007,1.792690952000044],[103.52555187000007,1.805329698000037],[103.48612929100005,1.803471064000064],[103.44484715600004,1.772617472000036],[103.43703702300007,1.783397701000069],[103.42959880000006,1.784884625000075],[103.40795357300004,1.764662365000049],[103.36243282500004,1.710391517000062]]]}},{"type":"Feature","properties":{"state":"Johor","district":"Pontian"},"geometry":{"type":"Polygon","coordinates":[[[103.18499750400008,1.623407236000048],[103.24347181200005,1.602386609000064],[103.26072354800004,1.598756081000033],[103.27615931300005,1.591495007000049],[103.33790237000005,1.557912208000062],[103.36241799600003,1.537036143000023],[103.37331382900004,1.520698211000024],[103.40236938600003,1.452622177000023],[103.41417320600004,1.419944947000033],[103.41871313600006,1.392713568000033],[103.43505688700009,1.361850958000048],[103.43959681700005,1.342788560000031],[103.44958466500003,1.321002781000061],[103.45684855400003,1.314648559000034],[103.47682424900006,1.304663320000031],[103.48136418000007,1.299216810000075],[103.48194529100005,1.28937675100002],[103.50518973600003,1.264976148000073],[103.51158195800008,1.262071298000023],[103.51681195900005,1.264395178000029],[103.51216307000004,1.270785836000073],[103.51100084700005,1.288214823000033],[103.51739307000008,1.311453287000063],[103.52087973600004,1.317262869000047],[103.54586751500005,1.33585344100004],[103.54005640400004,1.35618671800006],[103.53540751500009,1.397433696000064],[103.55284084900006,1.450879403000044],[103.55400307100007,1.468888001000039],[103.56213862700008,1.479925457000036],[103.57724751600006,1.479344540000056],[103.58189640500007,1.485734622000052],[103.57434196000008,1.492705600000022],[103.57492307100006,1.528141062000032],[103.54354307000006,1.524074727000027],[103.54877307100008,1.532207390000053],[103.54958788500005,1.540833766000048],[103.54191595900005,1.542500972000028],[103.53224627000009,1.531719431000056],[103.52577501700006,1.537206870000034],[103.52053850800007,1.535779245000072],[103.51577804600004,1.544820855000069],[103.51339781400009,1.54458291900005],[103.50744723700006,1.561000483000043],[103.50720921300007,1.582176572000037],[103.50506700500006,1.583366233000049],[103.50170306900009,1.581002710000064],[103.45811973500008,1.631539510000039],[103.36243282500004,1.710391517000062],[103.27448861800008,1.750034546000052],[103.25879861800007,1.751777065000056],[103.22723906676885,1.766215760473978],[103.21389035000004,1.735072046000028],[103.20422066000003,1.724663280000073],[103.19603861600007,1.697525875000053],[103.19343523800006,1.672246853000047],[103.20161728300008,1.63209715000005],[103.20050154900008,1.62837954500003],[103.19678243800007,1.627636023000036],[103.18822848200006,1.630238348000034],[103.18499750400008,1.623407236000048]]]}},{"type":"Feature","properties":{"state":"Johor","district":"Johor Bahru"},"geometry":{"type":"Polygon","coordinates":[[[103.54958788500005,1.540833766000048],[103.54877307100008,1.532207390000053],[103.54354307000006,1.524074727000027],[103.57492307100006,1.528141062000032],[103.57434196000008,1.492705600000022],[103.58189640500007,1.485734622000052],[103.57724751600006,1.479344540000056],[103.56213862700008,1.479925457000036],[103.55400307100007,1.468888001000039],[103.55284084900006,1.450879403000044],[103.53540751500009,1.397433696000064],[103.54005640400004,1.35618671800006],[103.54586751500005,1.33585344100004],[103.55865196000008,1.33178676600005],[103.60049196100005,1.262652269000057],[103.61443862800007,1.322491482000032],[103.65279196300008,1.38581490100006],[103.65511640700004,1.402662135000071],[103.66848196300003,1.416023648000021],[103.67313085200004,1.432289733000061],[103.69288863000008,1.439841805000071],[103.69753751900004,1.443908295000028],[103.70044307500007,1.450879403000044],[103.72136307600005,1.461336026000026],[103.72891752000004,1.46017418100007],[103.74518863200007,1.452041253000061],[103.76494641000005,1.452041253000061],[103.80620530000004,1.477601787000026],[103.81434085600006,1.478763622000031],[103.84804530200006,1.470049841000048],[103.85908641300006,1.461336026000026],[103.87651974700003,1.440422733000048],[103.89918308100005,1.428223222000042],[103.93579308200003,1.429385083000057],[103.96484863900008,1.423575773000039],[103.98693086100008,1.425899499000025],[104.00378308400008,1.422994841000047],[104.02877086300003,1.441584587000023],[104.02063530700008,1.551377114000047],[104.01772975100005,1.559509672000047],[104.00726975100008,1.573451127000055],[103.98925530600008,1.586811600000033],[103.98053863900009,1.599010218000046],[103.97472752800007,1.611789645000044],[103.97356530500008,1.635605635000047],[103.95496974900004,1.644318731000055],[103.94683419400008,1.651289181000038],[103.93172530400005,1.655936134000058],[103.92591419300004,1.66116394300002],[103.92649530400007,1.666391738000073],[103.92010308200008,1.666972604000023],[103.91080530400006,1.672781247000046],[103.90441308100009,1.673362110000028],[103.89627752500007,1.651289181000038],[103.88000641400004,1.630958634000024],[103.88407419200007,1.625730746000045],[103.87419530300008,1.60830435500003],[103.86605974700007,1.600752872000044],[103.85850530200008,1.599591103000023],[103.84455863500006,1.602495524000062],[103.82712530100008,1.619341087000066],[103.81724641200009,1.62514986900004],[103.77714974400004,1.641995242000064],[103.77540641100006,1.657678739000062],[103.76552752200007,1.658259606000058],[103.76378418800005,1.668134334000058],[103.73821529800006,1.671038656000064],[103.72338705100009,1.658592628000065],[103.73618745300007,1.639755397000044],[103.72023990400004,1.620245399000055],[103.71952583500007,1.605731742000046],[103.70215014700005,1.603590374000021],[103.68810678300008,1.619055759000048],[103.68263225100009,1.616200620000029],[103.68810678300008,1.608824825000056],[103.67287330400006,1.599307631000045],[103.66882691100005,1.592883501000074],[103.66049610200008,1.588124872000037],[103.65335540800004,1.589790393000044],[103.65097517700008,1.585031758000071],[103.64193029800003,1.588124872000037],[103.63859797500004,1.585507622000023],[103.60908310800005,1.585031758000071],[103.60075229900008,1.569804051000062],[103.60194241400006,1.56552123900002],[103.59384962800004,1.556955588000051],[103.58290056500005,1.561952222000059],[103.56861917800006,1.559334939000053],[103.56199916000008,1.552910685000029],[103.55307329300007,1.551423586000055],[103.55232947100006,1.542872748000036],[103.54958788500005,1.540833766000048]]]}},{"type":"Feature","properties":{"state":"Johor","district":"Kota Tinggi"},"geometry":{"type":"Polygon","coordinates":[[[103.63824094000006,1.79231922300005],[103.64502459900007,1.791070213000069],[103.64383448300003,1.787501607000024],[103.65859191700008,1.755383843000061],[103.66597063300009,1.757762956000022],[103.67810981200006,1.733257951000041],[103.67120714200007,1.729689234000034],[103.67287330400006,1.726358426000047],[103.72338705100009,1.658592628000065],[103.73821529800006,1.671038656000064],[103.76378418800005,1.668134334000058],[103.76552752200007,1.658259606000058],[103.77540641100006,1.657678739000062],[103.77714974400004,1.641995242000064],[103.81724641200009,1.62514986900004],[103.82712530100008,1.619341087000066],[103.84455863500006,1.602495524000062],[103.85850530200008,1.599591103000023],[103.86605974700007,1.600752872000044],[103.87419530300008,1.60830435500003],[103.88407419200007,1.625730746000045],[103.88000641400004,1.630958634000024],[103.89627752500007,1.651289181000038],[103.90441308100009,1.673362110000028],[103.92649530400007,1.666391738000073],[103.92591419300004,1.66116394300002],[103.93172530400005,1.655936134000058],[103.94683419400008,1.651289181000038],[103.95496974900004,1.644318731000055],[103.97356530500008,1.635605635000047],[103.97472752800007,1.611789645000044],[103.98053863900009,1.599010218000046],[103.98925530600008,1.586811600000033],[104.00726975100008,1.573451127000055],[104.01772975100005,1.559509672000047],[104.02063530700008,1.551377114000047],[104.02877086300003,1.441584587000023],[104.04562308500005,1.443908295000028],[104.07816530900004,1.437518093000051],[104.09617975400005,1.423575773000039],[104.11419419900005,1.400338386000044],[104.11361308700003,1.393367124000065],[104.09094975300007,1.374196050000023],[104.12697864300009,1.357348615000035],[104.13395197700004,1.343405821000033],[104.14092531000006,1.342824870000072],[104.15719642200008,1.347472478000043],[104.17346753400005,1.33933915800003],[104.18102197800005,1.338758206000023],[104.19148197900006,1.345148675000075],[104.20310420100009,1.339920110000037],[104.21821309000006,1.349796278000042],[104.22518642400007,1.35037722800007],[104.24436309100008,1.370710383000073],[104.24959309100007,1.367224712000052],[104.24959309100007,1.359091458000023],[104.26295864700006,1.359091458000023],[104.28387864800004,1.370129438000049],[104.28387864800004,1.377681711000037],[104.27632420300006,1.403243072000066],[104.27574309200008,1.430546944000071],[104.28271642600004,1.435194379000052],[104.28910864800008,1.434032521000063],[104.29317642600006,1.441003660000035],[104.29317642600006,1.449136628000076],[104.27458087000008,1.481668208000031],[104.27225642500008,1.502581115000055],[104.28155420300004,1.506647490000034],[104.28271642600004,1.517103849000023],[104.27516198100005,1.536273709000056],[104.25540420300007,1.554281603000049],[104.25598531400004,1.572870235000039],[104.26237753600009,1.579840929000056],[104.25249864700004,1.592620475000047],[104.25249864700004,1.599591103000023],[104.26121531400008,1.604238175000035],[104.26005309200008,1.611208764000025],[104.24378198000005,1.628635130000021],[104.24494420200006,1.642576115000054],[104.25017420300009,1.648384830000055],[104.25133642500003,1.653612659000032],[104.22983531300008,1.678009011000029],[104.21414531300007,1.717507221000062],[104.20019864600005,1.736675176000062],[104.19613086800007,1.759327964000022],[104.18276531200007,1.793597042000044],[104.16416975600004,1.817410769000048],[104.15603420000008,1.845289856000022],[104.15719642200008,1.850517136000065],[104.15138531100007,1.856325207000054],[104.15080420000004,1.846451475000038],[104.14441197700006,1.843547426000043],[104.13162753200004,1.848193903000038],[104.12407308800005,1.852840367000056],[104.11303197600006,1.865618082000026],[104.10431530900007,1.881299695000052],[104.10140975400009,1.898142753000059],[104.10373419800004,1.909758559000068],[104.10954530900005,1.92195507100007],[104.12116753200007,1.926601338000069],[104.12988419900006,1.924278206000054],[104.12755975400006,1.93357071600002],[104.11884308800006,1.949251710000055],[104.11593753200003,1.967255634000026],[104.09734197600005,1.987582412000052],[104.09153086500004,2.002101386000049],[104.08455753100009,2.008489694000048],[104.07467864200004,2.027073719000043],[104.05782563200006,2.04253978600002],[103.56130710800005,2.044051564000029],[103.56838115500005,1.939042122000046],[103.55171953700005,1.938328461000026],[103.55076744400009,1.903834508000045],[103.56052639200004,1.887182006000046],[103.57480777900008,1.879807276000065],[103.59265951300006,1.852687034000041],[103.59932416000004,1.849594348000039],[103.60997569500006,1.834695854000074],[103.61927347300008,1.830235203000029],[103.62336449500003,1.82019869800007],[103.62968698400005,1.814622837000059],[103.63005889500005,1.809046959000057],[103.63824094000006,1.79231922300005]]]}},{"type":"Feature","properties":{"state":"Johor","district":"Mersing"},"geometry":{"type":"MultiPolygon","coordinates":[[[[104.10351866000008,2.185544174000029],[104.09936660800008,2.18901426900004],[104.09630918800008,2.184601212000075],[104.10034800200003,2.18222494500003],[104.10351866000008,2.185544174000029]]],[[[104.06221447700005,2.234866862000047],[104.06003607600007,2.230813213000033],[104.05142343500006,2.230286308000075],[104.06109068500007,2.218869986000072],[104.07269138500004,2.216235438000069],[104.07497637200004,2.205345922000049],[104.07128524000007,2.196563997000055],[104.07901904000005,2.20095496600004],[104.09000441000006,2.195515221000051],[104.08510877400005,2.206090627000037],[104.07956518700007,2.213572502000034],[104.07531750200008,2.214435793000064],[104.07452556100009,2.219543587000032],[104.06761407500005,2.223644197000056],[104.06531024700007,2.227672856000027],[104.06631817200008,2.231341804000067],[104.06221447700005,2.234866862000047]]],[[[104.09321232000008,2.318134099000076],[104.09403623400004,2.300845973000037],[104.10694420900006,2.290966949000051],[104.11106377600004,2.290692531000047],[104.10996522500005,2.287125088000039],[104.12864059400005,2.281087858000035],[104.13495726300005,2.284655315000066],[104.13523190100005,2.290692531000047],[104.14347103500006,2.289320439000051],[104.14209784600007,2.298925057000076],[104.13028842100005,2.311822585000073],[104.11106377600004,2.317036446000031],[104.10419783200007,2.313194656000064],[104.09321232000008,2.318134099000076]]],[[[103.97624386900009,2.459099277000064],[103.97264413700009,2.457413455000051],[103.97500646100008,2.453479863000041],[103.97545642800009,2.435385190000034],[103.98074353400006,2.428641771000059],[103.99266764800007,2.424595704000069],[103.99750478800007,2.428416990000073],[103.97624386900009,2.459099277000064]]],[[[104.52529445100004,2.458066711000072],[104.52336100100007,2.464212923000048],[104.51193606900006,2.472817572000054],[104.51246337400005,2.470007896000027],[104.50578418300006,2.467549426000062],[104.49928076000003,2.461052018000032],[104.49857768700008,2.457013072000052],[104.50314766000008,2.45437897100004],[104.50244458700007,2.44243764600003],[104.51404528700004,2.441032777000032],[104.51949410100008,2.42733523000004],[104.52898558300006,2.426281566000057],[104.53918013700007,2.435237678000021],[104.54164089200003,2.453149721000045],[104.53285248300006,2.458417924000059],[104.52529445100004,2.458066711000072]]],[[[103.95911814200008,2.480586438000046],[103.95663000700006,2.47791649800007],[103.95801230500007,2.474878285000045],[103.96363364700005,2.474233814000058],[103.96483163800008,2.476949795000053],[103.96289642200009,2.479988004000063],[103.95911814200008,2.480586438000046]]],[[[104.50314766000008,2.478436904000034],[104.50138997800008,2.481773371000031],[104.49277733700006,2.471763944000031],[104.50508111000005,2.471412735000058],[104.51316644600007,2.477558885000064],[104.50314766000008,2.478436904000034]]],[[[103.84732845500008,2.481014765000054],[103.84170387300009,2.487870304000069],[103.83776666500006,2.478654652000046],[103.84474114700004,2.479104198000073],[103.84732845500008,2.476294536000069],[103.85374047800008,2.475507830000026],[103.85036572900003,2.481014765000054],[103.84732845500008,2.481014765000054]]],[[[103.95414187200004,2.493936056000052],[103.94732253900008,2.494856714000036],[103.94732253900008,2.491726473000028],[103.95506340400004,2.488366060000033],[103.95414187200004,2.493936056000052]]],[[[104.32153919500007,2.597828223000022],[104.31671555300005,2.59775630300004],[104.30951608900006,2.593584897000028],[104.31167592800006,2.583803617000058],[104.31714752100004,2.580854834000036],[104.31865940900008,2.572727665000059],[104.32542690600008,2.570857690000025],[104.33046653100007,2.564168909000045],[104.33478621000006,2.56208315300006],[104.34061777600004,2.563305838000076],[104.34616136400007,2.57215228900003],[104.34421750800004,2.57725874800002],[104.34090575500005,2.580854834000036],[104.33442623600007,2.581789815000036],[104.33298634400006,2.587759291000054],[104.33601011900004,2.590492295000047],[104.33406626300007,2.592937609000046],[104.33097049300005,2.595023315000049],[104.32621884700006,2.594304106000038],[104.32153919500007,2.597828223000022]]],[[[103.38057771800004,2.37642605700006],[103.46451195700007,2.393481410000049],[103.53482640400006,2.338903540000047],[103.63012862900007,2.376063174000024],[103.62315529500006,2.362128428000062],[103.62896640600007,2.278517042000033],[103.61850640600005,2.275033128000075],[103.61037085000004,2.264581335000059],[103.61385751700004,2.258774750000043],[103.61385751700004,2.252968142000043],[103.56130710800005,2.044051564000029],[104.05884336400004,2.042536047000056],[104.04068364100004,2.069758093000075],[104.03069579300006,2.090628011000035],[104.01072009800004,2.146884663000037],[103.99891627800008,2.162309515000061],[103.98075655600007,2.175919548000024],[103.96441280500005,2.192251425000052],[103.95533294400008,2.209490436000067],[103.95351697200005,2.242153274000032],[103.96259683300008,2.253948009000055],[103.97712461100008,2.243060565000064],[103.98257252800005,2.25122615600003],[103.97530863900005,2.26483537200005],[103.94897704100003,2.293867939000052],[103.94897704100003,2.304755],[103.95714891600005,2.308384002000025],[103.96078086100005,2.313827488000072],[103.93898919300005,2.336508452000032],[103.91174960900008,2.351931298000068],[103.88814197000005,2.375518851000038],[103.87089023300007,2.397291619000043],[103.85636245500007,2.422692744000074],[103.84546662100007,2.435393128000044],[103.83366280100006,2.439021787000058],[103.83184682900009,2.458979237000051],[103.81822703700004,2.486193460000038],[103.81641106500007,2.500707484000031],[103.83911071800009,2.50342884500003],[103.84183467700007,2.511592896000025],[103.83184682900009,2.520664003000036],[103.82639891200006,2.530642149000073],[103.82276696800005,2.557854881000026],[103.81641106500007,2.571461031000069],[103.78372356400007,2.599579947000052],[103.77373571600003,2.611371564000024],[103.76193189600008,2.617720850000069],[103.75829995200007,2.628605267000069],[103.76556384100007,2.63948958800006],[103.75829995200007,2.650373815000023],[103.75285203500005,2.649466799000038],[103.74558814600005,2.634047440000074],[103.71834856200007,2.636768517000064],[103.70654474200006,2.641303633000064],[103.66750133800008,2.664885967000032],[103.64934161500008,2.657629912000061],[103.63303418400005,2.663040031000037],[103.62187685100008,2.656724354000062],[103.60290938300005,2.666012103000071],[103.59695880500004,2.663783050000063],[103.59212396100008,2.65858190900002],[103.58840485000007,2.649665617000039],[103.60067791700004,2.631832841000062],[103.60476893900005,2.632947397000066],[103.60402511700005,2.649665617000039],[103.61257907300006,2.648922590000041],[103.61295098400007,2.635919541000021],[103.62410831700004,2.63034676500007],[103.61555436200007,2.62588852500005],[103.61443862800007,2.619201137000061],[103.62671169500004,2.609541512000021],[103.62745551700004,2.60619777900007],[103.61332289500007,2.598767228000042],[103.61295098400007,2.595794995000062],[103.62299258400009,2.591336633000026],[103.62299258400009,2.587621320000039],[103.62038920600008,2.585763659000065],[103.60923187200007,2.58910744700006],[103.60067791700004,2.582791396000061],[103.59807453900004,2.570159201000024],[103.60328129400006,2.567186901000071],[103.60662849500005,2.569787663000056],[103.60811613900006,2.57610377900005],[103.61146333900007,2.577961454000047],[103.61518245000008,2.57610377900005],[103.61443862800007,2.568673052000065],[103.61815773900008,2.559384582000064],[103.61555436200007,2.557155339000076],[103.61295098400007,2.559384582000064],[103.61183525000007,2.566072287000054],[103.59658689400004,2.556783799000073],[103.59323969400003,2.548609873000032],[103.59658689400004,2.543779802000074],[103.59100822700003,2.529661028000021],[103.59361160500004,2.527060185000039],[103.60253747200005,2.53077567400004],[103.61257907300006,2.529289479000056],[103.62187685100008,2.533004962000064],[103.62336449500003,2.531147222000072],[103.61852965000008,2.524087786000052],[103.61815773900008,2.519257623000044],[103.62745551700004,2.506996360000073],[103.63043080600005,2.488790031000065],[103.63861285100006,2.488418471000045],[103.63526565100005,2.47801473800007],[103.63005889500005,2.47318440600003],[103.62708360600004,2.465381524000065],[103.61778582800008,2.463523688000066],[103.61443862800007,2.465381524000065],[103.61071951700006,2.472812841000064],[103.60774422800006,2.467610924000041],[103.60923187200007,2.459064872000056],[103.47236857900003,2.52557398600004],[103.45563257900005,2.548238330000061],[103.44707862300004,2.554183010000031],[103.42848306700006,2.56012766200007],[103.41621,2.558269961000065],[103.35484466500009,2.591708164000067],[103.28855210200004,2.577741797000044],[103.38057771800004,2.37642605700006]]]]}}]}