{"type":"FeatureCollection","features":[{"type":"Feature","properties":{"state":"Kedah","district":"Bandar Baharu"},"geometry":{"type":"Polygon","coordinates":[[[100.73641732500005,5.30914223700006],[100.72400489300009,5.311478599000054],[100.72305280000006,5.320247577000032],[100.72019652300008,5.323802532000059],[100.72186268500008,5.330201400000021],[100.71257978300008,5.333282313000041],[100.71210373700006,5.337311175000025],[100.70091665000007,5.330675388000031],[100.68877747100004,5.328305446000059],[100.69091967900005,5.324513521000029],[100.68496910100004,5.309108584000057],[100.69258584100004,5.303420509000034],[100.68663526300008,5.288726075000056],[100.67616224600005,5.293466253000076],[100.67568620000009,5.284933906000049],[100.67330596800008,5.283037813000021],[100.66830748300004,5.284933906000049],[100.66211888200007,5.283274825000035],[100.66307097400005,5.279245610000032],[100.66616527500008,5.28137872700006],[100.66830748300004,5.276638456000057],[100.66640329800003,5.274505323000028],[100.64902761000008,5.265261659000032],[100.64736144900007,5.26692078800005],[100.65164586500003,5.26881693100006],[100.65093179500008,5.274505323000028],[100.64712342500007,5.277823528000056],[100.64164889400007,5.278534569000044],[100.63641238500009,5.257677012000045],[100.63236599200008,5.258151055000042],[100.63284203800004,5.239189047000025],[100.58499939200004,5.253647630000046],[100.58571346100007,5.257439990000023],[100.58380927600007,5.259099140000046],[100.57762067500005,5.257439990000023],[100.56714765800007,5.261706367000045],[100.55239022400008,5.259573182000054],[100.54739173900003,5.251514418000056],[100.53858488400004,5.248433098000021],[100.55071454200004,5.143213542000069],[100.53989877100008,5.138206714000034],[100.50867013800007,5.145337639000047],[100.49526467600003,5.140482550000058],[100.49115163700009,5.132744675000026],[100.49678802400007,5.127889491000076],[100.49876837600004,5.118482465000056],[100.50272908100004,5.118330738000054],[100.50364309000008,5.124854981000055],[100.50714679000004,5.126675689000024],[100.51815145600006,5.118257908000032],[100.51756649000004,5.113305507000064],[100.51083938600004,5.109615458000064],[100.51269177700004,5.095243485000026],[100.52302616900005,5.095826139000053],[100.52994826200006,5.087766047000059],[100.53531044700009,5.088737148000064],[100.53657787300006,5.093495520000033],[100.54028265500006,5.09611746500002],[100.54369495400005,5.09407817500005],[100.54408493100004,5.088348708000069],[100.55198196700007,5.091553332000046],[100.55354187500006,5.088154488000043],[100.54652228800006,5.086989165000034],[100.54486488600008,5.082716300000072],[100.54808219600005,5.081842301000052],[100.54964210500003,5.085920952000038],[100.55373686400009,5.086309393000022],[100.54895964500008,5.079900077000048],[100.55090953000007,5.076306948000024],[100.56327978200005,5.082182450000062],[100.57183373800007,5.095518477000041],[100.57815622700008,5.098111561000053],[100.58485062700004,5.097370681000029],[100.58410680500003,5.108483793000062],[100.59042929400005,5.115892427000063],[100.58856973800005,5.122189698000057],[100.60121471700006,5.127375640000025],[100.60828102800008,5.134043218000045],[100.62520625700006,5.140027383000074],[100.62462187300008,5.145780763000062],[100.63159520600004,5.16603735800004],[100.64902854000007,5.179927221000071],[100.65948854100009,5.183978373000059],[100.66413743000004,5.189765689000069],[100.68680076400005,5.229696716000035],[100.68854409700003,5.240113088000044],[100.69493631900008,5.247635915000046],[100.72282965300008,5.263838619000069],[100.72922187600005,5.270203851000076],[100.73154632000006,5.295664128000055],[100.73641732500005,5.30914223700006]]]}},{"type":"Feature","properties":{"state":"Kedah","district":"Kulim"},"geometry":{"type":"Polygon","coordinates":[[[100.86574218600003,5.426630422000073],[100.84968109900007,5.418593719000057],[100.81421565400007,5.394897306000075],[100.80231449900003,5.401769361000049],[100.79922019800006,5.414091472000052],[100.77279963200004,5.407930448000059],[100.76875323900003,5.409352228000046],[100.75756615200004,5.405086877000031],[100.74566499600007,5.408404375000032],[100.73733418700004,5.416935],[100.72686117000006,5.417171960000076],[100.72876535500006,5.422622016000048],[100.72471896200005,5.434469795000041],[100.72543303100008,5.442526151000038],[100.72281477700005,5.445132597000054],[100.70972350600005,5.445132597000054],[100.70900943600009,5.452004080000052],[100.70282083500007,5.453188810000029],[100.70020258100004,5.456269098000064],[100.69806037300003,5.472381118000044],[100.70710525100009,5.481384705000039],[100.70591513600004,5.485412581000048],[100.70972350600005,5.494179042000042],[100.70000264100008,5.50102153000006],[100.69786995400005,5.509816191000027],[100.69071021900004,5.514668363000055],[100.68553083600005,5.523007939000024],[100.68385515300008,5.536654266000028],[100.67974211400008,5.545145155000057],[100.67380105700005,5.545600021000041],[100.66629916300008,5.550624841000058],[100.66183622900007,5.548774001000027],[100.65030698500004,5.55247567400005],[100.63729009500008,5.567652289000023],[100.62613276200005,5.560249111000076],[100.61646307300003,5.560249111000076],[100.61125631700008,5.551365175000058],[100.60753720600007,5.55025467300004],[100.60084280500007,5.555436996000026],[100.59749560500006,5.555066831000033],[100.59675178300006,5.549514338000051],[100.59377649400005,5.546923156000048],[100.58410680500003,5.542110932000071],[100.58071497600008,5.543458359000056],[100.57238416600006,5.540852344000029],[100.57381230500005,5.533744972000022],[100.56714765800007,5.530428169000061],[100.56643358800005,5.536824843000034],[100.55596057100007,5.536824843000034],[100.55857882600009,5.54724890600005],[100.55096208600008,5.552223961000038],[100.54667767000007,5.549381077000021],[100.54263127700005,5.551276335000068],[100.54429743800006,5.560515627000029],[100.54072709200005,5.565490571000055],[100.53858488400004,5.564779867000027],[100.53501453700005,5.559094207000044],[100.52943587000004,5.557287814000063],[100.52358942700005,5.367882268000074],[100.53858488400004,5.248433098000021],[100.54739173900003,5.251514418000056],[100.55239022400008,5.259573182000054],[100.56714765800007,5.261706367000045],[100.57762067500005,5.257439990000023],[100.58380927600007,5.259099140000046],[100.58571346100007,5.257439990000023],[100.58499939200004,5.253647630000046],[100.63284203800004,5.239189047000025],[100.63236599200008,5.258151055000042],[100.63641238500009,5.257677012000045],[100.64164889400007,5.278534569000044],[100.64712342500007,5.277823528000056],[100.65093179500008,5.274505323000028],[100.65164586500003,5.26881693100006],[100.64736144900007,5.26692078800005],[100.64902761000008,5.265261659000032],[100.66640329800003,5.274505323000028],[100.66830748300004,5.276638456000057],[100.66616527500008,5.28137872700006],[100.66307097400005,5.279245610000032],[100.66211888200007,5.283274825000035],[100.66830748300004,5.284933906000049],[100.67330596800008,5.283037813000021],[100.67568620000009,5.284933906000049],[100.67616224600005,5.293466253000076],[100.68663526300008,5.288726075000056],[100.69258584100004,5.303420509000034],[100.68496910100004,5.309108584000057],[100.69091967900005,5.324513521000029],[100.68877747100004,5.328305446000059],[100.70091665000007,5.330675388000031],[100.71210373700006,5.337311175000025],[100.71257978300008,5.333282313000041],[100.72186268500008,5.330201400000021],[100.72019652300008,5.323802532000059],[100.72305280000006,5.320247577000032],[100.72400489300009,5.311478599000054],[100.73641732500005,5.30914223700006],[100.73735743200007,5.314758648000065],[100.74084409800008,5.317651706000049],[100.78442743300008,5.316494484000032],[100.78907632200008,5.322859175000076],[100.81290187800005,5.324594988000058],[100.81755076700006,5.328066600000056],[100.81929410100008,5.333852576000027],[100.84911236600004,5.354753960000039],[100.84911236600004,5.370122169000069],[100.85365229600006,5.388201919000039],[100.86091618500006,5.397241592000057],[100.85183632400003,5.408992965000039],[100.86574218600003,5.426630422000073]]]}},{"type":"Feature","properties":{"state":"Kedah","district":"Baling"},"geometry":{"type":"Polygon","coordinates":[[[100.97657092000009,5.775767139000038],[101.02138178200005,5.753315180000072],[101.01708980100005,5.765942833000054],[100.99711410600008,5.781300294000062],[100.98803424500005,5.79123725200003],[100.98531028600007,5.804787369000053],[100.98985021700008,5.816530539000041],[101.00619396700006,5.837306317000071],[101.01708980100005,5.888790788000051],[101.02889362100007,5.91588596500003],[101.04160542700004,5.917692263000049],[101.05250126000004,5.91588596500003],[101.06702903900003,5.921304841000051],[101.08518876100004,5.91317650700006],[101.09426862300006,5.943882919000032],[101.10062452600005,5.954720068000029],[101.11878424900004,5.970975390000035],[101.12241619300005,5.980005916000039],[101.11152035900005,5.987230229000033],[101.10425647000005,5.998066520000066],[101.11061237300004,6.015223541000069],[101.11333633200007,6.030574100000024],[101.10970438700008,6.04050658400007],[101.09474077600004,6.050872291000076],[101.03953521800008,6.046249282000076],[100.99769521700006,6.046827160000021],[100.98839743900004,6.044515644000057],[100.98142410600008,6.032957913000075],[100.95817966000004,6.038736809000056],[100.87624299100008,5.995393589000059],[100.86694521300006,5.982100977000073],[100.88960854700008,5.945689125000058],[100.89716299200006,5.906384740000021],[100.88960854700008,5.882107108000071],[100.89193299200008,5.869389830000046],[100.87605703600008,5.830033798000045],[100.88089188000004,5.820414042000039],[100.88237952500003,5.80117403600002],[100.88051996900003,5.791553787000055],[100.87419748000008,5.780823316000067],[100.86266823500006,5.771572746000061],[100.85932103500005,5.761211929000069],[100.87010645800007,5.753071154000054],[100.87940423600008,5.73826944700005],[100.88758628100004,5.736049158000071],[100.88795819200004,5.727537970000071],[100.88423908100003,5.718656594000038],[100.87456939100008,5.719396714000027],[100.87047836900007,5.716806290000022],[100.87196601300008,5.705334272000073],[100.87010645800007,5.698302922000039],[100.86713116900006,5.696082478000051],[100.86155250200005,5.71421585500002],[100.86229632400006,5.718656594000038],[100.85932103500005,5.722727242000076],[100.85374236800004,5.722727242000076],[100.84593223500008,5.712735601000077],[100.83477490100006,5.719396714000027],[100.82138610100009,5.716436229000067],[100.80055907800005,5.72124701000007],[100.79349276700003,5.716066167000065],[100.78159161100007,5.712735601000077],[100.77155001000006,5.719026654000061],[100.74105329800005,5.718656594000038],[100.72654876500008,5.706074410000042],[100.71650716400006,5.703853995000031],[100.71762289800006,5.693491949000077],[100.70683747500004,5.697562775000051],[100.70088689700003,5.693491949000077],[100.69679587500008,5.68609037300007],[100.67708458500005,5.69793284900004],[100.67039018500009,5.709405015000073],[100.67076209600003,5.723097299000074],[100.66778680700008,5.73530906000002],[100.67039018500009,5.745670349000022],[100.66332387400007,5.759731797000029],[100.66220814100006,5.747890601000051],[100.65402609600005,5.731608554000047],[100.65365418500005,5.707184613000038],[100.64695978500004,5.698672996000028],[100.65700138500006,5.694602177000036],[100.66072049600007,5.689421094000068],[100.66034858500007,5.68349979900006],[100.66332387400007,5.677578442000026],[100.67076209600003,5.672767296000075],[100.66072049600007,5.649451171000067],[100.66443960700008,5.633906566000064],[100.65365418500005,5.613920034000046],[100.64435640700003,5.620212165000055],[100.64063729600008,5.611699266000073],[100.63171142900006,5.614660289000028],[100.62204173900005,5.611699266000073],[100.62799231700006,5.604666778000023],[100.62873614000006,5.599484891000031],[100.62315747300005,5.597634205000077],[100.61869453900005,5.599114754000027],[100.61903669800006,5.591786002000049],[100.61332414300006,5.577572402000044],[100.61784658200008,5.569754775000035],[100.60999181900007,5.565016769000067],[100.60552888500007,5.551454015000047],[100.61125631700008,5.551365175000058],[100.61646307300003,5.560249111000076],[100.62613276200005,5.560249111000076],[100.63729009500008,5.567652289000023],[100.65030698500004,5.55247567400005],[100.66183622900007,5.548774001000027],[100.66629916300008,5.550624841000058],[100.67380105700005,5.545600021000041],[100.67974211400008,5.545145155000057],[100.68385515300008,5.536654266000028],[100.68553083600005,5.523007939000024],[100.69071021900004,5.514668363000055],[100.69786995400005,5.509816191000027],[100.70000264100008,5.50102153000006],[100.70972350600005,5.494179042000042],[100.70591513600004,5.485412581000048],[100.70710525100009,5.481384705000039],[100.69806037300003,5.472381118000044],[100.70020258100004,5.456269098000064],[100.70282083500007,5.453188810000029],[100.70900943600009,5.452004080000052],[100.70972350600005,5.445132597000054],[100.72281477700005,5.445132597000054],[100.72543303100008,5.442526151000038],[100.72471896200005,5.434469795000041],[100.72876535500006,5.422622016000048],[100.72686117000006,5.417171960000076],[100.73733418700004,5.416935],[100.74566499600007,5.408404375000032],[100.75756615200004,5.405086877000031],[100.76875323900003,5.409352228000046],[100.77279963200004,5.407930448000059],[100.79922019800006,5.414091472000052],[100.80231449900003,5.401769361000049],[100.81112135400008,5.396082149000051],[100.81683390900008,5.39560821200007],[100.84968109900007,5.418593719000057],[100.86574218600003,5.426630422000073],[100.86868854700003,5.446089648000054],[100.86752632400004,5.463444036000055],[100.87508076900008,5.47848409900007],[100.88321632500003,5.481954829000074],[100.88205410300009,5.492945340000063],[100.88786521400004,5.498151302000053],[100.89600077000006,5.497572864000063],[100.90123077000004,5.491210010000032],[100.90704188100005,5.491788454000073],[100.91982632600008,5.498729739000055],[100.93086743700007,5.512612066000031],[100.93261077100004,5.531699735000075],[100.94132743800009,5.542689326000072],[100.94248966000004,5.549051628000029],[100.94016521500004,5.554835479000076],[100.93493521500005,5.559462518000032],[100.93551632600008,5.571029958000054],[100.94423299300007,5.581440460000067],[100.94365188200004,5.588380691000054],[100.93086743700007,5.59127243000006],[100.92331299300008,5.602839243000062],[100.92505632600006,5.610357548000025],[100.92970521500007,5.618454076000035],[100.94539521600007,5.629442042000051],[100.94016521500004,5.643899574000045],[100.94248966000004,5.649104198000032],[100.94830077100005,5.649104198000032],[100.95411188300005,5.643899574000045],[100.96663982100006,5.651539331000038],[100.98082710500006,5.702363053000056],[100.97515219100006,5.717891628000075],[100.96238363600008,5.727773229000036],[100.95245253800005,5.740477893000048],[100.94535889600007,5.757417005000036],[100.94677762500004,5.770121007000057],[100.96096490800005,5.777178663000029],[100.97657092000009,5.775767139000038]]]}},{"type":"Feature","properties":{"state":"Kedah","district":"Kuala Muda"},"geometry":{"type":"Polygon","coordinates":[[[100.52943587000004,5.557287814000063],[100.53501453700005,5.559094207000044],[100.54072709200005,5.565490571000055],[100.54429743800006,5.560515627000029],[100.54263127700005,5.551276335000068],[100.54667767000007,5.549381077000021],[100.55096208600008,5.552223961000038],[100.55857882600009,5.54724890600005],[100.55596057100007,5.536824843000034],[100.56643358800005,5.536824843000034],[100.56714765800007,5.530428169000061],[100.57262218900007,5.531849658000056],[100.57238416600006,5.540852344000029],[100.58071497600008,5.543458359000056],[100.58410680500003,5.542110932000071],[100.59377649400005,5.546923156000048],[100.59675178300006,5.549514338000051],[100.59749560500006,5.555066831000033],[100.60084280500007,5.555436996000026],[100.60552888500007,5.551454015000047],[100.60999181900007,5.565016769000067],[100.61784658200008,5.569754775000035],[100.61332414300006,5.577572402000044],[100.61903669800006,5.591786002000049],[100.61869453900005,5.599114754000027],[100.62315747300005,5.597634205000077],[100.62873614000006,5.599484891000031],[100.62799231700006,5.604666778000023],[100.62204173900005,5.611699266000073],[100.63171142900006,5.614660289000028],[100.64063729600008,5.611699266000073],[100.64435640700003,5.620212165000055],[100.65365418500005,5.613920034000046],[100.66443960700008,5.633906566000064],[100.66072049600007,5.649451171000067],[100.67076209600003,5.670916844000033],[100.66332387400007,5.677578442000026],[100.66034858500007,5.68349979900006],[100.66072049600007,5.689421094000068],[100.65700138500006,5.694602177000036],[100.64695978500004,5.698672996000028],[100.65365418500005,5.707184613000038],[100.65402609600005,5.731608554000047],[100.66220814100006,5.747890601000051],[100.66332387400007,5.759731797000029],[100.65923285200006,5.763432120000061],[100.65700138500006,5.770832694000035],[100.64993507400004,5.771942772000045],[100.64695978500004,5.778233171000068],[100.64733169600004,5.783043430000021],[100.65067889600004,5.787113617000045],[100.64584405100004,5.79044374800003],[100.63245525100007,5.787853647000077],[100.63171142900006,5.791923799000074],[100.63580245100007,5.797843968000052],[100.63133951700007,5.798213977000046],[100.62947996200006,5.804874088000076],[100.62501702800006,5.805984099000057],[100.62538893900006,5.808574116000045],[100.63282716200007,5.813384116000066],[100.62836422800007,5.824483959000077],[100.62092600600005,5.828553846000034],[100.60419000600007,5.827073891000055],[100.60195853900007,5.841503292000027],[100.57964387100009,5.841503292000027],[100.55905487200005,5.848754850000034],[100.54215523000005,5.85846291200005],[100.51978105700005,5.864145602000065],[100.51954303400004,5.871959206000042],[100.49145630600003,5.867934029000025],[100.49098026000007,5.860357149000038],[100.48455363600004,5.860830707000048],[100.47289050300009,5.867934029000025],[100.46836806400006,5.868170805000034],[100.46336957800008,5.865329488000043],[100.47003422600005,5.850175553000042],[100.46122737000007,5.849228418000052],[100.46622585600005,5.843072004000021],[100.46217946300004,5.837625889000037],[100.45789504700008,5.835257996000053],[100.45432470000009,5.836205155000073],[100.44054911200004,5.825223941000047],[100.43943337800005,5.821894015000055],[100.44389631200005,5.817454084000076],[100.43645808900004,5.807094108000058],[100.43831764500004,5.79525390200007],[100.43385471200008,5.792663824000044],[100.43050751100009,5.782303393000063],[100.41972208900006,5.776383061000047],[100.41079622200004,5.761951994000071],[100.40261417700003,5.753811230000053],[100.39740742200007,5.733458810000059],[100.39034111000007,5.72050689200006],[100.38439053200005,5.717546413000036],[100.36467924300007,5.716436229000067],[100.35389382000005,5.718286534000072],[100.35149964200008,5.702304326000046],[100.35905408700006,5.682643981000069],[100.36777075400005,5.677439660000061],[100.37358186500006,5.679174439000064],[100.37997408800004,5.677439660000061],[100.38346075500004,5.665874333000033],[100.39973186600008,5.657778466000025],[100.40147520000005,5.653152206000073],[100.38462297700005,5.653730491000033],[100.37590631000006,5.661826414000075],[100.37300075400003,5.669922224000061],[100.36195964300003,5.664717788000075],[100.35498630900008,5.664139514000055],[100.34452630900006,5.674548350000066],[100.33697186400008,5.660669860000041],[100.33174186400004,5.657778466000025],[100.33522853100004,5.652573921000055],[100.34220186400006,5.648525909000057],[100.33983558000006,5.577572402000044],[100.36268579900008,5.574018948000059],[100.37101660800005,5.584679245000075],[100.37982346400008,5.580652044000033],[100.38386985700004,5.583968564000031],[100.38982043500005,5.57828309000007],[100.39624705900007,5.57828309000007],[100.40433984500004,5.574729640000044],[100.41195658500004,5.566201274000036],[100.42338169400006,5.563595359000033],[100.43171250400007,5.566201274000036],[100.43337866500008,5.563121556000056],[100.44575586800005,5.566911976000029],[100.44766005200006,5.562173947000076],[100.45313458400005,5.568807177000053],[100.45789504700008,5.564779867000027],[100.46408364800004,5.566911976000029],[100.47360457200006,5.563121556000056],[100.48026922000008,5.564779867000027],[100.48574375100009,5.562173947000076],[100.48812398300004,5.570702372000028],[100.49312246800008,5.567385777000027],[100.50589057600007,5.566770169000051],[100.50925997800005,5.559628389000068],[100.51312855100008,5.561180957000033],[100.52367353100004,5.559317875000033],[100.52336155000006,5.550126581000029],[100.52660615900004,5.550747619000049],[100.52943587000004,5.557287814000063]]]}},{"type":"Feature","properties":{"state":"Kedah","district":"Yan"},"geometry":{"type":"MultiPolygon","coordinates":[[[[100.28750428000006,5.743107252000073],[100.28937270400007,5.746022565000033],[100.28440439600007,5.753712160000021],[100.28563585700005,5.744332530000065],[100.28750428000006,5.743107252000073]]],[[[100.29473115100006,5.81448586700003],[100.29201079000006,5.813825777000034],[100.29201079000006,5.810063253000067],[100.29599180600007,5.809799215000055],[100.29473115100006,5.81448586700003]]],[[[100.33647350300004,5.879858200000058],[100.32626826200004,5.881308420000039],[100.32221856300004,5.876313203000052],[100.31752091300007,5.874701833000074],[100.32788814200006,5.874540696000054],[100.33647350300004,5.879858200000058]]],[[[100.47003422600005,5.850175553000042],[100.44908819100004,5.898714048000045],[100.45384865400007,5.905343367000057],[100.45313458400005,5.924047090000045],[100.44480377500008,5.935411068000064],[100.44361365900005,5.941329713000073],[100.43528285000008,5.949615711000035],[100.42385774100006,5.967134264000038],[100.41790716300005,5.968317930000069],[100.41647902400007,5.971868913000037],[100.41505088500008,5.969975058000045],[100.40886228400007,5.972105644000067],[100.38958241200004,5.969975058000045],[100.38648811100006,5.973526030000073],[100.38839229600006,5.976840249000077],[100.38696415700008,5.978970808000042],[100.37934741800007,5.973762761000046],[100.37315881600006,5.974709682000025],[100.35935347600008,5.969028129000037],[100.35030859700004,5.973526030000073],[100.35672964300005,5.886153454000066],[100.35382408700008,5.877482677000046],[100.36021630900007,5.861296865000043],[100.36777075400005,5.814470985000071],[100.36312186500004,5.760124957000073],[100.35847297600009,5.750295864000066],[100.36195964300003,5.741622993000021],[100.35389382000005,5.718286534000072],[100.36467924300007,5.716436229000067],[100.38439053200005,5.717546413000036],[100.39034111000007,5.72050689200006],[100.39740742200007,5.733458810000059],[100.40261417700003,5.753811230000053],[100.41079622200004,5.761951994000071],[100.41972208900006,5.776383061000047],[100.43050751100009,5.782303393000063],[100.43385471200008,5.792663824000044],[100.43831764500004,5.79525390200007],[100.43645808900004,5.807094108000058],[100.44389631200005,5.817454084000076],[100.43943337800005,5.821894015000055],[100.44054911200004,5.825223941000047],[100.45432470000009,5.836205155000073],[100.45789504700008,5.835257996000053],[100.46217946300004,5.837625889000037],[100.46622585600005,5.843072004000021],[100.46122737000007,5.849228418000052],[100.47003422600005,5.850175553000042]]]]}},{"type":"Feature","properties":{"state":"Kedah","district":"Pendang"},"geometry":{"type":"Polygon","coordinates":[[[100.60191734300008,5.840765608000027],[100.60493382800007,5.852602578000074],[100.61200013900009,5.859262044000047],[100.61162822800009,5.867771246000075],[100.61609116100004,5.873320656000033],[100.61274396100004,5.879979874000071],[100.61125631700008,5.892188235000049],[100.61311587200004,5.896257629000047],[100.62836422800007,5.909205501000031],[100.62947996200006,5.919933509000032],[100.63877774000008,5.924002699000027],[100.64212494000009,5.935470255000041],[100.65193409600005,5.945111140000051],[100.65948854100009,5.958982621000075],[100.69493631900008,5.986146588000054],[100.69726076400008,5.993081853000035],[100.69609854200007,5.998283244000049],[100.68505743000009,6.013309205000041],[100.65832631800004,6.031224232000056],[100.65116981800008,6.055428689000053],[100.64236296300004,6.060399262000033],[100.64164889400007,6.068210069000031],[100.63736447800005,6.072470462000069],[100.63712645500004,6.077204192000067],[100.64545726400007,6.106079042000033],[100.64188691700008,6.113179177000063],[100.63022378400007,6.111759158000041],[100.62522529900008,6.113652516000059],[100.62308309100007,6.11838588300003],[100.60902485000008,6.11891838400004],[100.60344618300007,6.117069419000075],[100.60121471700006,6.109673497000074],[100.58745400500004,6.11115269000004],[100.58373489400009,6.107824501000039],[100.57480902700007,6.107084900000075],[100.56439551500006,6.110782892000032],[100.55732920400004,6.104866093000055],[100.54245275900007,6.104866093000055],[100.53613027000006,6.093402109000067],[100.51827853600008,6.079718969000055],[100.51716280300008,6.07639058500007],[100.51232795800007,6.07639058500007],[100.50563355800006,6.083047332000035],[100.49484813600009,6.079718969000055],[100.48964138000008,6.08341714900007],[100.48369080200007,6.079349149000052],[100.47402111300005,6.079718969000055],[100.47216155700005,6.074541474000057],[100.46435142400009,6.073062180000022],[100.46472333500009,6.064186334000055],[100.45914466800008,6.050872291000076],[100.44315249000005,6.041996080000047],[100.38587817700005,6.043105614000069],[100.40946238600009,5.97173835500007],[100.41505088500008,5.969975058000045],[100.41647902400007,5.971868913000037],[100.41790716300005,5.968317930000069],[100.42385774100006,5.967134264000038],[100.43528285000008,5.949615711000035],[100.44361365900005,5.941329713000073],[100.44480377500008,5.935411068000064],[100.45313458400005,5.924047090000045],[100.45384865400007,5.905343367000057],[100.44908819100004,5.898714048000045],[100.46402652200004,5.866200827000057],[100.47289050300009,5.867934029000025],[100.48455363600004,5.860830707000048],[100.49098026000007,5.860357149000038],[100.49145630600003,5.867934029000025],[100.51954303400004,5.871959206000042],[100.51978105700005,5.864145602000065],[100.54215523000005,5.85846291200005],[100.55905487200005,5.848754850000034],[100.57964387100009,5.841503292000027],[100.60191734300008,5.840765608000027]]]}},{"type":"Feature","properties":{"state":"Kedah","district":"Sik"},"geometry":{"type":"Polygon","coordinates":[[[101.09474077600004,6.050872291000076],[101.10171410900006,6.061851777000072],[101.10868744300006,6.064741079000044],[101.11043077600004,6.072253190000026],[101.11566077600008,6.077453821000063],[101.11507966500005,6.090166263000071],[101.12321522100007,6.091899754000053],[101.12612077700004,6.096522371000049],[101.12437744300007,6.107500926000057],[101.12147188800009,6.113279022000029],[101.10752522000007,6.113856828000053],[101.10520077600006,6.12079045400003],[101.09474077600004,6.12772399000005],[101.07382077500006,6.137546345000032],[101.05754966300003,6.140435238000066],[101.06103633000004,6.151412890000074],[101.07440188600003,6.160657053000023],[101.07440188600003,6.168745563000073],[101.08253744200005,6.173367514000063],[101.11333633200007,6.183189025000047],[101.11972855400006,6.186655397000038],[101.12437744300007,6.194165792000035],[101.11566077600008,6.206875447000073],[101.11856633200006,6.212652462000051],[101.11566077600008,6.220162487000039],[101.10403855400006,6.236915232000058],[101.10810633200003,6.241536584000073],[101.11043077600004,6.250201511000057],[101.09362504200004,6.259790529000043],[101.08804637500003,6.259790529000043],[101.06870699700005,6.255723882000041],[101.06610361900005,6.259051141000043],[101.06164068600003,6.258311752000054],[101.04639233000006,6.252766301000065],[101.03858219600005,6.246851089000074],[101.02928441800003,6.245741980000048],[101.02630912900008,6.24943900300002],[101.01106077300005,6.249808704000031],[101.00399446200004,6.259790529000043],[100.99655623900009,6.260899608000045],[100.98093597200005,6.277535524000029],[100.96717526100008,6.284559417000025],[100.96680335000008,6.273099332000072],[100.95006734900005,6.264226834000056],[100.94634823800004,6.245741980000048],[100.93965383800008,6.24278434200005],[100.92998414900006,6.242414637000024],[100.91882681500005,6.249069302000066],[100.90181188100007,6.235182214000076],[100.89425743600003,6.239803582000036],[100.88031076900006,6.257710997000061],[100.87333743600004,6.262332166000022],[100.86868854700003,6.250201511000057],[100.87043188000007,6.241536584000073],[100.85474188000006,6.230560805000039],[100.85474188000006,6.195898945000067],[100.85997188000005,6.180300364000061],[100.85997188000005,6.172212030000026],[100.85648521300004,6.16412357300004],[100.84834965700009,6.153146183000047],[100.83265965700008,6.153723946000071],[100.82859187900004,6.156034992000059],[100.81290187800005,6.154879470000026],[100.80534743400005,6.161234808000074],[100.80360410000009,6.148524056000042],[100.80709076700003,6.12772399000005],[100.80592854500009,6.120212655000046],[100.80186076700005,6.110967791000064],[100.78791410000008,6.093633240000031],[100.78791410000008,6.085636045000058],[100.79088938900009,6.083047332000035],[100.78713814500009,6.075727272000051],[100.78820448800008,6.070879919000049],[100.78119708700007,6.069365112000071],[100.78485312300006,6.061488048000058],[100.77586537000008,6.058609861000036],[100.77784572200005,6.054671264000035],[100.77434202200004,6.051338584000064],[100.76855329900008,6.059821731000056],[100.76550660400005,6.053459383000074],[100.75438616300005,6.049823722000042],[100.75133946800008,6.044673160000059],[100.75469083300004,6.03573530500006],[100.74844510600008,6.030130133000057],[100.74494140600007,6.032705490000069],[100.74098070100007,6.030130133000057],[100.73900034900004,6.036795736000045],[100.73625832300007,6.038007655000058],[100.73549664900008,6.028160735000029],[100.72970792700005,6.021646521000037],[100.73397330100005,6.017707656000027],[100.72970792700005,6.012405292000039],[100.73229761800008,6.00816336400004],[100.72666123100004,6.002254910000033],[100.73184061400008,6.002557909000075],[100.72940325700006,5.995134379000035],[100.73123127500008,5.997103897000045],[100.73701999700006,5.996043388000032],[100.73382096600005,5.991346825000051],[100.73488731000003,5.985438188000046],[100.72361453500008,5.980590028000051],[100.72224352200004,5.976196345000062],[100.71660713400007,5.975590317000069],[100.71782581200006,5.959227311000063],[100.71615013000007,5.958015217000025],[100.71005673800005,5.962409045000072],[100.70167832400006,5.959833357000036],[100.69954563700009,5.967711894000047],[100.68827286200008,5.970136036000042],[100.68303088600004,5.977773665000029],[100.65948854100009,5.958982621000075],[100.65193409600005,5.945111140000051],[100.64212494000009,5.935470255000041],[100.63877774000008,5.924002699000027],[100.62947996200006,5.919933509000032],[100.62836422800007,5.909205501000031],[100.61311587200004,5.896257629000047],[100.61125631700008,5.892188235000049],[100.61274396100004,5.879979874000071],[100.61609116100004,5.873320656000033],[100.61162822800009,5.867771246000075],[100.61200013900009,5.859262044000047],[100.60493382800007,5.852602578000074],[100.60191734300008,5.840765608000027],[100.60233045000007,5.829663810000056],[100.60419000600007,5.827073891000055],[100.60976867200009,5.826333911000063],[100.62092600600005,5.828553846000034],[100.62836422800007,5.824483959000077],[100.63282716200007,5.813384116000066],[100.62538893900006,5.808574116000045],[100.62501702800006,5.805984099000057],[100.62947996200006,5.804874088000076],[100.63133951700007,5.798213977000046],[100.63580245100007,5.797843968000052],[100.63171142900006,5.791923799000074],[100.63245525100007,5.787853647000077],[100.64584405100004,5.79044374800003],[100.65067889600004,5.787113617000045],[100.64733169600004,5.783043430000021],[100.64695978500004,5.778233171000068],[100.64993507400004,5.771942772000045],[100.65700138500006,5.770832694000035],[100.65923285200006,5.763432120000061],[100.67039018500009,5.745670349000022],[100.66778680700008,5.73530906000002],[100.67076209600003,5.723097299000074],[100.67039018500009,5.709405015000073],[100.67708458500005,5.69793284900004],[100.69679587500008,5.68609037300007],[100.70088689700003,5.693491949000077],[100.70683747500004,5.697562775000051],[100.71762289800006,5.693491949000077],[100.71650716400006,5.703853995000031],[100.72654876500008,5.706074410000042],[100.74105329800005,5.718656594000038],[100.77155001000006,5.719026654000061],[100.78159161100007,5.712735601000077],[100.79349276700003,5.716066167000065],[100.80055907800005,5.72124701000007],[100.82138610100009,5.716436229000067],[100.83477490100006,5.719396714000027],[100.84593223500008,5.712735601000077],[100.85374236800004,5.722727242000076],[100.85932103500005,5.722727242000076],[100.86229632400006,5.718656594000038],[100.86155250200005,5.71421585500002],[100.86713116900006,5.696082478000051],[100.87010645800007,5.698302922000039],[100.87196601300008,5.705334272000073],[100.87047836900007,5.716806290000022],[100.87456939100008,5.719396714000027],[100.88423908100003,5.718656594000038],[100.88833010300004,5.733088759000054],[100.88758628100004,5.736049158000071],[100.87940423600008,5.73826944700005],[100.87010645800007,5.753071154000054],[100.85932103500005,5.761211929000069],[100.86266823500006,5.771572746000061],[100.87419748000008,5.780823316000067],[100.88051996900003,5.791553787000055],[100.88237952500003,5.80117403600002],[100.88089188000004,5.820414042000039],[100.87605703600008,5.830033798000045],[100.89193299200008,5.869389830000046],[100.88960854700008,5.882107108000071],[100.89716299200006,5.906384740000021],[100.88960854700008,5.945689125000058],[100.86694521300006,5.982100977000073],[100.86985076900004,5.987880413000028],[100.88437854700004,6.001172884000027],[100.89541965900008,6.004640432000031],[100.95817966000004,6.038736809000056],[100.98142410600008,6.032957913000075],[100.98839743900004,6.044515644000057],[100.99769521700006,6.046827160000021],[101.03953521800008,6.046249282000076],[101.09474077600004,6.050872291000076]]]}},{"type":"Feature","properties":{"state":"Kedah","district":"Kota Setar"},"geometry":{"type":"Polygon","coordinates":[[[100.40946238600009,5.97173835500007],[100.38587817700005,6.043105614000069],[100.44315249000005,6.041996080000047],[100.46174804600008,6.054200832000049],[100.46472333500009,6.064186334000055],[100.46435142400009,6.073062180000022],[100.47216155700005,6.074541474000057],[100.47464951400008,6.079986769000072],[100.47360457200006,6.085014755000032],[100.46265550900006,6.081701197000029],[100.45932318500007,6.082884613000033],[100.45789504700008,6.089038335000055],[100.44266156700007,6.109155779000048],[100.43956726600004,6.131165764000059],[100.44075738200007,6.134715676000042],[100.44480377500008,6.130692440000075],[100.44861214500008,6.130929102000039],[100.45242051500009,6.137082271000054],[100.45230626400007,6.156611014000021],[100.46510238700006,6.163275045000034],[100.46571172600005,6.18220649400007],[100.47226212200007,6.183872429000075],[100.47073877400004,6.194170820000068],[100.45687630800006,6.212495402000059],[100.45657163800007,6.21734146600005],[100.45002124200005,6.212495402000059],[100.43951014100008,6.215069879000055],[100.43783445800005,6.217947221000031],[100.43661578000007,6.212495402000059],[100.43402608800005,6.215978515000074],[100.43204573600008,6.215221319000023],[100.43219807100007,6.205529107000075],[100.42519067000006,6.201288709000039],[100.41665992200006,6.200682935000032],[100.40298608800003,6.203963808000026],[100.39852315500008,6.206921664000049],[100.39815124400008,6.210618960000033],[100.37472084300003,6.211358416000053],[100.34608368700003,6.23095362600003],[100.28032980000006,6.222982531000071],[100.28080584700007,6.220852941000032],[100.28651840100008,6.22132618400002],[100.28461421700007,6.21351762300003],[100.28009177700005,6.207838596000045],[100.28223398500006,6.202869397000029],[100.25677852900009,6.181455830000061],[100.27246852900004,6.15199065500002],[100.27653630700007,6.139279683000041],[100.28002297400008,6.109234361000063],[100.28467186300009,6.094788894000033],[100.31140297500008,6.068208220000031],[100.32767408600006,6.038736809000056],[100.34220186400006,6.005796277000059],[100.35030859700004,5.973526030000073],[100.35935347600008,5.969028129000037],[100.37315881600006,5.974709682000025],[100.37934741800007,5.973762761000046],[100.38696415700008,5.978970808000042],[100.38839229600006,5.976840249000077],[100.38648811100006,5.973526030000073],[100.38958241200004,5.969975058000045],[100.40946238600009,5.97173835500007]]]}},{"type":"Feature","properties":{"state":"Kedah","district":"Pokok Sena"},"geometry":{"type":"Polygon","coordinates":[[[100.640854984984,6.113042368541794],[100.64063729600008,6.120397551000053],[100.63803391800008,6.123355873000037],[100.64026538400009,6.13481921500005],[100.63691818400008,6.139256571000033],[100.61832262800004,6.155896329000029],[100.60828102800008,6.161073036000062],[100.59600796100005,6.163291610000044],[100.59600796100005,6.168838003000076],[100.60270236100007,6.176233103000072],[100.59637987200006,6.189544023000053],[100.58931356100004,6.197678309000025],[100.58745400500004,6.218383198000026],[100.58299107200008,6.227626189000034],[100.57402176500005,6.218855852000047],[100.56518634700006,6.215221319000023],[100.56107330800006,6.206589202000032],[100.54385947600008,6.19068756300004],[100.51781022600005,6.233999470000072],[100.51994291300008,6.236270975000025],[100.51537286900003,6.240965387000074],[100.51004115100005,6.255654083000024],[100.50272908100004,6.254745516000071],[100.50166273700006,6.249142650000067],[100.49953005000003,6.24899122100004],[100.49054229700005,6.254442660000052],[100.48749560200008,6.249294080000027],[100.48383956600009,6.249445510000044],[100.48475357500007,6.246265480000034],[100.47667983100007,6.242176842000049],[100.48033586600008,6.239451065000026],[100.47591815700008,6.238542470000027],[100.47835551400004,6.235059507000074],[100.47073877400004,6.23763387300005],[100.46921542600006,6.233393733000071],[100.46693040400004,6.233090865000065],[100.47028177000004,6.230667911000069],[100.46891075600007,6.220975985000052],[100.47302379600006,6.21734146600005],[100.46799674800008,6.212646842000026],[100.46083701200007,6.212495402000059],[100.45960412600004,6.210291276000021],[100.47073877400004,6.194170820000068],[100.47226212200007,6.183872429000075],[100.46571172600005,6.18220649400007],[100.46510238700006,6.163275045000034],[100.45230626400007,6.156611014000021],[100.45242051500009,6.137082271000054],[100.44861214500008,6.130929102000039],[100.44480377500008,6.130692440000075],[100.44075738200007,6.134715676000042],[100.43956726600004,6.131165764000059],[100.44266156700007,6.109155779000048],[100.45789504700008,6.089038335000055],[100.45932318500007,6.082884613000033],[100.46265550900006,6.081701197000029],[100.47146236400005,6.085724801000026],[100.47360457200006,6.085014755000032],[100.47464951400008,6.079986769000072],[100.48034360200006,6.078979330000038],[100.48964138000008,6.08341714900007],[100.49484813600009,6.079718969000055],[100.50563355800006,6.083047332000035],[100.51232795800007,6.07639058500007],[100.51716280300008,6.07639058500007],[100.51827853600008,6.079718969000055],[100.53613027000006,6.093402109000067],[100.54245275900007,6.104866093000055],[100.55732920400004,6.104866093000055],[100.56439551500006,6.110782892000032],[100.57480902700007,6.107084900000075],[100.58373489400009,6.107824501000039],[100.58745400500004,6.11115269000004],[100.60121471700006,6.109673497000074],[100.60344618300007,6.117069419000075],[100.60902485000008,6.11891838400004],[100.62308309100007,6.11838588300003],[100.62522529900008,6.113652516000059],[100.63022378400007,6.111759158000041],[100.640854984984,6.113042368541794]]]}},{"type":"Feature","properties":{"state":"Kedah","district":"Padang Terap"},"geometry":{"type":"Polygon","coordinates":[[[100.68303088600004,5.977773665000029],[100.68827286200008,5.970136036000042],[100.69954563700009,5.967711894000047],[100.70167832400006,5.959833357000036],[100.71005673800005,5.962409045000072],[100.71615013000007,5.958015217000025],[100.71782581200006,5.959227311000063],[100.71660713400007,5.975590317000069],[100.72224352200004,5.976196345000062],[100.72361453500008,5.980590028000051],[100.73488731000003,5.985438188000046],[100.73382096600005,5.991346825000051],[100.73701999700006,5.996043388000032],[100.73123127500008,5.997103897000045],[100.72940325700006,5.995134379000035],[100.73184061400008,6.002557909000075],[100.72666123100004,6.002254910000033],[100.73229761800008,6.00816336400004],[100.72970792700005,6.012405292000039],[100.73397330100005,6.017707656000027],[100.72970792700005,6.021646521000037],[100.73549664900008,6.028160735000029],[100.73625832300007,6.038007655000058],[100.73900034900004,6.036795736000045],[100.74098070100007,6.030130133000057],[100.74494140600007,6.032705490000069],[100.74844510600008,6.030130133000057],[100.75469083300004,6.03573530500006],[100.75133946800008,6.044673160000059],[100.75438616300005,6.049823722000042],[100.76550660400005,6.053459383000074],[100.76855329900008,6.059821731000056],[100.77434202200004,6.051338584000064],[100.77784572200005,6.054671264000035],[100.77586537000008,6.058609861000036],[100.78485312300006,6.061488048000058],[100.78119708700007,6.069365112000071],[100.78820448800008,6.070879919000049],[100.78713814500009,6.075727272000051],[100.79088938900009,6.083047332000035],[100.78791410000008,6.085636045000058],[100.78791410000008,6.093633240000031],[100.80186076700005,6.110967791000064],[100.80592854500009,6.120212655000046],[100.80709076700003,6.12772399000005],[100.80360410000009,6.148524056000042],[100.80534743400005,6.161234808000074],[100.81290187800005,6.154879470000026],[100.82859187900004,6.156034992000059],[100.83265965700008,6.153723946000071],[100.84834965700009,6.153146183000047],[100.85299854600004,6.15776826900003],[100.85997188000005,6.172212030000026],[100.85997188000005,6.180300364000061],[100.85474188000006,6.195898945000067],[100.85474188000006,6.230560805000039],[100.84428187900005,6.253667441000061],[100.84544410200004,6.26002158700004],[100.83440299000006,6.287747864000039],[100.83440299000006,6.295834417000037],[100.83847076800004,6.301032848000034],[100.84486299000008,6.303343246000054],[100.84951187900003,6.310274376000052],[100.83847076800004,6.32067089800006],[100.83730854600009,6.33568772600006],[100.82103743400006,6.353014293000058],[100.82045632300009,6.396905649000075],[100.82336187900006,6.402103060000059],[100.81348299000007,6.430399149000039],[100.81232076700007,6.441370678000055],[100.79023854400003,6.448299943000052],[100.77629187700006,6.461003349000066],[100.76408854400006,6.45696139100005],[100.75014187700003,6.458693663000076],[100.74142521000005,6.477748260000055],[100.74084409800008,6.505462754000064],[100.73619520900007,6.510081688000071],[100.73096520900003,6.50373064300004],[100.73096520900003,6.499111651000021],[100.72166743100007,6.493915234000042],[100.70655854200004,6.469664579000039],[100.69609854200007,6.469087169000034],[100.69261187500007,6.465045275000023],[100.68447631900005,6.463890442000036],[100.68331409700005,6.458116239000049],[100.65716409600009,6.447145072000069],[100.64437965100007,6.447145072000069],[100.64321742900006,6.45234197000002],[100.64554187300007,6.456383966000033],[100.62462187300008,6.457538815000021],[100.61648631700007,6.460425928000063],[100.61067520600005,6.469087169000034],[100.59789076100009,6.47081939900005],[100.59440409400008,6.475438651000047],[100.59440409400008,6.455806540000026],[100.59091742700008,6.431554058000074],[100.58103853800009,6.435596219000047],[100.56825409300006,6.428666781000061],[100.56179213800004,6.410603601000048],[100.56104831500005,6.393971976000046],[100.54468422600007,6.389906385000074],[100.52460102500004,6.378448637000076],[100.51902235900008,6.379557462000037],[100.51679089200007,6.376970199000027],[100.51679089200007,6.361815966000052],[100.51307178100006,6.360707102000049],[100.50377400300005,6.350727220000067],[100.50154253600004,6.34333459000004],[100.50117062500004,6.33815968600004],[100.50935266900007,6.327070430000049],[100.50488973600005,6.321525713000028],[100.51493133600007,6.309696785000028],[100.52385720300003,6.304521544000067],[100.52832013700004,6.296758586000067],[100.52162573600003,6.286407795000059],[100.52274147000008,6.281602],[100.51865044700008,6.274947750000024],[100.52311338100009,6.264226834000056],[100.52162573600003,6.261638994000066],[100.51084031400006,6.259051141000043],[100.51034582100004,6.251868376000061],[100.51994291300008,6.236270975000025],[100.51781022600005,6.233999470000072],[100.54385947600008,6.19068756300004],[100.56107330800006,6.206589202000032],[100.56518634700006,6.215221319000023],[100.57402176500005,6.218855852000047],[100.58299107200008,6.227626189000034],[100.58745400500004,6.218383198000026],[100.58931356100004,6.197678309000025],[100.59637987200006,6.189544023000053],[100.60270236100007,6.176233103000072],[100.59600796100005,6.168838003000076],[100.59600796100005,6.163291610000044],[100.60828102800008,6.161073036000062],[100.61832262800004,6.155896329000029],[100.64026538400009,6.13481921500005],[100.63803391800008,6.123355873000037],[100.64545726400007,6.106079042000033],[100.63712645500004,6.077204192000067],[100.63736447800005,6.072470462000069],[100.64164889400007,6.068210069000031],[100.64236296300004,6.060399262000033],[100.65116981800008,6.055428689000053],[100.65832631800004,6.031224232000056],[100.68505743000009,6.013309205000041],[100.69609854200007,5.998283244000049],[100.69726076400008,5.993081853000035],[100.69493631900008,5.986146588000054],[100.68303088600004,5.977773665000029]]]}},{"type":"Feature","properties":{"state":"Kedah","district":"Kubang Pasu"},"geometry":{"type":"Polygon","coordinates":[[[100.45960412600004,6.210291276000021],[100.46083701200007,6.212495402000059],[100.46799674800008,6.212646842000026],[100.47302379600006,6.21734146600005],[100.46891075600007,6.220975985000052],[100.47028177000004,6.230667911000069],[100.46693040400004,6.233090865000065],[100.46921542600006,6.233393733000071],[100.47073877400004,6.23763387300005],[100.47835551400004,6.235059507000074],[100.47591815700008,6.238542470000027],[100.48033586600008,6.239451065000026],[100.47667983100007,6.242176842000049],[100.48475357500007,6.246265480000034],[100.48383956600009,6.249445510000044],[100.48749560200008,6.249294080000027],[100.49054229700005,6.254442660000052],[100.50166273700006,6.249142650000067],[100.50272908100004,6.254745516000071],[100.51004115100005,6.255654083000024],[100.51018137400007,6.253911722000055],[100.51084031400006,6.259051141000043],[100.52162573600003,6.261638994000066],[100.52311338100009,6.264226834000056],[100.51865044700008,6.274947750000024],[100.52274147000008,6.281602],[100.52162573600003,6.286407795000059],[100.52832013700004,6.296758586000067],[100.52385720300003,6.304521544000067],[100.51493133600007,6.309696785000028],[100.50488973600005,6.321525713000028],[100.50935266900007,6.327070430000049],[100.50117062500004,6.33815968600004],[100.50377400300005,6.350727220000067],[100.51307178100006,6.360707102000049],[100.51679089200007,6.361815966000052],[100.51679089200007,6.376970199000027],[100.51902235900008,6.379557462000037],[100.52460102500004,6.378448637000076],[100.54468422600007,6.389906385000074],[100.56104831500005,6.393971976000046],[100.56179213800004,6.410603601000048],[100.56825409300006,6.428666781000061],[100.58103853800009,6.435596219000047],[100.59091742700008,6.431554058000074],[100.59440409400008,6.455806540000026],[100.59440409400008,6.475438651000047],[100.56997418200007,6.485993482000026],[100.56327978200005,6.495231665000063],[100.55435391500004,6.493014516000073],[100.54728760400008,6.486363012000027],[100.54133702600006,6.491905938000059],[100.53798982600006,6.48858019000005],[100.53352689200005,6.488210661000039],[100.51381560300007,6.491905938000059],[100.50823693600006,6.500035453000066],[100.50488973600005,6.498926890000064],[100.50005489100005,6.501144013000044],[100.50005489100005,6.505578228000047],[100.49522004700003,6.50779532100006],[100.49224475800008,6.512968500000056],[100.49633578000004,6.520358664000071],[100.49038520200008,6.525531713000021],[100.47030200200004,6.521467179000069],[100.46583906800004,6.523314698000036],[100.45951657900008,6.531443704000026],[100.45207835700006,6.527379218000021],[100.43943337800005,6.527379218000021],[100.42641648900008,6.523314698000036],[100.420094,6.51888064000002],[100.41749062200006,6.523314698000036],[100.41451533300005,6.525162211000065],[100.41079622200004,6.524053704000039],[100.40521755500004,6.528857217000052],[100.403358,6.534399673000053],[100.38848155500006,6.535138663000055],[100.38244171800005,6.541139218000069],[100.37315881600006,6.544686311000021],[100.36816033100007,6.539720374000069],[100.36482800700009,6.541139218000069],[100.36435196100007,6.544922783000061],[100.36030556800006,6.546341612000049],[100.35863940600007,6.549888667000062],[100.35982952200004,6.557219169000064],[100.35483103600006,6.561002611000049],[100.35078464300005,6.573062141000037],[100.34840441200004,6.567150643000048],[100.35387894400009,6.55296276200005],[100.37030253900008,6.529788354000061],[100.36316184500004,6.454345880000062],[100.31055873600008,6.409642678000068],[100.30746443600003,6.410352283000066],[100.27913968500008,6.369430100000045],[100.27342713000007,6.366591446000029],[100.25509935000008,6.347666684000046],[100.25124635100008,6.336681132000024],[100.23116315000004,6.320786413000064],[100.21889008300008,6.307109171000036],[100.21889008300008,6.301194577000047],[100.20475746000005,6.290843873000028],[100.20215408300004,6.281602],[100.20326981600005,6.266444972000045],[100.19322821600008,6.252026904000047],[100.21145186100006,6.243523753000034],[100.22074963900008,6.233171906000052],[100.23562608300006,6.222450134000042],[100.25677852900009,6.181455830000061],[100.28223398500006,6.202869397000029],[100.28009177700005,6.207838596000045],[100.28461421700007,6.21351762300003],[100.28651840100008,6.22132618400002],[100.28080584700007,6.220852941000032],[100.28032980000006,6.222982531000071],[100.34608368700003,6.23095362600003],[100.37472084300003,6.211358416000053],[100.39815124400008,6.210618960000033],[100.39852315500008,6.206921664000049],[100.40298608800003,6.203963808000026],[100.41665992200006,6.200682935000032],[100.42519067000006,6.201288709000039],[100.43219807100007,6.205529107000075],[100.43204573600008,6.215221319000023],[100.43402608800005,6.215978515000074],[100.43661578000007,6.212495402000059],[100.43783445800005,6.217947221000031],[100.43951014100008,6.215069879000055],[100.45002124200005,6.212495402000059],[100.45657163800007,6.21734146600005],[100.45687630800006,6.212495402000059],[100.45960412600004,6.210291276000021]]]}},{"type":"Feature","properties":{"state":"Kedah","district":"Langkawi"},"geometry":{"type":"MultiPolygon","coordinates":[[[[99.74133295800004,6.22825008500007],[99.73319740200009,6.22825008500007],[99.72331851300004,6.210919364000063],[99.72215629000004,6.206875447000073],[99.72738629100007,6.192432633000067],[99.72331851300004,6.189544023000053],[99.72215629000004,6.184922214000039],[99.72680518000004,6.179144895000036],[99.72912962400005,6.189544023000053],[99.73203518000008,6.19127719100004],[99.74249518000005,6.186077670000032],[99.75063073600006,6.197054377000029],[99.74481962400006,6.198787520000053],[99.74249518000005,6.207453152000028],[99.75004962500009,6.213807858000052],[99.75063073600006,6.21900710500006],[99.74307629100008,6.223628616000042],[99.74133295800004,6.22825008500007]]],[[[99.82385073800003,6.251934479000056],[99.82385073800003,6.264642736000042],[99.83837851600003,6.275617799000031],[99.84012185000006,6.279661186000055],[99.83954073800004,6.292946377000021],[99.83547296100005,6.294101595000029],[99.82849962700004,6.291213545000062],[99.82152629300003,6.281394056000067],[99.80176851500005,6.272152015000074],[99.78956518100006,6.242691916000069],[99.77619962500006,6.230560805000039],[99.77038851400005,6.21842941400007],[99.77503740300006,6.204564624000056],[99.78317295900007,6.207453152000028],[99.78724073700005,6.205142331000047],[99.78375407000004,6.201098369000022],[99.79130851500008,6.187810849000073],[99.78840295900005,6.183766755000022],[99.79421407000007,6.180300364000061],[99.79711962600004,6.186077670000032],[99.80234962600008,6.188388575000033],[99.80525518200005,6.174522995000075],[99.81222851500007,6.174522995000075],[99.82849962700004,6.194743510000023],[99.83024296000008,6.206875447000073],[99.83489184900009,6.211497064000071],[99.83489184900009,6.219584796000049],[99.83779740500006,6.224206302000027],[99.85116296100006,6.226517039000043],[99.85348740500007,6.213807858000052],[99.86278518400007,6.234026865000033],[99.85639296100004,6.240958917000057],[99.85639296100004,6.247313218000045],[99.86046073900008,6.250201511000057],[99.85406851700009,6.261176878000072],[99.84535185000004,6.267530933000046],[99.83431073800006,6.26002158700004],[99.82675629400006,6.248468537000065],[99.82385073800003,6.251934479000056]]],[[[99.93251851900004,6.320047112000054],[99.92879940800003,6.320786413000064],[99.92768367400004,6.324852551000049],[99.92210500800007,6.324113255000043],[99.91243531800006,6.319677461000026],[99.89140002500005,6.317858775000047],[99.88830572500007,6.313600361000056],[99.88497340100008,6.314546679000046],[99.88449735500006,6.311944302000029],[99.88806770200006,6.30815900500005],[99.91258408300007,6.310051657000031],[99.91115594400009,6.304846847000022],[99.91972477600007,6.302717591000032],[99.92284883000008,6.294170908000069],[99.92396456300008,6.308587809000073],[99.92768367400004,6.316720244000066],[99.93363425200005,6.311914730000069],[99.93251851900004,6.320047112000054]]],[[[99.87847518400008,6.425021569000023],[99.85214358600007,6.43314205300004],[99.84669566900004,6.440360153000029],[99.85395955800004,6.445773660000043],[99.84669566900004,6.46472047900005],[99.83943178000004,6.471035927000059],[99.82308803000006,6.475546914000063],[99.82127205700004,6.46111161500005],[99.79584844500005,6.438555637000036],[99.78495261200004,6.424119285000074],[99.74863316600005,6.425923852000039],[99.73773733300004,6.430435240000065],[99.70141788700005,6.436751116000039],[99.69143004000006,6.436751116000039],[99.66419045500004,6.429532965000021],[99.65783455200005,6.434946588000059],[99.64784670500006,6.438555637000036],[99.63967483000005,6.432239784000046],[99.63876684400003,6.418705548000048],[99.64330677400005,6.409682524000061],[99.64149080200008,6.38080777600004],[99.65057066300005,6.360955442000034],[99.66509844200004,6.362760231000038],[99.68961406700004,6.358248246000073],[99.70686580400007,6.359150646000046],[99.71503767900003,6.354638629000021],[99.72230156800003,6.332980398000075],[99.71412969300007,6.317638600000066],[99.71866962400009,6.30410134300007],[99.73228941600007,6.281538462000071],[99.73410538800005,6.273415585000066],[99.72865747100008,6.262584885000024],[99.73319740200009,6.259877175000042],[99.74046129100009,6.26890282100004],[99.75226511100004,6.272513035000031],[99.75680504200005,6.279733389000057],[99.76406893100005,6.281538462000071],[99.77042483400004,6.279733389000057],[99.77859670900006,6.291466250000042],[99.79312448700006,6.299588845000073],[99.80311233500004,6.31673612700007],[99.81582414000007,6.323053404000063],[99.82944393300005,6.324858326000026],[99.84487969700007,6.321248476000051],[99.85123560000005,6.314931177000062],[99.85214358600007,6.301393849000021],[99.85849948900005,6.297783835000075],[99.86667136400007,6.299588845000073],[99.86576337800005,6.30680882200005],[99.87938317000004,6.30680882200005],[99.88029115600006,6.314931177000062],[99.89209497600007,6.322150941000075],[99.91025469900006,6.328468152000028],[99.90934671300005,6.344712053000023],[99.90026685100008,6.355541036000034],[99.90026685100008,6.36456501400005],[99.90662275400007,6.374491207000062],[99.90934671300005,6.391635997000037],[99.90299081000006,6.392538339000055],[99.89572692100006,6.399757013000055],[99.89027900400004,6.414194056000042],[99.87847518400008,6.425021569000023]]]]}}]}