{"type":"FeatureCollection","features":[{"type":"Feature","properties":{"state":"Labuan","district":"Labuan"},"geometry":{"type":"MultiPolygon","coordinates":[[[[115.1279358050001,5.229840565000075],[115.12275642200007,5.234239868000031],[115.1209284040001,5.230295667000064],[115.12610778700002,5.22710994800002],[115.130525497,5.217856100000063],[115.14073192800004,5.218462914000042],[115.13738056200009,5.223469106000039],[115.13920858000006,5.226654844000052],[115.13600954900005,5.229233762000035],[115.1279358050001,5.229840565000075]]],[[[115.32815133100007,5.278860463000058],[115.31401870800005,5.282193458000052],[115.30732430800003,5.269972389000031],[115.31625017500005,5.268491032000043],[115.32666368700006,5.263306251000074],[115.32554795300007,5.272564757000055],[115.32815133100007,5.278860463000058]]],[[[115.26281119600003,5.284091405000026],[115.27036564000002,5.289877794000063],[115.25816230700002,5.307236635000038],[115.2517700840001,5.325752194000074],[115.2517700840001,5.333852576000027],[115.24712119500009,5.344267196000033],[115.2442156400001,5.361045932000025],[115.24537786200005,5.371460089000038],[115.24886452900012,5.37666710000002],[115.25641897300011,5.380138417000069],[115.25002675100006,5.394023483000069],[115.24363452900002,5.387080990000072],[115.23549897300006,5.387080990000072],[115.23026897300008,5.384188261000077],[115.21864675000006,5.365674468000066],[115.19656452700008,5.343688610000072],[115.173901193,5.297978647000036],[115.17332008200003,5.280040901000064],[115.15646785900003,5.254579982000052],[115.16111674800004,5.247057239000071],[115.1669278600001,5.248214590000032],[115.20295675000011,5.278883609000047],[115.21516008300011,5.278883609000047],[115.21980897200001,5.272518465000076],[115.22329563900007,5.258630653000068],[115.24014786200007,5.240691770000069],[115.24595897300003,5.251107958000034],[115.24595897300003,5.25747332100002],[115.24072897300005,5.260945310000068],[115.24189119500011,5.277726315000052],[115.25525675100005,5.271939812000028],[115.26281119600003,5.284091405000026]]]]}}]}