{"type":"FeatureCollection","features":[{"type":"Feature","properties":{"state":"Perak","district":"Hulu Perak"},"geometry":{"type":"Polygon","coordinates":[[[101.68831092700003,5.751961040000026],[101.69061677600007,5.771321128000068],[101.68776049800005,5.781267339000067],[101.67895364300006,5.781977776000076],[101.67109888000005,5.788371668000025],[101.67062283400008,5.794528681000031],[101.66633841700008,5.79831757900007],[101.66538632500004,5.812288920000071],[101.66324411700003,5.814420111000061],[101.66062586300006,5.811578521000058],[101.65776958500004,5.812525719000064],[101.65681749300006,5.821287227000028],[101.66110190900008,5.848518066000054],[101.65681749300006,5.85727901100006],[101.66110190900008,5.86461915700005],[101.65744230300004,5.876650275000031],[101.65223554800008,5.877020231000074],[101.64814452500008,5.872210778000067],[101.64442541400007,5.871840819000056],[101.62620176900003,5.876650275000031],[101.62099501300008,5.894777852000061],[101.61690399100007,5.897737401000029],[101.61616016900007,5.909205501000031],[101.61058150200006,5.914014634000068],[101.59719270200009,5.912164972000028],[101.58975447900008,5.921043291000046],[101.58529154600006,5.933250746000056],[101.58008479000006,5.935470255000041],[101.57078701200004,5.92659216800007],[101.53768692200003,5.919563581000034],[101.52913296600008,5.91031530500004],[101.52838914400007,5.904766265000035],[101.52504194400007,5.901806754000063],[101.51983518800006,5.900696933000063],[101.51574416600005,5.904026388000034],[101.49528905400007,5.882939501000067],[101.48747892100005,5.883679406000056],[101.48673509800005,5.872210778000067],[101.48450363200004,5.870360977000075],[101.47929687600003,5.872950697000022],[101.47557776500008,5.870360977000075],[101.46962718700007,5.874800489000052],[101.46218896400006,5.876280318000056],[101.45437883100004,5.868141208000054],[101.43392371900006,5.871100898000066],[101.42351020800004,5.875170447000073],[101.40491465200006,5.872580738000067],[101.39338540700004,5.874800489000052],[101.38855056200003,5.865921431000061],[101.38892247300004,5.855932321000068],[101.38148425100007,5.85149265900003],[101.37478985100006,5.833363675000044],[101.34801225000007,5.825593931000071],[101.34801225000007,5.813384116000066],[101.34317740500006,5.809314119000021],[101.32699682000003,5.811054187000025],[101.31848445000008,5.805408408000062],[101.30145971000007,5.811054187000025],[101.28159751300007,5.813877056000024],[101.26031658800008,5.789882223000063],[101.24754803300004,5.754593854000063],[101.25464167400008,5.736243036000076],[101.25606040300005,5.717891628000075],[101.25180421800007,5.703774759000055],[101.22626710800006,5.685422311000025],[101.21917346600009,5.671304644000031],[101.21066109600008,5.66142207200005],[101.17235543100008,5.64165642100005],[101.13972467900004,5.617654368000046],[101.12979358000007,5.628949576000025],[101.11702502500003,5.664245681000068],[101.09574410000005,5.700951344000032],[101.08439427400003,5.715068282000061],[101.06169462000008,5.734831411000073],[101.05601970700008,5.746124320000035],[101.04183242300007,5.741889505000074],[100.97657092000009,5.775767139000038],[100.96096490800005,5.777178663000029],[100.94677762500004,5.770121007000057],[100.94535889600007,5.757417005000036],[100.95245253800005,5.740477893000048],[100.96238363600008,5.727773229000036],[100.97515219100006,5.717891628000075],[100.98082710500006,5.702363053000056],[100.96663982100006,5.651539331000038],[100.95411188300005,5.643899574000045],[100.94830077100005,5.649104198000032],[100.94248966000004,5.649104198000032],[100.94016521500004,5.643899574000045],[100.94539521600007,5.629442042000051],[100.92970521500007,5.618454076000035],[100.92505632600006,5.610357548000025],[100.92331299300008,5.602839243000062],[100.93086743700007,5.59127243000006],[100.94365188200004,5.588380691000054],[100.94423299300007,5.581440460000067],[100.93551632600008,5.571029958000054],[100.93493521500005,5.559462518000032],[100.94016521500004,5.554835479000076],[100.94248966000004,5.549051628000029],[100.94132743800009,5.542689326000072],[100.93261077100004,5.531699735000075],[100.93086743700007,5.512612066000031],[100.91982632600008,5.498729739000055],[100.90704188100005,5.491788454000073],[100.90123077000004,5.491210010000032],[100.89600077000006,5.497572864000063],[100.88786521400004,5.498151302000053],[100.88205410300009,5.492945340000063],[100.88321632500003,5.481954829000074],[100.87508076900008,5.47848409900007],[100.86752632400004,5.463444036000055],[100.86694521300006,5.428156254000044],[100.87682410300005,5.417164555000056],[100.88670299200004,5.414271969000026],[100.89890632500004,5.41890010000003],[100.90878521500008,5.409643804000041],[100.90994743700008,5.39518055800005],[100.91585152600004,5.37736136500007],[100.91771108100005,5.374028887000065],[100.92143019300005,5.374028887000065],[100.92291783700006,5.369955833000063],[100.92328974800006,5.356625648000033],[100.93221561500008,5.345146644000067],[100.93258752600008,5.34144369400002],[100.92589312600006,5.336259526000049],[100.93333134900007,5.318114594000065],[100.93370326000007,5.307005187000073],[100.94560441600004,5.287748409000073],[100.94895161600004,5.272935095000037],[100.94672014900004,5.25071446100003],[100.94262912700003,5.246270239000069],[100.92477739300006,5.244418471000074],[100.91436388100004,5.219974613000034],[100.90432228100008,5.215530173000047],[100.89242112500006,5.204789312000059],[100.90209081400008,5.188122097000075],[100.90618183700008,5.187010933000067],[100.91473579300003,5.177010375000066],[100.92068637000006,5.175899192000031],[100.93072797100007,5.156267972000023],[100.92217401500005,5.147378164000031],[100.92291783700006,5.138488231000053],[100.91845490400004,5.129227752000077],[100.92440548200005,5.125523523000027],[100.92254592600005,5.118855856000039],[100.92477739300006,5.109595093000053],[100.91919872600005,5.101445511000065],[100.91733917000005,5.091443609000066],[100.91957063700005,5.088109607000035],[100.91176050400009,5.081441552000058],[100.90871083200005,5.065186026000049],[100.90157013900006,5.064711838000051],[100.89728572300004,5.056413503000044],[100.88919293700008,5.056887696000047],[100.88657468200006,5.054516725000042],[100.88705072900007,5.045744057000036],[100.88229026600004,5.041476230000058],[100.88252828900005,5.034363123000048],[100.87871991900005,5.030806540000071],[100.88824084400005,5.024878858000022],[100.88252828900005,5.017291347000025],[100.89014502900005,5.01610579100003],[100.89276328300008,5.006858376000025],[100.87586364200007,5.000930477000054],[100.87419748000008,4.997373712000069],[100.87633968800009,4.992157088000056],[100.87348341100005,4.988126032000025],[100.86658074000007,4.990260123000041],[100.86467655500007,4.988837397000054],[100.86420050900006,4.983383582000044],[100.87110318000003,4.970341667000071],[100.87419748000008,4.967258994000076],[100.89502450300006,4.977336908000041],[100.90543801400008,4.975854871000024],[100.91547961500004,4.983635525000068],[100.92403357100005,4.983635525000068],[100.97238201600004,4.975484362000032],[100.98651463900006,4.979930463000073],[100.99209330600007,4.979189448000056],[100.99618432800008,4.974372832000029],[101.00845739500005,4.968815153000037],[101.02854059600008,4.970297205000065],[101.03486308500004,4.989563580000038],[101.04192939600006,4.999196556000072],[101.04378895200006,5.013645754000038],[101.04750806300007,5.017350625000063],[101.04862379600007,5.022907892000035],[101.06387215200004,5.035504189000051],[101.06647553000005,5.042172718000074],[101.07465757500006,5.050323049000042],[101.08060815300007,5.065141571000026],[101.09957562000005,5.075143881000031],[101.10143517600005,5.06847569100006],[101.10701384300006,5.06847569100006],[101.11593971000008,5.074402974000066],[101.13899819900007,5.06180743300007],[101.14792406600009,5.063659734000055],[101.15647802200004,5.06958706100005],[101.16205668900005,5.065882488000057],[101.17618931100009,5.06662340400004],[101.18028033400009,5.064400653000064],[101.17953651100004,5.059214203000067],[101.19069384500006,5.053657246000057],[101.19701633400007,5.053286781000054],[101.20928940100004,5.061066511000035],[101.24164566900004,5.065882488000057],[101.25019962500005,5.072180249000041],[101.25354682500006,5.068105234000029],[101.25986931400007,5.067734777000055],[101.26396033600008,5.060325588000069],[101.27177047000004,5.054768641000067],[101.28329971500006,5.057361889000049],[101.28999411500007,5.064400653000064],[101.30896158200005,5.049582114000032],[101.31863127100007,5.046247896000068],[101.33871447200005,5.051804917000027],[101.34354931600006,5.048100242000032],[101.34726842800006,5.03772704000005],[101.36288869500004,5.031058465000058],[101.36623589500005,5.011422821000053],[101.36102913900004,4.998826060000056],[101.36363251700004,4.99400958700005],[101.36065722800004,4.987340566000057],[101.36437633900005,4.970297205000065],[101.37107073900006,4.969556179000051],[101.37850896200007,4.974743342000068],[101.38483145100008,4.974002321000057],[101.39598878500004,4.977336908000041],[101.39710451800005,4.982153503000063],[101.40454274000007,4.98622905600007],[101.41346860700008,4.981782997000039],[101.41793154100009,4.982153503000063],[101.43578327500006,4.994380086000035],[101.44136194100008,4.996973574000037],[101.44396531900009,4.994380086000035],[101.44768443100008,4.996973574000037],[101.44805634200009,5.001049035000051],[101.45177545300004,5.003642497000044],[101.44805634200009,5.011793311000076],[101.45661029700005,5.022166926000068],[101.45995749800005,5.032169899000053],[101.46032940900005,5.052545849000069],[101.46404852000006,5.056250498000054],[101.46442043100006,5.061066511000035],[101.46293278700006,5.070698429000061],[101.48375980900005,5.089220943000043],[101.47780923100004,5.112928983000074],[101.48636318700005,5.130709438000054],[101.48190025400004,5.147748575000037],[101.48699078700008,5.161986091000074],[101.48408523200004,5.170088600000042],[101.49047745400009,5.175297300000068],[101.49047745400009,5.183399639000072],[101.51139745500006,5.200182723000069],[101.51255967700007,5.231432790000042],[101.51546523300004,5.238377038000067],[101.52243856600006,5.244742531000043],[101.52185745500009,5.263259958000049],[101.52476301100006,5.270782506000046],[101.53464190000005,5.263838619000069],[101.54510190000008,5.263838619000069],[101.54858856700008,5.281198190000055],[101.55439967800004,5.286405967000064],[101.56718412300006,5.287563245000058],[101.57183301200007,5.291613700000028],[101.57125190100004,5.303186283000059],[101.57764412300008,5.326909398000055],[101.59972634600007,5.335009765000052],[101.60379412400005,5.34195285100003],[101.61076745800005,5.347160114000076],[101.62297079100006,5.351210177000041],[101.62645745800006,5.34484578100006],[101.63226856900008,5.340795676000027],[101.64040412500003,5.339638498000056],[101.64563412500007,5.34484578100006],[101.65493190300003,5.342531438000037],[101.67062190400009,5.326909398000055],[101.67759523700005,5.330959595000024],[101.69735301600008,5.332116789000054],[101.71071857200008,5.343688610000072],[101.74093635000008,5.358153080000022],[101.74442301700009,5.365674468000066],[101.75255857300004,5.374352878000025],[101.73919301700005,5.389395163000074],[101.74290897100008,5.399853740000026],[101.74558523900004,5.420635639000068],[101.74209857300008,5.428734759000065],[101.74093635000008,5.444932671000061],[101.73628746100007,5.461708619000035],[101.74732857300006,5.474434888000076],[101.74674746200009,5.502778785000032],[101.74093635000008,5.507984660000034],[101.73338190600003,5.499886612000068],[101.72582746100005,5.500465048000024],[101.71769190500004,5.511455218000037],[101.70897523800005,5.510876793000023],[101.69735301600008,5.499308176000056],[101.69037968200007,5.499886612000068],[101.67468968200006,5.510876793000023],[101.66422968100005,5.508563087000027],[101.65609412600008,5.523602011000037],[101.66364857000008,5.531121330000076],[101.67410857100003,5.548473240000021],[101.67410857100003,5.555413860000044],[101.67759523700005,5.559462518000032],[101.68398746000008,5.583175525000058],[101.68340634900005,5.588380691000054],[101.67759523700005,5.591850776000058],[101.67527079300004,5.598212545000024],[101.66248634800007,5.602839243000062],[101.65958079200004,5.60862256300004],[101.65783745900006,5.616140794000046],[101.66248634800007,5.629442042000051],[101.65841857000004,5.642164689000026],[101.65958079200004,5.649104198000032],[101.65725634800003,5.658935026000051],[101.66074301500004,5.668765686000029],[101.66562434800005,5.66832620200006],[101.67194683700006,5.679058787000031],[101.68273226000008,5.688310856000044],[101.69463341600004,5.703853995000031],[101.68979857100004,5.721617068000057],[101.68942666000004,5.727537970000071],[101.69314577100005,5.730498397000076],[101.68831092700003,5.751961040000026]]]}},{"type":"Feature","properties":{"state":"Perak","district":"Selama"},"geometry":{"type":"Polygon","coordinates":[[[100.86694521300006,5.428156254000044],[100.85183632400003,5.408992965000039],[100.86091618500006,5.397241592000057],[100.85365229600006,5.388201919000039],[100.84911236600004,5.370122169000069],[100.84911236600004,5.354753960000039],[100.81929410100008,5.333852576000027],[100.81755076700006,5.328066600000056],[100.81290187800005,5.324594988000058],[100.78907632200008,5.322859175000076],[100.78442743300008,5.316494484000032],[100.74084409800008,5.317651706000049],[100.73735743200007,5.314758648000065],[100.73154632000006,5.295664128000055],[100.72922187600005,5.270203851000076],[100.72282965300008,5.263838619000069],[100.69493631900008,5.247635915000046],[100.68854409700003,5.240113088000044],[100.68680076400005,5.229696716000035],[100.66413743000004,5.189765689000069],[100.65948854100009,5.183978373000059],[100.64902854000007,5.179927221000071],[100.63159520600004,5.16603735800004],[100.62462187300008,5.145780763000062],[100.62520625700006,5.140027383000074],[100.63328000100006,5.129255015000069],[100.67913277400004,5.131379158000072],[100.70713965300007,5.124944735000042],[100.71759965300004,5.113947669000027],[100.72050520900007,5.084428294000077],[100.72239585600005,5.082066870000062],[100.72909858700007,5.087225872000033],[100.73610598800008,5.097543750000057],[100.74585541500005,5.097088553000049],[100.75301515000007,5.103613013000029],[100.75834686800005,5.097998947000065],[100.76504959900006,5.095874693000042],[100.83283858300007,5.083129021000047],[100.83877964000004,5.088439748000042],[100.85248977200007,5.091474430000062],[100.86205830100005,5.086524098000041],[100.86593444900006,5.080247473000043],[100.87198862600007,5.07645261600004],[100.90729757000008,5.090702721000071],[100.91771108100005,5.085146036000026],[100.91957063700005,5.088109607000035],[100.91733917000005,5.091443609000066],[100.91919872600005,5.101445511000065],[100.92477739300006,5.109595093000053],[100.92254592600005,5.118855856000039],[100.92440548200005,5.125523523000027],[100.91845490400004,5.129227752000077],[100.92291783700006,5.138488231000053],[100.92217401500005,5.147378164000031],[100.93072797100007,5.156267972000023],[100.92068637000006,5.175899192000031],[100.91473579300003,5.177010375000066],[100.90618183700008,5.187010933000067],[100.90209081400008,5.188122097000075],[100.89242112500006,5.204789312000059],[100.90432228100008,5.215530173000047],[100.91436388100004,5.219974613000034],[100.92477739300006,5.244418471000074],[100.94262912700003,5.246270239000069],[100.94672014900004,5.25071446100003],[100.94895161600004,5.272935095000037],[100.94560441600004,5.287748409000073],[100.93370326000007,5.307005187000073],[100.93333134900007,5.318114594000065],[100.92589312600006,5.336259526000049],[100.93258752600008,5.34144369400002],[100.93221561500008,5.345146644000067],[100.92328974800006,5.356625648000033],[100.92291783700006,5.369955833000063],[100.92143019300005,5.374028887000065],[100.91771108100005,5.374028887000065],[100.91585152600004,5.37736136500007],[100.90994743700008,5.39518055800005],[100.90878521500008,5.409643804000041],[100.89890632500004,5.41890010000003],[100.88670299200004,5.414271969000026],[100.87682410300005,5.417164555000056],[100.86694521300006,5.428156254000044]]]}},{"type":"Feature","properties":{"state":"Perak","district":"Kerian"},"geometry":{"type":"Polygon","coordinates":[[[100.62520625700006,5.140027383000074],[100.60828102800008,5.134043218000045],[100.60121471700006,5.127375640000025],[100.58856973800005,5.122189698000057],[100.59042929400005,5.115892427000063],[100.58410680500003,5.108483793000062],[100.58485062700004,5.097370681000029],[100.57815622700008,5.098111561000053],[100.57183373800007,5.095518477000041],[100.56327978200005,5.082182450000062],[100.55090953000007,5.076306948000024],[100.54895964500008,5.079900077000048],[100.55373686400009,5.086309393000022],[100.54964210500003,5.085920952000038],[100.54808219600005,5.081842301000052],[100.54486488600008,5.082716300000072],[100.54652228800006,5.086989165000034],[100.55354187500006,5.088154488000043],[100.55198196700007,5.091553332000046],[100.54408493100004,5.088348708000069],[100.54369495400005,5.09407817500005],[100.54028265500006,5.09611746500002],[100.53657787300006,5.093495520000033],[100.53531044700009,5.088737148000064],[100.52994826200006,5.087766047000059],[100.52302616900005,5.095826139000053],[100.51269177700004,5.095243485000026],[100.51083938600004,5.109615458000064],[100.51756649000004,5.113305507000064],[100.51815145600006,5.118257908000032],[100.50714679000004,5.126675689000024],[100.50364309000008,5.124854981000055],[100.50272908100004,5.118330738000054],[100.49876837600004,5.118482465000056],[100.49678802400007,5.127889491000076],[100.49115163700009,5.132744675000026],[100.49249024200009,5.134744529000045],[100.40484564400003,5.122189698000057],[100.39480404400007,5.127746063000075],[100.38869075500008,5.115684060000035],[100.36312186500004,5.097162308000065],[100.36254075400007,5.083849469000029],[100.38287964300008,5.032910854000022],[100.40786742200004,4.995862081000041],[100.41193520000007,4.994125368000027],[100.41367853300005,4.999914392000051],[100.42297631100007,4.997598789000051],[100.42123297800003,4.960548019000043],[100.43053075600005,4.932179617000031],[100.44099075600008,4.916547530000059],[100.44505853400005,4.913652659000036],[100.45145075700003,4.918284447000076],[100.47353297900008,4.924074137000048],[100.48515520200004,4.922337235000043],[100.49677742500006,4.91712650300002],[100.49735853600004,4.912494707000064],[100.48573631300007,4.904388987000061],[100.47992520200006,4.893967202000056],[100.48457409100007,4.883545255000058],[100.48457409100007,4.876597200000049],[100.48980409100005,4.870807099000046],[100.50781853600006,4.866174983000064],[100.54210409300003,4.864437931000055],[100.55140187100005,4.862121855000055],[100.55779409300004,4.855752605000021],[100.56999742700003,4.862121855000055],[100.57755187100008,4.856910655000036],[100.58626853800007,4.843592960000024],[100.59324187200008,4.844171995000067],[100.61009409500008,4.840118735000033],[100.62404076200005,4.842434887000024],[100.62578409500009,4.849962325000035],[100.62462187300008,4.866174983000064],[100.63333854000007,4.870228087000044],[100.63391965100004,4.87601819200006],[100.62868965100006,4.884703257000069],[100.63624409500005,4.888756249000039],[100.63973076200006,4.898020138000049],[100.64728520700004,4.900336090000053],[100.65077187400004,4.906125935000034],[100.65542076300005,4.904388987000061],[100.66646187400005,4.90902083900005],[100.67634076300004,4.921179298000027],[100.70713965300007,4.932758576000026],[100.71411298700008,4.937390231000052],[100.72631632000008,4.951863944000024],[100.73154632000006,4.971547684000029],[100.73445187600004,4.997598789000051],[100.73038409800006,5.012071177000053],[100.73096520900003,5.027700997000068],[100.72224854200005,5.058380662000047],[100.71992409800004,5.104686834000063],[100.71759965300004,5.113947669000027],[100.70713965300007,5.124944735000042],[100.67913277400004,5.131379158000072],[100.63328000100006,5.129255015000069],[100.62520625700006,5.140027383000074]]]}},{"type":"Feature","properties":{"state":"Perak","district":"Larut dan Matang"},"geometry":{"type":"Polygon","coordinates":[[[100.73807801000004,4.522570422000058],[100.74886343200006,4.53220993900004],[100.74849152100006,4.544073783000044],[100.76485561000004,4.557791110000039],[100.77601294400006,4.583000648000052],[100.78717027800008,4.583742092000023],[100.79014556700008,4.59857080200004],[100.79795570000005,4.605614331000027],[100.79944334500004,4.619330477000062],[100.80465010000006,4.623037498000031],[100.81097258900007,4.642684385000052],[100.80613774500006,4.657511862000035],[100.79869952200005,4.665666841000075],[100.79721187800004,4.672339027000021],[100.80576583400006,4.68049383400006],[100.80539392300005,4.685312539000051],[100.78456690000007,4.696803162000037],[100.78121970000007,4.702733733000059],[100.78345116600008,4.709034908000035],[100.79349276700003,4.717930589000048],[100.80241863400005,4.745728854000049],[100.81283214500007,4.760924766000073],[100.81394787800008,4.773155379000059],[100.80576583400006,4.789833135000038],[100.80985685600007,4.839863958000024],[100.80725347800006,4.855428350000068],[100.83514681200006,4.875809749000041],[100.84370076800008,4.876550879000035],[100.85337045700004,4.88692661500005],[100.85560192400004,4.893226091000031],[100.85560192400004,4.90767760500006],[100.86638734700006,4.92175826700003],[100.86564352400006,4.929539557000055],[100.85634574600004,4.935838630000035],[100.87010645800007,4.946213444000023],[100.87122219100007,4.955476533000024],[100.86899072400007,4.959922769000059],[100.87497105580104,4.967644328743094],[100.87110318000003,4.970341667000071],[100.86420050900006,4.983383582000044],[100.86467655500007,4.988837397000054],[100.86658074000007,4.990260123000041],[100.87348341100005,4.988126032000025],[100.87633968800009,4.992157088000056],[100.87419748000008,4.997373712000069],[100.87586364200007,5.000930477000054],[100.89276328300008,5.006858376000025],[100.89014502900005,5.01610579100003],[100.88252828900005,5.017291347000025],[100.88824084400005,5.024878858000022],[100.87871991900005,5.030806540000071],[100.88252828900005,5.034363123000048],[100.88229026600004,5.041476230000058],[100.88705072900007,5.045744057000036],[100.88657468200006,5.054516725000042],[100.88919293700008,5.056887696000047],[100.89728572300004,5.056413503000044],[100.90157013900006,5.064711838000051],[100.90871083200005,5.065186026000049],[100.91176050400009,5.081441552000058],[100.91640730300008,5.084334381000076],[100.90729757000008,5.090702721000071],[100.87198862600007,5.07645261600004],[100.86593444900006,5.080247473000043],[100.86205830100005,5.086524098000041],[100.85248977200007,5.091474430000062],[100.83877964000004,5.088439748000042],[100.83283858300007,5.083129021000047],[100.76504959900006,5.095874693000042],[100.75834686800005,5.097998947000065],[100.75301515000007,5.103613013000029],[100.74585541500005,5.097088553000049],[100.73610598800008,5.097543750000057],[100.72635656100005,5.084342905000028],[100.72239585600005,5.082066870000062],[100.72078848100006,5.084074487000066],[100.72341076500004,5.050855596000076],[100.73096520900003,5.027700997000068],[100.73038409800006,5.012071177000053],[100.73445187600004,4.997598789000051],[100.73154632000006,4.971547684000029],[100.72631632000008,4.951863944000024],[100.72166743100007,4.944916601000045],[100.70713965300007,4.932758576000026],[100.67634076300004,4.921179298000027],[100.66646187400005,4.90902083900005],[100.65542076300005,4.904388987000061],[100.65077187400004,4.906125935000034],[100.64728520700004,4.900336090000053],[100.63973076200006,4.898020138000049],[100.63624409500005,4.888756249000039],[100.62868965100006,4.884703257000069],[100.63391965100004,4.87601819200006],[100.63333854000007,4.870228087000044],[100.62462187300008,4.866174983000064],[100.62578409500009,4.849962325000035],[100.62404076200005,4.842434887000024],[100.61009409500008,4.840118735000033],[100.59324187200008,4.844171995000067],[100.58626853800007,4.843592960000024],[100.57755187100008,4.856910655000036],[100.56999742700003,4.862121855000055],[100.55779409300004,4.855752605000021],[100.55137862600009,4.848016780000023],[100.54914715900009,4.833563983000033],[100.55509773700004,4.823558020000064],[100.55881684900004,4.803916257000026],[100.56625507100006,4.792056805000072],[100.59861133900006,4.782791465000059],[100.60456191700007,4.790203747000021],[100.62427320600005,4.793539248000059],[100.62427320600005,4.789462523000054],[100.61311587200004,4.779085294000026],[100.61200013900009,4.775008483000022],[100.61274396100004,4.770931647000054],[100.61943836200004,4.76611353800007],[100.61906645000005,4.763889783000025],[100.60530573900007,4.76426040900003],[100.60009898300007,4.757959737000022],[100.58708209400004,4.764631035000036],[100.57890004900008,4.756847847000074],[100.57704049400007,4.751288373000023],[100.57592476000008,4.739057372000048],[100.58150342700009,4.731273895000072],[100.58336298300009,4.722378386000059],[100.57815622700008,4.719413191000058],[100.57890004900008,4.712370802000066],[100.58299107200008,4.703104392000057],[100.58261916000004,4.694208522000054],[100.58968547200004,4.68123517500004],[100.59266076100005,4.66677887700007],[100.61683498400004,4.677528460000076],[100.63580245100007,4.676045769000041],[100.64658787300004,4.682347186000072],[100.65179462900005,4.679752492000034],[100.65030698500004,4.670485648000067],[100.63394289500008,4.654917076000061],[100.62501702800006,4.651210223000021],[100.62204173900005,4.64639128400006],[100.60976867200009,4.643796457000064],[100.60344618300007,4.634158445000025],[100.59414840500006,4.627485898000032],[100.58410680500003,4.60450220000007],[100.58596636100003,4.595605085000045],[100.58038769400008,4.567430156000057],[100.58633827200003,4.564464309000073],[100.59191693900004,4.566317965000053],[100.61981027300004,4.554454487000044],[100.63617436200008,4.563722846000076],[100.65328227400005,4.567059425000025],[100.64881934000005,4.590785768000046],[100.64993507400004,4.594492937000041],[100.65328227400005,4.593751505000057],[100.65848902900007,4.575215444000037],[100.65774520700006,4.564835041000038],[100.65067889600004,4.555195960000049],[100.64361258400004,4.539254120000066],[100.63343233600006,4.532708817000071],[100.62749127900008,4.536960839000074],[100.62794828300008,4.533923683000069],[100.62413991300008,4.530127221000043],[100.73807801000004,4.522570422000058]]]}},{"type":"Feature","properties":{"state":"Perak","district":"Kuala Kangsar"},"geometry":{"type":"MultiPolygon","coordinates":[[[[100.73823465950628,4.52268754286346],[100.73786036200005,4.522583983000061],[100.73807801000004,4.522570422000058],[100.73823465950628,4.52268754286346]]],[[[100.87497105580104,4.967644328743094],[100.86899072400007,4.959922769000059],[100.87122219100007,4.955476533000024],[100.87010645800007,4.946213444000023],[100.85634574600004,4.935838630000035],[100.86564352400006,4.929539557000055],[100.86638734700006,4.92175826700003],[100.85560192400004,4.90767760500006],[100.85560192400004,4.893226091000031],[100.85337045700004,4.88692661500005],[100.84370076800008,4.876550879000035],[100.83514681200006,4.875809749000041],[100.80725347800006,4.855428350000068],[100.80985685600007,4.839863958000024],[100.80576583400006,4.789833135000038],[100.81394787800008,4.773155379000059],[100.81283214500007,4.760924766000073],[100.80241863400005,4.745728854000049],[100.79349276700003,4.717930589000048],[100.78345116600008,4.709034908000035],[100.78121970000007,4.702733733000059],[100.78456690000007,4.696803162000037],[100.80539392300005,4.685312539000051],[100.80576583400006,4.68049383400006],[100.79721187800004,4.672339027000021],[100.79869952200005,4.665666841000075],[100.80613774500006,4.657511862000035],[100.81097258900007,4.642684385000052],[100.80465010000006,4.623037498000031],[100.79944334500004,4.619330477000062],[100.79795570000005,4.605614331000027],[100.79014556700008,4.59857080200004],[100.78717027800008,4.583742092000023],[100.77601294400006,4.583000648000052],[100.76485561000004,4.557791110000039],[100.74849152100006,4.544073783000044],[100.74886343200006,4.53220993900004],[100.73823465950628,4.52268754286346],[100.77184753900008,4.531987490000063],[100.77256160900004,4.534122997000054],[100.89276328300008,4.560934936000024],[100.90283463700007,4.56520577200007],[100.92775268200006,4.554825223000023],[100.99209330600007,4.554825223000023],[100.99655623900009,4.563722846000076],[100.99804388400008,4.582259204000025],[101.00064726200009,4.586337138000033],[101.01292032900005,4.594122221000021],[101.01440797300006,4.59857080200004],[101.01143268400006,4.608580007000057],[101.01738326200007,4.616364846000067],[101.01217650700005,4.618959774000075],[101.01366415100006,4.630080784000029],[101.01068886200005,4.643055076000053],[101.01180459500006,4.646761972000036],[101.01812708400007,4.651580909000074],[101.01998664000007,4.66789091000004],[101.02779677400008,4.676787115000025],[101.02854059600008,4.687536545000057],[101.03114397400009,4.692355201000055],[101.03449117400004,4.695691175000036],[101.04267321900005,4.69791514800005],[101.04230130700006,4.703475050000065],[101.03523499600004,4.70792294000006],[101.03411926300004,4.717189286000064],[101.03709455200004,4.72608486200005],[101.05011144100007,4.743134397000063],[101.05345864100008,4.755735956000024],[101.06647553000005,4.768707908000067],[101.07614522000006,4.764631035000036],[101.08358344200008,4.76426040900003],[101.11296442100007,4.775749723000047],[101.11854308700003,4.781679616000076],[101.12412175400004,4.782791465000059],[101.16391624400006,4.77945591200006],[101.16651962200007,4.77463786200002],[101.18771855600005,4.775379103000034],[101.19590060100006,4.769449156000064],[101.19743287500006,4.762822379000056],[101.20838193800006,4.761636372000055],[101.21552263200005,4.755469102000063],[101.21742681700005,4.750250600000072],[101.23028006500004,4.754520286000059],[101.23480250400007,4.753808674000027],[101.23932494300004,4.747878540000045],[101.24456145200008,4.745743680000032],[101.24717970600005,4.738153011000065],[101.25217819200009,4.733171589000051],[101.26788771800005,4.730799471000068],[101.27193411100006,4.717041026000061],[101.27907480400006,4.713245545000063],[101.28645352100006,4.713482763000059],[101.29026189100006,4.710161701000061],[101.29502235300004,4.703045086000031],[101.29549839900005,4.690234997000061],[101.30573339300008,4.687151051000058],[101.31073187900006,4.67837359300006],[101.33120186700006,4.681694806000053],[101.33429616800004,4.68477877600003],[101.33358209800008,4.695216726000069],[101.33953267600003,4.700198420000049],[101.33881860700006,4.704705636000028],[101.34191290700005,4.711585015000026],[101.34619732400006,4.711110577000056],[101.35095778600004,4.705654520000053],[101.35429011000008,4.705891741000073],[101.36523917300008,4.713957199000049],[101.36833347400005,4.713719981000054],[101.37333195900004,4.707077843000036],[101.37952056000006,4.70850116400004],[101.38713730000006,4.72012483900005],[101.38570916100008,4.730087834000074],[101.38023462900009,4.741236730000026],[101.38071067600004,4.748115746000053],[101.37523614400004,4.759501554000053],[101.38761334600008,4.764008384000022],[101.39737229400004,4.764719986000046],[101.39737229400004,4.777528696000047],[101.41012140700008,4.797986557000058],[101.41495625200008,4.813181310000061],[101.40937758500007,4.818740282000022],[101.40045171800006,4.835416923000025],[101.40156745100006,4.841716881000025],[101.40268318500006,4.844681546000061],[101.41012140700008,4.844681546000061],[101.41198096300008,4.85431662000002],[101.42351020800004,4.85320488800005],[101.43020460800005,4.858392956000046],[101.43466754100007,4.858763530000033],[101.44433723000009,4.856910655000036],[101.44582487500008,4.86098697500006],[101.43689900800007,4.869139541000038],[101.43541136400006,4.876180314000067],[101.44470914200008,4.88247989100006],[101.45289118600004,4.895078867000052],[101.45065972000003,4.899525508000067],[101.45437883100004,4.913976885000068],[101.45326309700005,4.926204730000052],[101.44508105300008,4.93991446900003],[101.44842825300003,4.951030266000032],[101.44545296400008,4.956958615000076],[101.43689900800007,4.962516394000033],[101.42536976300005,4.97511385200005],[101.42279950000005,4.98489676500003],[101.41346860700008,4.981782997000039],[101.40454274000007,4.98622905600007],[101.39710451800005,4.982153503000063],[101.39598878500004,4.977336908000041],[101.38483145100008,4.974002321000057],[101.37850896200007,4.974743342000068],[101.37107073900006,4.969556179000051],[101.36437633900005,4.970297205000065],[101.36065722800004,4.987340566000057],[101.36363251700004,4.99400958700005],[101.36102913900004,4.998826060000056],[101.36623589500005,5.011422821000053],[101.36288869500004,5.031058465000058],[101.34726842800006,5.03772704000005],[101.34354931600006,5.048100242000032],[101.33871447200005,5.051804917000027],[101.31863127100007,5.046247896000068],[101.30896158200005,5.049582114000032],[101.28999411500007,5.064400653000064],[101.28329971500006,5.057361889000049],[101.27177047000004,5.054768641000067],[101.26396033600008,5.060325588000069],[101.25986931400007,5.067734777000055],[101.25354682500006,5.068105234000029],[101.25019962500005,5.072180249000041],[101.24164566900004,5.065882488000057],[101.20928940100004,5.061066511000035],[101.19701633400007,5.053286781000054],[101.19069384500006,5.053657246000057],[101.17953651100004,5.059214203000067],[101.18028033400009,5.064400653000064],[101.17618931100009,5.06662340400004],[101.16205668900005,5.065882488000057],[101.15647802200004,5.06958706100005],[101.14792406600009,5.063659734000055],[101.13899819900007,5.06180743300007],[101.11593971000008,5.074402974000066],[101.10701384300006,5.06847569100006],[101.10143517600005,5.06847569100006],[101.09957562000005,5.075143881000031],[101.09548459800004,5.074402974000066],[101.08060815300007,5.065141571000026],[101.07465757500006,5.050323049000042],[101.06647553000005,5.042172718000074],[101.06387215200004,5.035504189000051],[101.04862379600007,5.022907892000035],[101.04750806300007,5.017350625000063],[101.04378895200006,5.013645754000038],[101.04192939600006,4.999196556000072],[101.03486308500004,4.989563580000038],[101.02854059600008,4.970297205000065],[101.00845739500005,4.968815153000037],[100.99618432800008,4.974372832000029],[100.99209330600007,4.979189448000056],[100.98651463900006,4.979930463000073],[100.97238201600004,4.975484362000032],[100.93295943800007,4.982894514000066],[100.91547961500004,4.983635525000068],[100.90543801400008,4.975854871000024],[100.89502450300006,4.977336908000041],[100.87497105580104,4.967644328743094]]]]}},{"type":"Feature","properties":{"state":"Perak","district":"Kampar"},"geometry":{"type":"Polygon","coordinates":[[[101.36063277590287,4.537928065012277],[101.26849300300006,4.538952890000076],[101.19120522300005,4.507670628000028],[101.16737966700003,4.500718831000029],[101.15517633300004,4.489711683000053],[101.12205299900006,4.494346292000046],[101.11972855400006,4.486815038000032],[101.12147188800009,4.479283706000047],[101.12728299900004,4.483918381000024],[101.12728299900004,4.475228341000047],[101.12147188800009,4.468276235000076],[101.11275522100004,4.465958852000028],[101.11275522100004,4.457847953000055],[101.09357855300004,4.456689245000064],[101.08486188600006,4.458427305000043],[101.08544299800008,4.443363981000061],[101.08021299700005,4.439887786000043],[101.07265855300005,4.441625886000054],[101.06277966400006,4.44915760400005],[101.05348188600004,4.44915760400005],[101.06045521900006,4.428879726000048],[101.04999521900004,4.420768419000069],[101.05290077400008,4.41033946500005],[101.06161744100007,4.391219336000063],[101.07846966400007,4.377892896000048],[101.07382077500006,4.329799861000026],[101.06859077500008,4.310098215000039],[101.07672633100003,4.304303516000061],[101.08428077500008,4.268375400000025],[101.07066721274587,4.248634182370166],[101.11333633200007,4.24751314100007],[101.12030966500004,4.249251684000058],[101.14994633300006,4.264898396000035],[101.16331188900006,4.278226826000036],[101.19294855600003,4.289237092000064],[101.19643522300004,4.293872947000068],[101.19701633400007,4.300826675000053],[101.19585411200006,4.315892870000027],[101.19236744500006,4.326902592000067],[101.19701633400007,4.332697118000056],[101.20747633500008,4.337332708000076],[101.22432855700004,4.340229936000071],[101.23011642400007,4.339024690000031],[101.23123215700008,4.344958190000057],[101.24127375800003,4.347554081000055],[101.24945580200006,4.346070716000042],[101.25726593600007,4.339766380000071],[101.28925029300007,4.338653845000067],[101.29371322600008,4.349037443000043],[101.30040762600004,4.353487513000061],[101.29631660400008,4.359050063000041],[101.29966380400003,4.362016740000058],[101.30858967100005,4.363500074000058],[101.31491216000006,4.371658358000047],[101.30933349300005,4.385749730000043],[101.31416833800006,4.39168286000006],[101.32160656000008,4.415785714000037],[101.33462344900005,4.426168242000074],[101.33215396000008,4.433510083000044],[101.33358209800008,4.447036680000053],[101.33810453800004,4.446087453000075],[101.33977069900004,4.450596269000073],[101.34810150800007,4.453206624000074],[101.35714638700006,4.461037632000057],[101.36024068800003,4.477885882000066],[101.36761940400004,4.485716627000045],[101.35881254900005,4.495682907000059],[101.36119278000007,4.497818521000056],[101.37880649100003,4.499242260000074],[101.38047265300008,4.503750749000062],[101.38689927700005,4.506123627000022],[101.38237683800008,4.522496271000023],[101.37237986700006,4.529377417000035],[101.36595324200005,4.528665577000027],[101.36063277590287,4.537928065012277]]]}},{"type":"Feature","properties":{"state":"Perak","district":"Kinta"},"geometry":{"type":"Polygon","coordinates":[[[100.99491090400005,4.560442601000034],[100.99630334000005,4.557613157000048],[100.98773450800007,4.544563162000031],[100.97940369800006,4.517750615000068],[100.97321509700004,4.512530358000049],[100.97583335200005,4.508496497000067],[100.95964778000007,4.483343683000044],[100.94869871600008,4.451070880000032],[100.94893673900003,4.431136971000058],[100.94441430000006,4.392691487000036],[100.97089437200003,4.389828762000036],[100.97052246100009,4.373141673000021],[101.00027535100008,4.353116675000024],[101.01143268400006,4.336799616000064],[101.01329224000006,4.320853059000058],[101.00771357300005,4.30861477600007],[101.01031695100005,4.301197539000043],[101.00845739500005,4.297118028000057],[100.99618432800008,4.290442417000065],[100.99320903900008,4.285991978000027],[101.00064726200009,4.271898748000069],[100.99804388400008,4.262626745000034],[101.00473828400004,4.252983744000062],[101.01329224000006,4.251871082000036],[101.03932601800005,4.254838176000021],[101.06999616900004,4.249035927000023],[101.08428077500008,4.268375400000025],[101.07672633100003,4.304303516000061],[101.06859077500008,4.310098215000039],[101.07382077500006,4.329799861000026],[101.07846966400007,4.377892896000048],[101.06161744100007,4.391219336000063],[101.05290077400008,4.41033946500005],[101.04999521900004,4.420768419000069],[101.06045521900006,4.428879726000048],[101.05348188600004,4.44915760400005],[101.06277966400006,4.44915760400005],[101.07265855300005,4.441625886000054],[101.08021299700005,4.439887786000043],[101.08544299800008,4.443363981000061],[101.08486188600006,4.458427305000043],[101.09357855300004,4.456689245000064],[101.11275522100004,4.457847953000055],[101.11275522100004,4.465958852000028],[101.12147188800009,4.468276235000076],[101.12728299900004,4.475228341000047],[101.12728299900004,4.483918381000024],[101.12147188800009,4.479283706000047],[101.11972855400006,4.486815038000032],[101.12205299900006,4.494346292000046],[101.15517633300004,4.489711683000053],[101.16737966700003,4.500718831000029],[101.19120522300005,4.507670628000028],[101.26849300300006,4.538952890000076],[101.36063277590287,4.537928065012277],[101.35405208600008,4.552155915000071],[101.35595627100008,4.567578448000063],[101.35143383200005,4.588220395000064],[101.34833953200007,4.591779291000023],[101.36357301100008,4.601032338000039],[101.36476312700006,4.607200969000075],[101.37333195900004,4.610285265000073],[101.37440281273642,4.614779202893613],[101.37144265100005,4.615994142000034],[101.37181456200005,4.622666797000022],[101.37627749500007,4.633046358000058],[101.36512016100005,4.636382613000023],[101.35916958300004,4.658253228000035],[101.35247518300008,4.662330725000061],[101.34838416100007,4.671227],[101.33429616800004,4.68477877600003],[101.33120186700006,4.681694806000053],[101.31073187900006,4.67837359300006],[101.30573339300008,4.687151051000058],[101.29549839900005,4.690234997000061],[101.29502235300004,4.703045086000031],[101.29026189100006,4.710161701000061],[101.28645352100006,4.713482763000059],[101.27907480400006,4.713245545000063],[101.27193411100006,4.717041026000061],[101.26788771800005,4.730799471000068],[101.25217819200009,4.733171589000051],[101.24717970600005,4.738153011000065],[101.24456145200008,4.745743680000032],[101.23932494300004,4.747878540000045],[101.23480250400007,4.753808674000027],[101.23028006500004,4.754520286000059],[101.21742681700005,4.750250600000072],[101.21552263200005,4.755469102000063],[101.20838193800006,4.761636372000055],[101.19743287500006,4.762822379000056],[101.19590060100006,4.769449156000064],[101.18771855600005,4.775379103000034],[101.16651962200007,4.77463786200002],[101.16391624400006,4.77945591200006],[101.12412175400004,4.782791465000059],[101.11854308700003,4.781679616000076],[101.11296442100007,4.775749723000047],[101.08358344200008,4.76426040900003],[101.07614522000006,4.764631035000036],[101.06647553000005,4.768707908000067],[101.05345864100008,4.755735956000024],[101.05011144100007,4.743134397000063],[101.03895410700005,4.730903251000029],[101.03449117400004,4.71274145600006],[101.03523499600004,4.70792294000006],[101.04230130700006,4.703475050000065],[101.04267321900005,4.69791514800005],[101.03449117400004,4.695691175000036],[101.03114397400009,4.692355201000055],[101.02854059600008,4.687536545000057],[101.02779677400008,4.676787115000025],[101.01998664000007,4.66789091000004],[101.01812708400007,4.651580909000074],[101.01180459500006,4.646761972000036],[101.01068886200005,4.643055076000053],[101.01366415100006,4.630080784000029],[101.01217650700005,4.618959774000075],[101.01738326200007,4.616364846000067],[101.01143268400006,4.608580007000057],[101.01440797300006,4.59857080200004],[101.01292032900005,4.594122221000021],[101.00064726200009,4.586337138000033],[100.99804388400008,4.582259204000025],[100.99491090400005,4.560442601000034]]]}},{"type":"Feature","properties":{"state":"Perak","district":"Perak Tengah"},"geometry":{"type":"Polygon","coordinates":[[[100.85526935800004,4.552571725000064],[100.85944004700008,4.538156715000071],[100.85920202400007,4.510632073000068],[100.85610772300004,4.508021923000058],[100.85848795400005,4.501615153000046],[100.85039516800003,4.485953921000032],[100.83706587400007,4.487377683000034],[100.82968715700008,4.476699398000051],[100.81992820900007,4.485242038000024],[100.81373960800005,4.480496139000024],[100.80540879900008,4.480733435000047],[100.80683693800006,4.380587869000067],[100.79445973600008,4.37299334100004],[100.80017229000003,4.361126738000053],[100.79660194400009,4.353532014000052],[100.80374263700008,4.348547934000067],[100.80993123800005,4.347835920000023],[100.82135634800005,4.355193366000037],[100.82183239400007,4.347361244000069],[100.81802402400007,4.344038500000067],[100.82183239400007,4.339766380000071],[100.82516471800005,4.285650776000068],[100.81278751600007,4.285650776000068],[100.79993426700008,4.268086114000027],[100.79255555100008,4.210404743000026],[100.78565288000004,4.19829823200007],[100.77160951600007,4.185716756000033],[100.77470381700005,4.165301102000058],[100.76399277600007,4.131827779000048],[100.76946730800006,4.130640756000048],[100.77541788600007,4.120194875000038],[100.78874718100008,4.113310014000035],[100.79065136600008,4.091230579000069],[100.79564985100006,4.093129909000027],[100.79945822100007,4.078172561000031],[100.81302553900008,4.082208698000045],[100.81921414000004,4.065114331000075],[100.82326053300005,4.066301452000062],[100.82849704200004,4.05276817400005],[100.82540274100006,4.051106177000065],[100.83149743400008,4.045815958000048],[100.85002325700003,4.045259482000063],[100.85932103500005,4.041920614000048],[100.86304014700005,4.037839756000039],[100.86787499100006,4.024855074000072],[100.86899072400007,4.012983184000063],[100.85894912400005,3.980705611000076],[100.86415588000006,3.967349003000038],[100.87419748000008,3.965122880000024],[100.88163570300009,3.972914282000033],[100.88684245800005,3.982931691000033],[100.89837170300007,3.994062002000021],[100.89911552500007,3.998514084000021],[100.88870201400005,4.001853130000029],[100.88572672500004,4.008160179000072],[100.88609863600004,4.01409618100007],[100.89242112500006,4.015580175000025],[100.89279303600006,4.009273183000062],[100.89576832500006,4.005934167000021],[100.89948743700006,4.006305170000076],[100.90209081400008,4.009273183000062],[100.90060317000007,4.012983184000063],[100.90766948100008,4.014838178000048],[100.91027285900009,4.01854815400003],[100.90804139200009,4.021516123000026],[100.90952903700008,4.024855074000072],[100.92291783700006,4.027823020000028],[100.92775268200006,4.031532937000065],[100.92514930400006,4.036726792000024],[100.92738077100006,4.039694694000048],[100.92589312600006,4.043775542000049],[100.92254592600005,4.045259482000063],[100.92477739300006,4.050453249000043],[100.91957063700005,4.054534042000057],[100.92105828200005,4.063066544000037],[100.93147179300007,4.062695568000038],[100.93444708200008,4.057130900000061],[100.94114148200003,4.05379208100004],[100.94560441600004,4.05379208100004],[100.95081117100005,4.057501879000029],[100.96568761600008,4.048227353000073],[100.96717526100008,4.044888497000045],[100.97498539400004,4.049711284000068],[100.97349775000004,4.05267913900002],[100.97796068300005,4.063808497000025],[100.98353935000006,4.058985794000023],[100.99134948400007,4.064179473000024],[100.99915961700003,4.060098728000071],[101.00250681700004,4.062324591000049],[101.00325064000003,4.067147274000035],[101.01254841800005,4.071598956000059],[101.01626752900006,4.079018371000075],[101.02444957400007,4.079018371000075],[101.02073046200007,4.09645372600005],[101.01701135100006,4.099792368000067],[101.02593721800008,4.10980820900005],[101.01812708400007,4.114630607000038],[101.03709455200004,4.128355731000056],[101.04676424100006,4.132436128000052],[101.05308673000008,4.14541906900007],[101.08507108600008,4.165820402000065],[101.09064975300004,4.173238938000054],[101.10113299800008,4.180866047000052],[101.07028940700008,4.249474574000033],[101.03932601800005,4.254838176000021],[101.01329224000006,4.251871082000036],[101.00473828400004,4.252983744000062],[100.99990343900004,4.258917913000062],[100.99804388400008,4.262626745000034],[101.00064726200009,4.271898748000069],[100.99320903900008,4.285991978000027],[100.99618432800008,4.290442417000065],[101.00845739500005,4.297118028000057],[101.01031695100005,4.301197539000043],[101.00771357300005,4.30861477600007],[101.01329224000006,4.320853059000058],[101.01143268400006,4.336799616000064],[101.00027535100008,4.353116675000024],[100.97052246100009,4.373141673000021],[100.97089437200003,4.389828762000036],[100.94441430000006,4.392691487000036],[100.94893673900003,4.431136971000058],[100.94869871600008,4.451070880000032],[100.95964778000007,4.483343683000044],[100.97583335200005,4.508496497000067],[100.97321509700004,4.512530358000049],[100.97940369800006,4.517750615000068],[100.98773450800007,4.544563162000031],[100.99630334000005,4.557613157000048],[100.99491090400005,4.560442601000034],[100.99209330600007,4.554825223000023],[100.92775268200006,4.554825223000023],[100.90283463700007,4.56520577200007],[100.89276328300008,4.560934936000024],[100.85526935800004,4.552571725000064]]]}},{"type":"Feature","properties":{"state":"Perak","district":"Hilir Perak"},"geometry":{"type":"Polygon","coordinates":[[[100.89883659100008,3.996844556000042],[100.91169077000006,3.991905516000031],[100.91575854800004,3.983789658000035],[100.91575854800004,3.976833144000068],[100.92215077100008,3.975673720000032],[100.93609743800005,3.98552877700007],[100.94074632700006,3.98552877700007],[100.94830077100005,3.975094007000052],[100.95178743800005,3.96465910400002],[100.96747743900005,3.954803798000057],[100.96050410500004,3.943209169000056],[101.00350632800007,3.91016359300005],[101.08137522000004,3.894509970000058],[101.10578188700003,3.884074059000056],[101.22665300200003,3.870739096000023],[101.24408633600007,3.855084742000031],[101.23827522400006,4.030164907000028],[101.19664442300007,4.07048603800007],[101.14866788800003,4.112404888000071],[101.15275891100003,4.125017209000021],[101.15015553300003,4.129097623000064],[101.15127126600004,4.132065184000055],[101.16168477800005,4.143193437000036],[101.15610611100004,4.148386568000035],[101.14755215500008,4.150241250000022],[101.14532068800008,4.142822498000044],[101.14160157700007,4.142822498000044],[101.13341953200006,4.148386568000035],[101.11073295400007,4.183624770000051],[101.10113299800008,4.180866047000052],[101.09064975300004,4.173238938000054],[101.08507108600008,4.165820402000065],[101.05308673000008,4.14541906900007],[101.04676424100006,4.132436128000052],[101.03709455200004,4.128355731000056],[101.01812708400007,4.114630607000038],[101.02593721800008,4.10980820900005],[101.01701135100006,4.099792368000067],[101.02073046200007,4.09645372600005],[101.02444957400007,4.079018371000075],[101.01626752900006,4.079018371000075],[101.01254841800005,4.071598956000059],[101.00325064000003,4.067147274000035],[101.00250681700004,4.062324591000049],[100.99915961700003,4.060098728000071],[100.99134948400007,4.064179473000024],[100.98353935000006,4.058985794000023],[100.97796068300005,4.063808497000025],[100.97349775000004,4.05267913900002],[100.97498539400004,4.049711284000068],[100.96717526100008,4.044888497000045],[100.96568761600008,4.048227353000073],[100.95081117100005,4.057501879000029],[100.94560441600004,4.05379208100004],[100.94114148200003,4.05379208100004],[100.93444708200008,4.057130900000061],[100.93147179300007,4.062695568000038],[100.92105828200005,4.063066544000037],[100.91957063700005,4.054534042000057],[100.92477739300006,4.050453249000043],[100.92254592600005,4.045259482000063],[100.92589312600006,4.043775542000049],[100.92738077100006,4.039694694000048],[100.92514930400006,4.036726792000024],[100.92775268200006,4.031532937000065],[100.92291783700006,4.027823020000028],[100.90952903700008,4.024855074000072],[100.90804139200009,4.021516123000026],[100.91027285900009,4.01854815400003],[100.90766948100008,4.014838178000048],[100.90060317000007,4.012983184000063],[100.90209081400008,4.009273183000062],[100.89948743700006,4.006305170000076],[100.89576832500006,4.005934167000021],[100.89279303600006,4.009273183000062],[100.89242112500006,4.015580175000025],[100.88609863600004,4.01409618100007],[100.88572672500004,4.008160179000072],[100.88870201400005,4.001853130000029],[100.89576832500006,4.000369111000055],[100.89883659100008,3.996844556000042]]]}},{"type":"Feature","properties":{"state":"Perak","district":"Muallim"},"geometry":{"type":"Polygon","coordinates":[[[101.34345633900006,3.704324529000075],[101.34403745000009,3.715922394000074],[101.33822633800008,3.726360342000021],[101.33648300500005,3.74549625700007],[101.32311744900005,3.766951181000024],[101.32834744900003,3.784926520000056],[101.35798411700006,3.802321655000071],[101.36437633900005,3.803481318000024],[101.37425522800004,3.800582157000065],[101.38064745100007,3.794783806000055],[101.38587745100006,3.775648972000056],[101.39924300700005,3.764051898000048],[101.40679745200003,3.759992885000031],[101.41551411800003,3.759413025000072],[101.42190634100007,3.753614399000071],[101.44108300800008,3.75013520400006],[101.46258412000009,3.715342504000034],[101.47420634200006,3.714182724000068],[101.47769300900006,3.706644114000028],[101.48699078700008,3.698525540000048],[101.49628856500004,3.698525540000048],[101.52360078800007,3.680548432000023],[101.53115523300005,3.679968519000056],[101.53638523300003,3.682288168000071],[101.54161523300007,3.685767630000043],[101.54393967800007,3.693886321000036],[101.55091301100003,3.696785835000071],[101.56660301200009,3.697945639000068],[101.57822523400006,3.746655997000062],[101.59217190200008,3.759413025000072],[101.60146968000004,3.771590014000026],[101.62471412500008,3.778548216000047],[101.61018634600003,3.794783806000055],[101.59682079100008,3.79536364300003],[101.59100967900008,3.800582157000065],[101.59623967900006,3.821455897000021],[101.58984745700008,3.836531060000027],[101.59159079000005,3.840009906000034],[101.60205079100007,3.846387754000034],[101.59972634600007,3.859723099000064],[101.60437523500008,3.878856055000028],[101.57764412300008,3.900887407000027],[101.57299523400008,3.911902866000048],[101.57706301200005,3.929875147000075],[101.57357634500005,3.943209169000056],[101.57706301200005,3.960021328000039],[101.57183301200007,3.987847597000041],[101.57357634500005,3.994224318000022],[101.55846745600007,4.009876059000021],[101.55846745600007,4.029005558000051],[101.56892745600004,4.05335154200003],[101.58287412300007,4.077117152000028],[101.57590079000005,4.090448773000048],[101.56544079000008,4.096824687000037],[101.56079190100007,4.102620928000022],[101.55904856700005,4.10899674500007],[101.53812856700006,4.120009400000072],[101.53289856600009,4.126385078000055],[101.52766856600005,4.12522586700004],[101.52185745500009,4.118850180000038],[101.51372189900007,4.11653173600007],[101.50384301000008,4.096824687000037],[101.49745078800004,4.091028403000053],[101.49686967600007,4.074798587000032],[101.48582856500008,4.049873589000072],[101.48757189800006,4.041758307000066],[101.48350412100007,4.034222616000022],[101.47362523100009,4.030744581000022],[101.46665189800007,4.031903928000077],[101.46316523100006,4.026686855000037],[101.47013856500007,4.01161512300007],[101.47013856500007,4.001180684000076],[101.46316523100006,3.986688188000073],[101.45619189700005,3.982050535000042],[101.45619189700005,3.977992567000058],[101.46316523100006,3.965238824000039],[101.46258412000009,3.957702429000051],[101.45677300900007,3.955383525000059],[101.43062300800005,3.958282155000063],[101.42539300800007,3.955383525000059],[101.40272967400006,3.926976418000038],[101.39168856200007,3.921178930000053],[101.37948522900007,3.906105274000026],[101.36611967300007,3.895669507000036],[101.36902522800005,3.890451575000043],[101.38180967300008,3.883494282000072],[101.38239078400005,3.874797586000057],[101.37774189500004,3.866100799000037],[101.38355300600006,3.835371442000053],[101.37425522800004,3.822035716000073],[101.35159189400008,3.822035716000073],[101.31672522700006,3.810439264000024],[101.30219744800007,3.822035716000073],[101.25919522500004,3.843488738000076],[101.24408633600007,3.840589713000043],[101.25047855800005,3.730419510000047],[101.24408633600007,3.721141383000031],[101.24989744700008,3.715342504000034],[101.24582966900005,3.700845140000069],[101.25164078000006,3.675329203000047],[101.27256078100004,3.668950105000022],[101.29231855900008,3.677068949000045],[101.30103522600007,3.671849701000042],[101.30800856000008,3.681128344000058],[101.31904967100007,3.689826984000035],[101.33706411600008,3.693306417000031],[101.34345633900006,3.704324529000075]]]}},{"type":"Feature","properties":{"state":"Perak","district":"Batang Padang"},"geometry":{"type":"Polygon","coordinates":[[[101.33358209800008,4.43161159400006],[101.33462344900005,4.426168242000074],[101.32160656000008,4.415785714000037],[101.31416833800006,4.39168286000006],[101.30933349300005,4.385749730000043],[101.31491216000006,4.371658358000047],[101.30858967100005,4.363500074000058],[101.29966380400003,4.362016740000058],[101.29631660400008,4.359050063000041],[101.30040762600004,4.353487513000061],[101.29371322600008,4.349037443000043],[101.28925029300007,4.338653845000067],[101.25726593600007,4.339766380000071],[101.24945580200006,4.346070716000042],[101.24127375800003,4.347554081000055],[101.23123215700008,4.344958190000057],[101.23011642400007,4.339024690000031],[101.22432855700004,4.340229936000071],[101.20747633500008,4.337332708000076],[101.19701633400007,4.332697118000056],[101.19236744500006,4.326902592000067],[101.19585411200006,4.315892870000027],[101.19701633400007,4.300826675000053],[101.19643522300004,4.293872947000068],[101.19294855600003,4.289237092000064],[101.16331188900006,4.278226826000036],[101.14994633300006,4.264898396000035],[101.12030966500004,4.249251684000058],[101.11333633200007,4.24751314100007],[101.07066721274587,4.248634182370166],[101.10113299800008,4.180866047000052],[101.11073295400007,4.183624770000051],[101.13341953200006,4.148386568000035],[101.14160157700007,4.142822498000044],[101.14532068800008,4.142822498000044],[101.14755215500008,4.150241250000022],[101.15610611100004,4.148386568000035],[101.16168477800005,4.143193437000036],[101.15127126600004,4.132065184000055],[101.15015553300003,4.129097623000064],[101.15275891100003,4.125017209000021],[101.14866788800003,4.112404888000071],[101.19664442300007,4.07048603800007],[101.23827522400006,4.030164907000028],[101.24408633600007,3.840589713000043],[101.25919522500004,3.843488738000076],[101.30219744800007,3.822035716000073],[101.31672522700006,3.810439264000024],[101.35159189400008,3.822035716000073],[101.37425522800004,3.822035716000073],[101.37890411700005,3.827833883000039],[101.38355300600006,3.835371442000053],[101.37774189500004,3.866100799000037],[101.38239078400005,3.874797586000057],[101.38180967300008,3.883494282000072],[101.36902522800005,3.890451575000043],[101.36611967300007,3.895669507000036],[101.37948522900007,3.906105274000026],[101.39168856200007,3.921178930000053],[101.40272967400006,3.926976418000038],[101.42539300800007,3.955383525000059],[101.43062300800005,3.958282155000063],[101.45677300900007,3.955383525000059],[101.46258412000009,3.957702429000051],[101.46316523100006,3.965238824000039],[101.45619189700005,3.977992567000058],[101.45619189700005,3.982050535000042],[101.46316523100006,3.986688188000073],[101.47013856500007,4.001180684000076],[101.47013856500007,4.01161512300007],[101.46316523100006,4.026686855000037],[101.46665189800007,4.031903928000077],[101.47362523100009,4.030744581000022],[101.48350412100007,4.034222616000022],[101.48757189800006,4.041758307000066],[101.48582856500008,4.049873589000072],[101.49686967600007,4.074798587000032],[101.49745078800004,4.091028403000053],[101.50384301000008,4.096824687000037],[101.51023523200007,4.111894827000071],[101.51624986900003,4.11725215000007],[101.50286238500007,4.148590873000046],[101.49650648200009,4.157646892000059],[101.49923044000008,4.186625450000065],[101.51103426000009,4.199303232000034],[101.51194224600005,4.205642046000037],[101.49469051000005,4.207453126000075],[101.48561064800003,4.211980808000021],[101.46472696700005,4.215602935000049],[101.45292314700004,4.221941616000038],[101.45110717500006,4.228280246000054],[101.45292314700004,4.240051849000054],[101.46381898100009,4.252728759000036],[101.46018703600004,4.259067136000056],[101.44565925800003,4.272649196000032],[101.44470914200008,4.278945395000051],[101.44768443100008,4.28673371900004],[101.44619678600009,4.294521964000069],[101.45103163100003,4.301939266000034],[101.44842825300003,4.308243916000038],[101.45028780800004,4.315661084000055],[101.44470914200008,4.319740496000065],[101.44473889400007,4.333832840000071],[101.42545902200004,4.340478402000031],[101.42188867500005,4.34688656700007],[101.43440869100004,4.356380044000048],[101.43547503500008,4.368835305000061],[101.43943573900003,4.375366639000049],[101.44415811800008,4.37703743700007],[101.44370111400008,4.380075241000043],[101.43547503500008,4.391770670000028],[101.41673785500006,4.395264074000067],[101.41323415500005,4.392985769000063],[101.40790243700008,4.394200866000062],[101.39982869300007,4.405136651000021],[101.39708666600006,4.403314031000036],[101.39190728300008,4.409541296000043],[101.37404602800007,4.407405426000025],[101.36833347400005,4.404557590000024],[101.36547719600009,4.398624562000066],[101.35786045600008,4.397437951000029],[101.35452813300009,4.409541296000043],[101.34929162400005,4.412389113000074],[101.34833953200007,4.415474236000023],[101.35309999400005,4.421407129000045],[101.35238592500008,4.427814600000033],[101.34167488400004,4.433984705000057],[101.33358209800008,4.43161159400006]]]}},{"type":"Feature","properties":{"state":"Perak","district":"Bagan Datuk"},"geometry":{"type":"Polygon","coordinates":[[[100.83149743400008,4.045815958000048],[100.81813187900008,4.042337973000031],[100.80476632300008,4.031324254000026],[100.79546854500006,4.016832292000061],[100.77571076600003,4.003499460000057],[100.76757521000008,4.003499460000057],[100.76176409900006,4.011035435000053],[100.71818076400007,4.005238537000025],[100.70713965300007,3.997122811000054],[100.69900409700006,3.967557701000032],[100.70539632000003,3.888712257000066],[100.71004520900004,3.882914505000031],[100.72515409800008,3.877116713000021],[100.74374965400006,3.856244334000053],[100.76583187700004,3.846967556000038],[100.79837410000005,3.858563513000036],[100.80650965600006,3.859143306000021],[100.82510521200004,3.853345352000076],[100.84602521300008,3.851026159000071],[100.86520188000009,3.856824129000074],[100.88495965800007,3.855084742000031],[100.90355521400005,3.858563513000036],[100.93377299300005,3.870159311000066],[100.94248966000004,3.870739096000023],[100.94307077100007,3.856244334000053],[100.93784077100008,3.839430100000072],[100.94132743800009,3.831892577000076],[100.95876077200006,3.828993512000068],[100.96980188300006,3.824354988000039],[100.98084299400006,3.813338392000048],[100.98026188300008,3.807540127000038],[100.96573410500008,3.800002324000047],[100.95992299400007,3.794203969000023],[100.95701743800004,3.784346676000041],[100.96224743800008,3.775069122000048],[100.97503188300004,3.768110891000049],[100.98258632800008,3.771010161000049],[100.98781632800006,3.79536364300003],[100.99420855000005,3.800002324000047],[101.01396632900008,3.801741822000054],[101.02558855100006,3.80580063900004],[101.02791299600005,3.798262821000037],[101.02558855100006,3.784926520000056],[101.03953521800008,3.785506363000025],[101.06045521900006,3.796523315000059],[101.06045521900006,3.79130477700005],[101.05522521900008,3.784346676000041],[101.05406299700007,3.775648972000056],[101.05813077500005,3.769270600000027],[101.05754966300003,3.754774127000076],[101.06277966400006,3.754194263000045],[101.06684744100005,3.76289218200003],[101.07556410800004,3.76521161200003],[101.08602410900005,3.780287758000043],[101.09474077600004,3.77970791100006],[101.09009188700009,3.76521161200003],[101.09764633100008,3.759992885000031],[101.09880855400007,3.751294937000068],[101.07556410800004,3.758833164000066],[101.07846966400007,3.746655997000062],[101.07265855300005,3.739117665000038],[101.07091521900009,3.732159148000051],[101.07498299700006,3.728099988000054],[101.07963188600007,3.730999390000022],[101.08253744200005,3.737378041000056],[101.09590299800004,3.744916387000046],[101.10578188700003,3.73389878200004],[101.10636299800007,3.742596903000049],[101.11101188700007,3.74549625700007],[101.11624188700006,3.737957916000028],[101.12321522100007,3.737957916000028],[101.12379633200004,3.744916387000046],[101.13367522100003,3.761152605000063],[101.13658077700006,3.751874803000021],[101.14297299900005,3.748395602000073],[101.14355411000008,3.744916387000046],[101.13425633200006,3.739697539000076],[101.13483744300004,3.735058537000043],[101.153433,3.729839630000072],[101.14994633300006,3.741437159000043],[101.15285188800004,3.74549625700007],[101.16214966700005,3.727520106000043],[101.16447411100006,3.749555337000061],[101.17086633300005,3.730419510000047],[101.17551522200006,3.728099988000054],[101.19062411200008,3.730419510000047],[101.18132633400006,3.718821836000075],[101.169123,3.719401723000033],[101.17086633300005,3.713022942000066],[101.17667744500005,3.710703373000058],[101.18946189000008,3.719401723000033],[101.19643522300004,3.717662060000066],[101.19992189000004,3.728099988000054],[101.20398966800008,3.719401723000033],[101.21038189000006,3.717662060000066],[101.21328744600004,3.713602833000039],[101.21212522400003,3.708963693000044],[101.24408633600007,3.721141383000031],[101.25047855800005,3.730419510000047],[101.24311514200008,3.855956839000044],[101.22665300200003,3.870739096000023],[101.10578188700003,3.884074059000056],[101.08137522000004,3.894509970000058],[101.00350632800007,3.91016359300005],[100.96050410500004,3.943209169000056],[100.96747743900005,3.954803798000057],[100.95178743800005,3.96465910400002],[100.94830077100005,3.975094007000052],[100.94074632700006,3.98552877700007],[100.93609743800005,3.98552877700007],[100.92215077100008,3.975673720000032],[100.91575854800004,3.976833144000068],[100.91401521500006,3.988427301000058],[100.90704188100005,3.994804017000035],[100.89883659100008,3.996844556000042],[100.88684245800005,3.982931691000033],[100.87791659100009,3.967720023000027],[100.87419748000008,3.965122880000024],[100.86675925800006,3.965493901000059],[100.86192441300005,3.971059193000031],[100.85894912400005,3.980705611000076],[100.86899072400007,4.012983184000063],[100.86527161300006,4.033758879000061],[100.85932103500005,4.041920614000048],[100.85002325700003,4.045259482000063],[100.83149743400008,4.045815958000048]]]}},{"type":"Feature","properties":{"state":"Perak","district":"Manjung"},"geometry":{"type":"MultiPolygon","coordinates":[[[[100.54731601400005,4.200768046000064],[100.54377252700004,4.202913666000029],[100.53896351000009,4.200010767000038],[100.54288665600006,4.196035040000027],[100.53795108500003,4.194899115000055],[100.53927989300007,4.187136912000028],[100.54737929000004,4.187578665000046],[100.54915103400003,4.195088436000049],[100.54731601400005,4.200768046000064]]],[[[100.60647958300007,4.211117452000053],[100.60363213900007,4.213894098000026],[100.60148073600004,4.212884410000072],[100.60205022500008,4.210360183000034],[100.59730448400006,4.210612606000041],[100.59901295100008,4.208656325000049],[100.59705137800006,4.207457312000031],[100.59774742000008,4.202535028000057],[100.60483439300003,4.203102985000044],[100.60647958300007,4.211117452000053]]],[[[100.54068141500005,4.266080240000065],[100.53633656000005,4.263191690000042],[100.53826760700008,4.26006241500005],[100.53681932200004,4.257414557000061],[100.54406074800005,4.255729551000059],[100.54623317500005,4.252359529000046],[100.54430212800008,4.246823033000055],[100.53754346400007,4.246341596000036],[100.53657794100008,4.244415848000074],[100.54550903300009,4.237916412000061],[100.54478489000007,4.230694752000034],[100.54212970100008,4.227565345000073],[100.52885375300008,4.230213305000063],[100.53006065700004,4.227806069000053],[100.53730208300004,4.227324621000037],[100.54212970100008,4.224195200000054],[100.54502627100004,4.220825041000069],[100.54309522400007,4.215288319000024],[100.54550903300009,4.212881036000056],[100.54840560300005,4.214325406000057],[100.55685393300007,4.210955204000072],[100.56047464600005,4.205177681000066],[100.56192293100008,4.191696627000056],[100.56819883400004,4.18904853500004],[100.57133678500009,4.191455892000022],[100.58026787700004,4.18856706300005],[100.58075063900009,4.192418832000044],[100.57664716400006,4.196752049000054],[100.57881959200006,4.204455488000065],[100.57544026000005,4.209751557000061],[100.57712992600005,4.214806863000035],[100.57350921300008,4.237434970000038],[100.56747469100009,4.243212253000024],[100.56964711900008,4.248748775000024],[100.56361259700009,4.253322394000065],[100.55950912300005,4.249470927000061],[100.55395736300005,4.249230210000064],[100.55033665000008,4.262469551000038],[100.54647455600008,4.265598816000022],[100.54068141500005,4.266080240000065]]],[[[100.73807801000004,4.522570422000058],[100.62425999200008,4.530057055000043],[100.61881076200007,4.514043050000055],[100.61881076200007,4.466538198000023],[100.61009409500008,4.425982841000064],[100.59789076100009,4.421927182000047],[100.59382298300005,4.425982841000064],[100.58684964900004,4.42714159600007],[100.58220076000003,4.42250656300007],[100.58684964900004,4.402227955000058],[100.58568742700004,4.370360455000025],[100.55605076000006,4.310677682000062],[100.56592964900005,4.311257149000028],[100.56883520400004,4.314154478000034],[100.57406520500007,4.31299554800006],[100.57871409400008,4.306621401000029],[100.57987631600008,4.296770341000069],[100.58626853800007,4.295611385000029],[100.58510631600006,4.281124280000029],[100.58626853800007,4.275329361000047],[100.59149853800005,4.26895489900005],[100.58975520500007,4.256785326000056],[100.60602631700004,4.250990223000031],[100.61358076100004,4.253308270000048],[100.62345965100008,4.246933626000043],[100.63101409500007,4.246933626000043],[100.64496076200004,4.253308270000048],[100.65483965100003,4.266636900000037],[100.66123187400007,4.263739391000058],[100.65832631800004,4.250990223000031],[100.65483965100003,4.246354110000027],[100.63682520700007,4.233604654000032],[100.62229742800008,4.233604654000032],[100.59207965000007,4.243456525000056],[100.59556631600003,4.230127494000044],[100.60835076100005,4.219116382000038],[100.61067520600005,4.213320997000039],[100.61009409500008,4.20578693300007],[100.60370187200004,4.19825279500003],[100.60195853900007,4.191877699000031],[100.60951298300006,4.184343427000044],[100.61474298400003,4.169274667000025],[100.61939187300004,4.166956370000037],[100.62287853900006,4.161160599000027],[100.62927076200003,4.160001439000041],[100.63740631800005,4.170433812000056],[100.65716409600009,4.17159295600004],[100.68157076300008,4.164638067000055],[100.71062632000007,4.148989340000071],[100.72864076500008,4.11827057000005],[100.74374965400006,4.110155979000069],[100.75304743200007,4.099143188000028],[100.76641298800007,4.060307403000024],[100.76525076600007,4.041178641000045],[100.76118298800009,4.025527501000056],[100.76176409900006,4.011035435000053],[100.76757521000008,4.003499460000057],[100.77571076600003,4.003499460000057],[100.79546854500006,4.016832292000061],[100.80476632300008,4.031324254000026],[100.81813187900008,4.042337973000031],[100.83149743400008,4.045815958000048],[100.82540274100006,4.051106177000065],[100.82849704200004,4.05276817400005],[100.82326053300005,4.066301452000062],[100.81921414000004,4.065114331000075],[100.81302553900008,4.082208698000045],[100.79945822100007,4.078172561000031],[100.79564985100006,4.093129909000027],[100.79065136600008,4.091230579000069],[100.78874718100008,4.113310014000035],[100.77541788600007,4.120194875000038],[100.76946730800006,4.130640756000048],[100.76399277600007,4.131827779000048],[100.76423080000006,4.136338452000075],[100.77470381700005,4.165301102000058],[100.77160951600007,4.185716756000033],[100.78565288000004,4.19829823200007],[100.79255555100008,4.210404743000026],[100.79993426700008,4.268086114000027],[100.81278751600007,4.285650776000068],[100.82516471800005,4.285650776000068],[100.82183239400007,4.339766380000071],[100.81802402400007,4.344038500000067],[100.82183239400007,4.347361244000069],[100.82135634800005,4.355193366000037],[100.80993123800005,4.347835920000023],[100.80374263700008,4.348547934000067],[100.79660194400009,4.353532014000052],[100.80017229000003,4.361126738000053],[100.79445973600008,4.37299334100004],[100.80683693800006,4.380587869000067],[100.80540879900008,4.480733435000047],[100.81373960800005,4.480496139000024],[100.81992820900007,4.485242038000024],[100.82968715700008,4.476699398000051],[100.83706587400007,4.487377683000034],[100.85039516800003,4.485953921000032],[100.85848795400005,4.501615153000046],[100.85610772300004,4.508021923000058],[100.85920202400007,4.510632073000068],[100.85944004700008,4.538156715000071],[100.85526935800004,4.552571725000064],[100.77256160900004,4.534122997000054],[100.77184753900008,4.531987490000063],[100.73807801000004,4.522570422000058]]]]}}]}