{"type":"FeatureCollection","features":[{"type":"Feature","properties":{"state":"Putrajaya","district":"Putrajaya"},"geometry":{"type":"Polygon","coordinates":[[[101.6804586,2.8805165],[101.6867007,2.885083],[101.6880922,2.8920717],[101.697197,2.89441440000013],[101.6974356,2.898822],[101.70089459999997,2.89997360000001],[101.7010934,2.9054532],[101.6975168,2.9062996],[101.6975964,2.9095159],[101.7003,2.9095556],[101.7003795,2.9130896],[101.707218,2.9132882],[101.70749629999995,2.929250400000114],[101.73268209999998,2.929229199999952],[101.73088249999995,2.954849200000069],[101.71517779999994,2.954968300000132],[101.7149392,2.9635845],[101.71044649999999,2.961122700000089],[101.7033694,2.9629889],[101.7030911,2.966721200000052],[101.69979109999997,2.9678727000001],[101.7005067,2.9731138],[101.7077031,2.979704899999945],[101.7082995,2.9823651],[101.7058742,2.9789108],[101.6904875,2.9721609],[101.67168159999994,2.970930000000124],[101.6628154,2.964338900000087],[101.6642467,2.9578271],[101.6743852,2.9507198],[101.6747033,2.9467889],[101.6648431,2.9440094],[101.6685804,2.9390461],[101.6674672,2.930946],[101.6725636,2.922783],[101.6720013,2.9157075],[101.6693024,2.9145844],[101.6695273,2.9103166],[101.66379209999997,2.908800500000098],[101.6596875,2.8991418],[101.66556329999997,2.879796000000113],[101.6711331,2.8833749],[101.674338,2.8768326],[101.675069,2.8813813],[101.6804586,2.8805165]]]}}]}