{"type":"FeatureCollection","features":[{"type":"Feature","properties":{"state":"Terengganu","district":"Hulu Terengganu"},"geometry":{"type":"Polygon","coordinates":[[[102.42025525900004,5.314180035000049],[102.41560637000003,5.282355478000056],[102.41793081500003,5.271361159000037],[102.41444414800009,5.254579982000052],[102.41618748100007,5.247057239000071],[102.41502525900006,5.234326236000072],[102.42316081500007,5.217544064000037],[102.42316081500007,5.209442164000052],[102.42199859300007,5.201340161000076],[102.41153859200006,5.18166343200005],[102.43710748200004,5.179348483000069],[102.44175637100005,5.170667346000073],[102.44931081600004,5.16603735800004],[102.46325748300006,5.164879856000027],[102.47662303900006,5.156777281000075],[102.48650192800005,5.144623224000043],[102.48650192800005,5.137677944000075],[102.51148970700007,5.126102310000022],[102.51788192900005,5.117420447000029],[102.52543637400004,5.112211272000025],[102.52834192900008,5.106423251000024],[102.51904415100006,5.098319933000028],[102.51904415100006,5.090795332000027],[102.51555748400006,5.086743588000047],[102.50335415100005,5.082112991000031],[102.50044859500008,5.07516703400006],[102.51439526200005,5.053749862000075],[102.51090859500005,5.041014992000044],[102.51671970700005,5.028858747000072],[102.51497637300008,5.016702274000068],[102.51207081800004,5.012071177000053],[102.50567859500006,5.010334508000028],[102.49928637300007,5.002808885000036],[102.49986748400005,4.991809744000022],[102.50509748400003,4.984283909000055],[102.50742192900009,4.975600146000033],[102.52078748500008,4.961126953000075],[102.51439526200005,4.950706058000037],[102.52027610700009,4.945472391000067],[102.51432552900008,4.938061818000051],[102.51097832900007,4.913235797000027],[102.50614348400006,4.902860469000075],[102.52659859600004,4.895449421000023],[102.54035930700007,4.905083767000065],[102.55523575200004,4.899525508000067],[102.55858295200005,4.896190530000069],[102.56936837500007,4.893967202000056],[102.58461673100004,4.883591575000025],[102.58945157600004,4.874327486000027],[102.60693139800009,4.871362951000037],[102.61251006500004,4.86283983900006],[102.62143593200005,4.860245827000028],[102.63668428800008,4.850610839000069],[102.65081691100005,4.84949910000006],[102.65267646600006,4.839863958000024],[102.64486633300004,4.82652276500005],[102.64598206600004,4.81911087800006],[102.64412251000005,4.815775503000054],[102.65230455500006,4.812069511000061],[102.65565175500006,4.80799289600003],[102.65974277800007,4.791315583000028],[102.66569335600008,4.783903313000053],[102.66420571100008,4.772043514000075],[102.65788322200007,4.763148530000024],[102.66548415600005,4.742833254000061],[102.68814749000006,4.713876582000069],[102.69744526800008,4.715614016000075],[102.70383749000007,4.713876582000069],[102.71022971200006,4.704031038000039],[102.72359526800005,4.694764517000067],[102.72998749100009,4.687235378000025],[102.74567749100004,4.689552045000028],[102.75206971400007,4.681443677000061],[102.75962415800007,4.683181192000063],[102.76601638100004,4.676810282000076],[102.77705749200004,4.676810282000076],[102.78286860300005,4.671597676000033],[102.82587082700007,4.681443677000061],[102.84039860500008,4.679706158000045],[102.84504749400008,4.682602021000037],[102.84737193900008,4.694764517000067],[102.84504749400008,4.727196801000048],[102.87235971700005,4.738200268000071],[102.87526527300008,4.743991495000046],[102.88921194000005,4.750361790000056],[102.89444194000004,4.759048460000031],[102.89037416200006,4.76831412100006],[102.88979305100008,4.777000564000048],[102.89792860700004,4.796110352000028],[102.89153638400006,4.807691781000074],[102.89269860700006,4.814640545000032],[102.89967194000008,4.81869395700005],[102.90548305200008,4.816377724000063],[102.92059194100005,4.820431127000063],[102.92872749700007,4.814061484000035],[102.93744416400006,4.811745235000046],[102.94674194200007,4.812903361000053],[102.95371527500004,4.819273014000032],[102.97637860900005,4.822747345000039],[102.98567638700007,4.841855850000059],[102.99206861000005,4.845909099000039],[103.01182638800009,4.837802576000058],[103.02170527700008,4.836644493000051],[103.02925972200006,4.83896065600004],[103.03797638900005,4.848804263000034],[103.03797638900005,4.860963814000058],[103.04901750000005,4.858068703000072],[103.05134194500005,4.860384793000037],[103.06238305600004,4.858068703000072],[103.06993750100008,4.863279894000073],[103.07632972300007,4.86270087500003],[103.08504639000006,4.879492232000075],[103.08562750100003,4.888177251000059],[103.07981639000008,4.910757775000036],[103.07981639000008,4.920021359000032],[103.09492527900005,4.925232068000071],[103.10073639100005,4.930442737000021],[103.10654750200007,4.944337653000048],[103.11526416900006,4.942600804000051],[103.13211639200006,4.947811336000029],[103.13967083600005,4.94086395100004],[103.14780639200006,4.940284999000028],[103.15942861500008,4.947232390000067],[103.17221305900006,4.947232390000067],[103.19197083800009,4.921179298000027],[103.21347195000004,4.932179617000031],[103.21172861600007,4.950127115000043],[103.22567528300004,4.953600768000058],[103.22683750600004,4.958811213000047],[103.21521528300008,4.968653053000025],[103.20766083800004,4.991230836000057],[103.17976750400004,5.020754457000066],[103.17046972600008,5.036384068000075],[103.15768528100006,5.049697885000057],[103.15187417000004,5.049697885000057],[103.13967083600005,5.063590273000045],[103.13095416900006,5.080955337000034],[103.13095416900006,5.09021651300003],[103.11584528000009,5.108159663000038],[103.10131750200009,5.100635177000072],[103.09085750100007,5.106423251000024],[103.07981639000008,5.113368870000045],[103.05366638900006,5.146359532000076],[103.05250416700005,5.152725954000061],[103.05599083400006,5.17182483800002],[103.05306110400005,5.186566467000034],[103.04615843400006,5.199129916000061],[103.05115691900005,5.203633733000061],[103.04401622500006,5.207900477000067],[103.04401622500006,5.214063500000066],[103.03901774000008,5.217856100000063],[103.03742774600005,5.230750768000064],[103.02813532300007,5.231357570000057],[103.01869056600003,5.237577250000072],[103.00909347400005,5.236060260000045],[103.00772246000008,5.231660970000064],[103.00406642500008,5.230295667000064],[103.00071506000006,5.234088169000074],[102.99919171200008,5.23105416900006],[102.99690669000006,5.231660970000064],[102.98756015700008,5.225341116000038],[102.96301305300005,5.201340161000076],[102.95022860800003,5.202497596000057],[102.94441749700007,5.200761442000044],[102.94151194100004,5.196710397000061],[102.92814638500005,5.188608230000057],[102.91884860700009,5.192080600000054],[102.91826749600006,5.198446562000072],[102.91303749700006,5.202497596000057],[102.90722638500006,5.213493127000049],[102.89850971800007,5.215229246000035],[102.89153638500005,5.239534405000029],[102.88107638400004,5.245899886000075],[102.87526527300008,5.243006493000053],[102.86422416100004,5.251686631000041],[102.85666971700005,5.262681297000029],[102.85027749400007,5.265574597000068],[102.84620971700008,5.258630653000068],[102.84039860500008,5.25400131300006],[102.83168193800009,5.251686631000041],[102.82354638300006,5.241270452000037],[102.79042304800004,5.222752372000059],[102.78170638100005,5.223331070000029],[102.76834082500005,5.230275408000068],[102.75729971400006,5.244742530000053],[102.74509638000006,5.249950613000067],[102.74102860200009,5.25631598700005],[102.72766304600003,5.260366646000023],[102.72417637900008,5.281198190000055],[102.72882526900008,5.287563244000069],[102.72940638000006,5.293349601000045],[102.72417637900008,5.306658015000039],[102.72882526900008,5.315915873000051],[102.72650082400008,5.321123356000044],[102.72243304600005,5.328645200000039],[102.71604082400006,5.333273981000048],[102.71662193500003,5.339638498000056],[102.68930971200007,5.340217087000042],[102.68349860100005,5.346002948000034],[102.68466082300006,5.359310222000033],[102.67768748900005,5.37782420800005],[102.68117415600005,5.393444945000056],[102.67826860000008,5.397494701000028],[102.67129526700006,5.399808835000044],[102.66490304400008,5.393444945000056],[102.65734860000003,5.39228786700005],[102.65095637800005,5.39518055800005],[102.65618637700004,5.420635640000057],[102.64746971100004,5.43856925700004],[102.64223971000007,5.442040219000035],[102.63933415500009,5.448403595000059],[102.62887415500006,5.458237772000075],[102.61667082100007,5.475013348000061],[102.59313581600009,5.482822507000037],[102.59516970900006,5.480219466000051],[102.58761526400008,5.468650254000067],[102.59516970900006,5.454188425000041],[102.59575082000003,5.446668135000039],[102.58935859800005,5.442618710000033],[102.59342637600008,5.432784278000042],[102.59052082000005,5.427577748000033],[102.57715526400006,5.421214152000061],[102.57831748600006,5.413114931000052],[102.58935859800005,5.399230302000035],[102.58006082000009,5.389395163000074],[102.57947970900005,5.381874067000069],[102.58470970900004,5.374931435000065],[102.58412859800006,5.369145847000027],[102.56204637500008,5.36856728500004],[102.55274859700006,5.365095903000054],[102.54286970700008,5.358153080000022],[102.53299081800009,5.337902727000028],[102.52485526200007,5.333273981000048],[102.51555748400006,5.332695385000022],[102.50742192900009,5.347160114000076],[102.49928637300007,5.350631598000064],[102.47255526100008,5.359310222000033],[102.45918970500009,5.352367333000075],[102.45047303800004,5.352945910000074],[102.44152391904157,5.36324447960974],[102.43594526000004,5.355260213000065],[102.43013414900008,5.354103063000025],[102.42606637100005,5.346581532000073],[102.42722859300005,5.321701963000066],[102.42025525900004,5.314180035000049]]]}},{"type":"Feature","properties":{"state":"Terengganu","district":"Setiu"},"geometry":{"type":"Polygon","coordinates":[[[102.98756015700008,5.225341116000038],[102.94462669700005,5.26219522100007],[102.93532891900009,5.265528305000032],[102.93198171900008,5.272194420000062],[102.93384127500008,5.276638456000057],[102.93272554100008,5.287007752000022],[102.92751878600006,5.297376873000076],[102.90780749600003,5.307375504000049],[102.92640305200007,5.322187993000057],[102.92528731900006,5.326261364000061],[102.92082438500006,5.328112888000021],[102.91784909600005,5.34144369400002],[102.92119629600006,5.352922767000052],[102.91412998500005,5.357736508000073],[102.91301425200004,5.363661060000027],[102.92119629600006,5.376991091000036],[102.92119629600006,5.384026267000024],[102.91078278500004,5.441045212000063],[102.91673336300005,5.451041484000029],[102.93532891900009,5.438823795000076],[102.99743807700008,5.501760741000055],[102.96359416400009,5.533434948000036],[102.95603972000004,5.536905357000023],[102.93686305200004,5.534013350000066],[102.91768638500008,5.537483756000029],[102.89211749600008,5.549630015000048],[102.86654860600004,5.567559750000044],[102.85085860500004,5.573343419000025],[102.80669416000006,5.617875757000036],[102.77763860300007,5.641586393000068],[102.76369193600004,5.652573921000055],[102.74277193600005,5.66124813700003],[102.69860749000009,5.696521942000061],[102.66428514000006,5.733306302000074],[102.65211860000005,5.711556020000046],[102.65560526600007,5.700569617000042],[102.66199748900004,5.693052483000031],[102.66606526700008,5.660091583000053],[102.66548415600005,5.636960004000059],[102.65153748800009,5.621923983000045],[102.64523824400004,5.618731670000045],[102.64821353300005,5.613549907000049],[102.64412251000005,5.609848620000037],[102.64263486600004,5.599855027000046],[102.62552695400007,5.595413375000021],[102.61376526500004,5.589537389000043],[102.62131971000008,5.560040896000032],[102.62073859900005,5.551943560000041],[102.61434637600007,5.547316461000037],[102.61085970900007,5.540375745000063],[102.61085970900007,5.533434948000036],[102.61667082100007,5.531121330000076],[102.62015748800007,5.522445185000038],[102.61783304300008,5.517817855000033],[102.60621082000006,5.510876793000023],[102.59807526500003,5.501043483000046],[102.59110193100008,5.485425538000072],[102.59313581600009,5.482822507000037],[102.61667082100007,5.475013348000061],[102.62887415500006,5.458237772000075],[102.63933415500009,5.448403595000059],[102.64223971000007,5.442040219000035],[102.64746971100004,5.43856925700004],[102.65618637700004,5.420635640000057],[102.65095637800005,5.39518055800005],[102.65734860000003,5.39228786700005],[102.66490304400008,5.393444945000056],[102.67129526700006,5.399808835000044],[102.67826860000008,5.397494701000028],[102.68117415600005,5.393444945000056],[102.67768748900005,5.37782420800005],[102.68466082300006,5.359310222000033],[102.68349860100005,5.346002948000034],[102.68930971200007,5.340217087000042],[102.71662193500003,5.339638498000056],[102.71604082400006,5.333273981000048],[102.72243304600005,5.328645200000039],[102.72882526900008,5.315915873000051],[102.72417637900008,5.309551110000029],[102.72940638000006,5.293349601000045],[102.72882526900008,5.287563244000069],[102.72417637900008,5.281198190000055],[102.72766304600003,5.260366646000023],[102.74102860200009,5.25631598700005],[102.74509638000006,5.249950613000067],[102.75729971400006,5.244742530000053],[102.76834082500005,5.230275408000068],[102.78170638100005,5.223331070000029],[102.79042304800004,5.222752372000059],[102.82354638300006,5.241270452000037],[102.83168193800009,5.251686631000041],[102.84039860500008,5.25400131300006],[102.84620971700008,5.258630653000068],[102.85027749400007,5.265574597000068],[102.85666971700005,5.262681297000029],[102.86422416100004,5.251686631000041],[102.87526527300008,5.243006493000053],[102.88107638400004,5.245899886000075],[102.89153638500005,5.239534405000029],[102.89850971800007,5.215229246000035],[102.90722638500006,5.213493127000049],[102.91303749700006,5.202497596000057],[102.91826749600006,5.198446562000072],[102.91884860700009,5.192080600000054],[102.92814638500005,5.188608230000057],[102.94151194100004,5.196710397000061],[102.94441749700007,5.200761442000044],[102.95022860800003,5.202497596000057],[102.96301305300005,5.201340161000076],[102.98756015700008,5.225341116000038]]]}},{"type":"Feature","properties":{"state":"Terengganu","district":"Kuala Terengganu"},"geometry":{"type":"Polygon","coordinates":[[[103.04421565000007,5.212871902000074],[103.04687250300009,5.213115347000041],[103.05353715000007,5.223781992000056],[103.05948772800008,5.225204197000039],[103.06186795900004,5.230418924000048],[103.06877063000007,5.231841114000076],[103.06829458300007,5.236581726000054],[103.07543527700005,5.242270412000039],[103.07519725400005,5.245351763000031],[103.06972272200005,5.248670123000068],[103.07591132300007,5.253647630000046],[103.08495620200006,5.268342896000036],[103.08900259500007,5.267157806000057],[103.08852654900005,5.260758286000055],[103.09162084900004,5.258625098000039],[103.09519119600009,5.257677012000045],[103.09828549600007,5.261706367000045],[103.10685432900004,5.262891467000031],[103.10899653700005,5.259336161000022],[103.11804141500005,5.256965946000037],[103.12018362300006,5.255069768000055],[103.11827943800006,5.251751442000057],[103.12899047900004,5.243218522000063],[103.12970454800006,5.229707827000027],[103.12423001600007,5.222122748000061],[103.12042164600007,5.210033838000072],[103.13327489500006,5.211930153000026],[103.13732128800007,5.215959803000032],[103.14684221200008,5.216433878000032],[103.14946046700004,5.221411642000021],[103.14731825900009,5.229707827000027],[103.15398290600007,5.249618223000027],[103.16231371500004,5.250092272000074],[103.16445592300005,5.255543813000031],[103.17231068600006,5.250803345000065],[103.17540498700004,5.251751442000057],[103.17778521800005,5.261469347000059],[103.18659207300004,5.267394824000064],[103.18305981000003,5.270343321000041],[103.15046016400004,5.33116833400004],[103.15411619900004,5.334656869000071],[103.14985082500004,5.334656869000071],[103.14665179400004,5.338752080000063],[103.14726823000007,5.343423102000031],[103.13327489500006,5.334941259000061],[103.13137071000006,5.325461504000032],[103.12327792400004,5.320958570000073],[103.11685130000006,5.319773581000049],[103.10947258300007,5.324039529000061],[103.09138282600009,5.317640596000047],[103.09233491800006,5.320958570000073],[103.09828549600007,5.324039529000061],[103.10018968100007,5.334941259000061],[103.08686038700006,5.34252495800007],[103.07091283800008,5.34252495800007],[103.06877063000007,5.350345549000053],[103.06543830600003,5.350345549000053],[103.06305807500007,5.341813990000048],[103.04925273400005,5.329727412000068],[103.04853866500008,5.324987513000053],[103.03854169400006,5.32285454600003],[103.02592646800008,5.315507604000061],[103.01997589100006,5.315507604000061],[103.00712264200007,5.304131521000045],[103.00212415700008,5.305079536000051],[102.99736369400006,5.299865436000061],[102.98998497800005,5.307686570000044],[102.98808079300005,5.304368525000029],[102.98213021500004,5.302472492000049],[102.98046405300005,5.296547350000026],[102.98451044600006,5.291570186000058],[102.99212718600006,5.265972715000032],[102.98117812200007,5.263839545000053],[102.97927393700007,5.247722022000062],[102.98165416800003,5.240611218000026],[102.98665265400007,5.235870636000072],[102.97950301700007,5.232257535000031],[102.98868061100006,5.224379318000047],[103.00071506000006,5.234088169000074],[103.00406642500008,5.230295667000064],[103.00772246000008,5.231660970000064],[103.00909347400005,5.236060260000045],[103.01869056600003,5.237577250000072],[103.02813532300007,5.231357570000057],[103.03742774600005,5.230750768000064],[103.03901774000008,5.217856100000063],[103.04421565000007,5.212871902000074]]]}},{"type":"Feature","properties":{"state":"Terengganu","district":"Dungun"},"geometry":{"type":"Polygon","coordinates":[[[102.84421173900006,4.682081418000053],[102.84562860500006,4.669860132000053],[102.86248082800006,4.655380432000072],[102.86829193900007,4.644954863000066],[102.87061638400007,4.635687561000054],[102.86596749500006,4.629316221000067],[102.87003527300004,4.622944823000068],[102.87642749500009,4.620048714000063],[102.88340082900004,4.606726461000051],[102.86306193900003,4.60325104900005],[102.86131860600005,4.59745865900004],[102.86306193900003,4.591666222000072],[102.87410305100008,4.584135984000056],[102.87468416200005,4.577184924000051],[102.87119749500005,4.567337473000066],[102.86189971700009,4.561544792000063],[102.85608860600007,4.563282601000026],[102.83923638300007,4.555752064000046],[102.83749305000003,4.549959290000061],[102.83865527200004,4.538952890000076],[102.84853416100003,4.523891228000025],[102.84795305000006,4.500718831000029],[102.85202082800004,4.494925616000046],[102.86712971700007,4.492028991000041],[102.87758971700003,4.481021712000029],[102.87468416200005,4.471752296000034],[102.87817082900006,4.463062112000046],[102.89386082900006,4.470014268000057],[102.89967194000008,4.470593611000027],[102.91478083000004,4.465958852000028],[102.92988971900007,4.468855580000024],[102.94209305300006,4.453792469000064],[102.94848527500005,4.450895682000066],[102.95371527500004,4.45205439800003],[102.95720194200004,4.457847953000055],[102.95429638600007,4.471752296000034],[102.97056749800004,4.475807680000059],[102.97231083100007,4.482180381000035],[102.97695972000008,4.472910980000051],[102.98683861000006,4.466538198000023],[102.98858194300004,4.454371825000067],[103.00601527700007,4.446840160000022],[103.01066416600008,4.439887786000043],[103.01240749900006,4.432935346000022],[103.00892083200006,4.417871502000025],[103.01879972200004,4.406863114000032],[103.02402972200008,4.409180683000045],[103.02984083300004,4.420768419000069],[103.04436861100004,4.43525283300005],[103.04959861100008,4.43525283300005],[103.05366638900006,4.431776600000035],[103.06819416700006,4.433514718000026],[103.08097861200008,4.424244704000046],[103.09376305700005,4.430617851000022],[103.10073639100005,4.438729050000063],[103.11758861300007,4.442784617000029],[103.12049416900004,4.447419522000075],[103.12804861400008,4.443943346000026],[103.14431972500006,4.42250656300007],[103.15419861400005,4.423665324000069],[103.16000972600006,4.426562218000072],[103.16117194800006,4.434094090000031],[103.17337528200005,4.442205251000075],[103.17511861500009,4.450316323000038],[103.18615972700007,4.468276235000076],[103.19197083800009,4.487394368000025],[103.20126861600005,4.487394368000025],[103.21463417200005,4.49840155000004],[103.21637750500008,4.483339048000062],[103.22509417200007,4.459586010000066],[103.22974306100008,4.453213113000061],[103.24833861700006,4.460165361000065],[103.28146195200009,4.46480015700007],[103.28959750700005,4.470014268000057],[103.28378639600004,4.495504939000057],[103.29657084100006,4.508829254000034],[103.29947639700003,4.516360280000072],[103.29192195200005,4.530842803000041],[103.29482750800008,4.553434960000061],[103.32446417500006,4.573709368000038],[103.33666750900005,4.594562447000044],[103.34422195300004,4.596300176000057],[103.36688528700006,4.581818971000075],[103.38315639900009,4.588190737000048],[103.45405195700005,4.594562447000044],[103.43889657800008,4.639718852000044],[103.43145835600006,4.652322281000068],[103.43368982300007,4.656770496000036],[103.44484715600004,4.655658445000029],[103.44931009000004,4.659365275000027],[103.44521906800009,4.677528460000076],[103.44856626800004,4.693837858000052],[103.42216057800005,4.760924766000073],[103.42178866700004,4.766854787000057],[103.42736733400005,4.776861582000038],[103.42178866700004,4.77945591200006],[103.42141675600004,4.78464454300007],[103.43815275600008,4.780567765000058],[103.42662351100006,4.806881088000068],[103.42587968900006,4.815775503000054],[103.38682902100004,4.876180314000067],[103.37790315400008,4.873586354000054],[103.36823346500006,4.859504679000054],[103.35261319800009,4.851722575000053],[103.34145586400007,4.852834310000048],[103.33401764200005,4.865063270000064],[103.31095915200007,4.877662573000066],[103.30649621900005,4.878774265000061],[103.29794226300004,4.870251247000056],[103.28678493000007,4.869880679000062],[103.28343772900007,4.881368205000058],[103.28046244000006,4.885444377000056],[103.27079275100004,4.889149967000037],[103.26670172900003,4.900266611000063],[103.23360163900009,4.911012526000036],[103.22913870600007,4.955476533000024],[103.22661606600008,4.957818461000045],[103.22567528300004,4.953600768000058],[103.21172861600007,4.950127115000043],[103.21347195000004,4.932179617000031],[103.19197083800009,4.921179298000027],[103.17221305900006,4.947232390000067],[103.15942861500008,4.947232390000067],[103.14780639200006,4.940284999000028],[103.13967083600005,4.94086395100004],[103.13211639200006,4.947811336000029],[103.11526416900006,4.942600804000051],[103.10654750200007,4.944337653000048],[103.10073639100005,4.930442737000021],[103.09492527900005,4.925232068000071],[103.07981639000008,4.920021359000032],[103.07981639000008,4.910757775000036],[103.08562750100003,4.888177251000059],[103.08504639000006,4.879492232000075],[103.07632972300007,4.86270087500003],[103.06993750100008,4.863279894000073],[103.06238305600004,4.858068703000072],[103.05134194500005,4.860384793000037],[103.04901750000005,4.858068703000072],[103.03797638900005,4.860963814000058],[103.03797638900005,4.848804263000034],[103.02925972200006,4.83896065600004],[103.02170527700008,4.836644493000051],[103.01182638800009,4.837802576000058],[102.99206861000005,4.845909099000039],[102.98567638700007,4.841855850000059],[102.97637860900005,4.822747345000039],[102.95371527500004,4.819273014000032],[102.94674194200007,4.812903361000053],[102.93744416400006,4.811745235000046],[102.92872749700007,4.814061484000035],[102.92059194100005,4.820431127000063],[102.90548305200008,4.816377724000063],[102.89967194000008,4.81869395700005],[102.89269860700006,4.814640545000032],[102.89153638400006,4.807691781000074],[102.89792860700004,4.796110352000028],[102.88979305100008,4.777000564000048],[102.89037416200006,4.76831412100006],[102.89444194000004,4.759048460000031],[102.88921194000005,4.750361790000056],[102.87526527300008,4.743991495000046],[102.87235971700005,4.738200268000071],[102.84504749400008,4.727196801000048],[102.84737193900008,4.694764517000067],[102.84421173900006,4.682081418000053]]]}},{"type":"Feature","properties":{"state":"Terengganu","district":"Kemaman"},"geometry":{"type":"Polygon","coordinates":[[[103.02332879400007,4.408870082000021],[103.02635416600003,4.401648558000034],[103.02402972200008,4.395854564000047],[103.01938083300007,4.390639931000067],[103.00833972100008,4.384845851000023],[103.00543416600004,4.379631141000061],[103.00775861000005,4.341388825000024],[103.01298861000004,4.339071046000072],[103.01415083300009,4.332697118000056],[102.99846083200003,4.328640955000026],[102.98451416500006,4.33327656900002],[102.97405416500004,4.332117668000024],[102.96766194200006,4.328640955000026],[102.95720194200004,4.311257149000028],[102.95778305300007,4.292713986000024],[102.95080972000005,4.286339669000029],[102.93860638600006,4.286339669000029],[102.93395749700005,4.283442235000052],[102.93047083000005,4.277067841000076],[102.92988971900007,4.267216401000042],[102.93221416300008,4.240558929000031],[102.92756527400007,4.234184180000057],[102.92059194100005,4.230127494000044],[102.91942971900005,4.220854989000031],[102.91245638500004,4.216218695000066],[102.92059194100005,4.195934584000042],[102.92117305200009,4.158842278000066],[102.89032767300006,4.138000272000056],[102.89553442900007,4.134290847000045],[102.90706367400009,4.112404888000071],[102.92305585200006,4.101276204000044],[102.93160980800008,4.099421408000069],[102.94165140800004,4.105727696000031],[102.95838740900007,4.111292027000047],[102.96508180900008,4.117598221000037],[102.98553692100006,4.121678673000076],[102.99520661000008,4.129839514000025],[103.01231452100006,4.124275314000045],[103.01417407700006,4.119823925000048],[103.01975274400007,4.117598221000037],[103.02681905500003,4.12204962200002],[103.04838990000007,4.116485367000053],[103.05731576700003,4.119082024000022],[103.06661354500005,4.112404888000071],[103.07107647900006,4.113888701000064],[103.07330794500007,4.108324389000074],[103.07330794500007,4.094227957000044],[103.08520910100003,4.096082765000062],[103.08967203500004,4.092002182000044],[103.10082936800006,4.088292543000023],[103.10343274600007,4.091260256000055],[103.11049905800007,4.085324820000039],[103.11756536900003,4.083840954000038],[103.12277212500004,4.078647402000058],[103.12091256900004,4.071969928000044],[103.13021034700006,4.066405325000062],[103.13467328100006,4.053050120000023],[103.15884750400005,4.044076967000024],[103.16233417000007,4.035961628000052],[103.17976750400004,4.029585233000034],[103.19080861600008,4.030164907000028],[103.19952528200008,4.038859973000058],[103.20475528300005,4.033642944000064],[103.20940417200006,4.017411976000062],[103.21347195000004,4.01219481000004],[103.22160750500007,4.014513555000065],[103.22625639400007,4.019151024000053],[103.24078417300007,4.017991659000074],[103.24252750600004,4.013354183000047],[103.24020306100005,4.006977611000025],[103.24717639500005,3.994804017000035],[103.26967701800004,3.977737494000053],[103.27562759600005,3.96326777400003],[103.26781746200004,3.960299595000038],[103.26595790700009,3.951766021000026],[103.27785906300005,3.938408946000038],[103.30054564100004,3.893883819000052],[103.31133106400006,3.882010052000055],[103.31690973000008,3.898336438000058],[103.30909959700006,3.90909683700005],[103.30500857500004,3.921341260000077],[103.32583559700004,3.932472399000062],[103.33513337500005,3.951023967000026],[103.32992662000004,3.977737494000053],[103.33327382000004,3.982560678000027],[103.33252999800004,3.98589978900003],[103.32806706400004,3.986641811000027],[103.32620750800004,3.989609896000047],[103.32471986400009,4.004079153000021],[103.32509177500003,4.023371098000041],[103.32843897500004,4.033758879000061],[103.32695133100003,4.048227353000073],[103.31653781900008,4.061582637000072],[103.30612430800005,4.06195361400006],[103.30054564100004,4.086437717000024],[103.30649621900005,4.089776401000051],[103.30575239700005,4.102389079000034],[103.30909959700006,4.118711074000032],[103.32397604200008,4.126130051000075],[103.32345536600008,4.141086500000029],[103.33035803700005,4.141798705000042],[103.32440745900004,4.154618281000069],[103.32773978200004,4.162927154000045],[103.32488350500006,4.168862010000055],[103.32083711200005,4.169574190000048],[103.32155118100007,4.180731588000071],[103.31702874200005,4.191176667000036],[103.32012304300008,4.194262686000059],[103.32559757400008,4.188565410000024],[103.33464245300007,4.189040185000067],[103.34416337700009,4.176933342000041],[103.39843264800004,4.177170733000025],[103.44056274000008,4.185716756000033],[103.44365704100005,4.180494198000076],[103.44484715600004,4.190227120000031],[103.43937262500003,4.207556169000043],[103.43952417900005,4.22433219100003],[103.44301084500006,4.234184180000057],[103.45637640100006,4.238820366000027],[103.47032306800008,4.260841872000071],[103.47787751300007,4.274749866000036],[103.49066195800003,4.314154478000034],[103.49066195800003,4.322846397000035],[103.48368862400008,4.339071046000072],[103.47032306800008,4.357033644000069],[103.45695751200009,4.391798741000059],[103.45288973400005,4.435832204000064],[103.44475417900009,4.46480015700007],[103.44765973400007,4.501298150000025],[103.45695751200009,4.515780973000062],[103.47206640200005,4.521574022000038],[103.47264751300008,4.527946322000048],[103.46741751300004,4.558648434000077],[103.45405195700005,4.594562447000044],[103.38315639900009,4.588190737000048],[103.36688528700006,4.581818971000075],[103.34422195300004,4.596300176000057],[103.33666750900005,4.594562447000044],[103.32446417500006,4.573709368000038],[103.29482750800008,4.553434960000061],[103.29192195200005,4.530842803000041],[103.29947639700003,4.516360280000072],[103.29657084100006,4.508829254000034],[103.28378639600004,4.495504939000057],[103.28959750700005,4.470014268000057],[103.28146195200009,4.46480015700007],[103.24833861700006,4.460165361000065],[103.22974306100008,4.453213113000061],[103.22509417200007,4.459586010000066],[103.21637750500008,4.483339048000062],[103.21463417200005,4.49840155000004],[103.20126861600005,4.487394368000025],[103.19197083800009,4.487394368000025],[103.18615972700007,4.468276235000076],[103.17511861500009,4.450316323000038],[103.17337528200005,4.442205251000075],[103.16117194800006,4.434094090000031],[103.16000972600006,4.426562218000072],[103.15419861400005,4.423665324000069],[103.14431972500006,4.42250656300007],[103.12804861400008,4.443943346000026],[103.12049416900004,4.447419522000075],[103.11758861300007,4.442784617000029],[103.10073639100005,4.438729050000063],[103.09376305700005,4.430617851000022],[103.08097861200008,4.424244704000046],[103.06819416700006,4.433514718000026],[103.05366638900006,4.431776600000035],[103.04959861100008,4.43525283300005],[103.04436861100004,4.43525283300005],[103.02984083300004,4.420768419000069],[103.02332879400007,4.408870082000021]]]}},{"type":"Feature","properties":{"state":"Terengganu","district":"Besut"},"geometry":{"type":"MultiPolygon","coordinates":[[[[102.61534646800004,5.828127541000072],[102.61269245700004,5.832586683000045],[102.60933071000005,5.82827422400004],[102.61534646800004,5.828127541000072]]],[[[102.43156917394518,5.747319273916251],[102.41390952600005,5.72124701000007],[102.40758703700004,5.718286534000072],[102.39933525900005,5.708086653000066],[102.39759192500009,5.700569617000042],[102.38248303600005,5.697100183000032],[102.37783414700004,5.693052483000031],[102.38538859200008,5.673970086000054],[102.39003748100004,5.630598658000054],[102.40049748100006,5.616140794000046],[102.39642970300008,5.580862103000072],[102.40340303700003,5.568716489000053],[102.40514637000007,5.550208402000067],[102.40282192600006,5.543267720000074],[102.39875414800008,5.540375745000063],[102.39759192500009,5.531121330000076],[102.39003748100004,5.523602011000037],[102.38248303600005,5.521866770000031],[102.38190192500008,5.516661017000047],[102.39003748100004,5.504514081000025],[102.39236192500005,5.496415986000045],[102.39178081400007,5.472699504000047],[102.39875414800008,5.468071788000032],[102.40049748100006,5.448403595000059],[102.39933525900005,5.439147752000054],[102.38190192500008,5.420057127000064],[102.38713192500006,5.409643804000041],[102.39294303600008,5.408486757000048],[102.39991637000008,5.401544429000069],[102.40863303700007,5.398073235000027],[102.41502525900006,5.39228786700005],[102.42316081500007,5.37666710000002],[102.43129637100009,5.369724408000025],[102.43826970400005,5.369724408000025],[102.44408081600005,5.358153080000022],[102.45047303800004,5.352945910000074],[102.45918970500009,5.352367333000075],[102.47255526100008,5.359310222000033],[102.50742192900009,5.347160114000076],[102.51555748400006,5.332695385000022],[102.52485526200007,5.333273981000048],[102.53299081800009,5.337902727000028],[102.54286970700008,5.358153080000022],[102.55274859700006,5.365095903000054],[102.56204637500008,5.36856728500004],[102.58412859800006,5.369145847000027],[102.58470970900004,5.374931435000065],[102.57947970900005,5.381874067000069],[102.58006082000009,5.389395163000074],[102.58935859800005,5.399230302000035],[102.57831748600006,5.413114931000052],[102.57715526400006,5.421214152000061],[102.59052082000005,5.427577748000033],[102.59342637600008,5.432784278000042],[102.58935859800005,5.442618710000033],[102.59575082000003,5.446668135000039],[102.59516970900006,5.454188425000041],[102.58761526400008,5.468650254000067],[102.59516970900006,5.480219466000051],[102.59110193100008,5.485425538000072],[102.59807526500003,5.501043483000046],[102.60621082000006,5.510876793000023],[102.61783304300008,5.517817855000033],[102.62015748800007,5.522445185000038],[102.61667082100007,5.531121330000076],[102.61085970900007,5.533434948000036],[102.61085970900007,5.540375745000063],[102.61434637600007,5.547316461000037],[102.62073859900005,5.551943560000041],[102.62131971000008,5.560040896000032],[102.61376526500004,5.589537389000043],[102.62552695400007,5.595413375000021],[102.64263486600004,5.599855027000046],[102.64412251000005,5.609848620000037],[102.64821353300005,5.613549907000049],[102.64523824400004,5.618731670000045],[102.65153748800009,5.621923983000045],[102.66548415600005,5.636960004000059],[102.66606526700008,5.660091583000053],[102.66199748900004,5.693052483000031],[102.65560526600007,5.700569617000042],[102.65211860000005,5.711556020000046],[102.66490304400008,5.732371785000055],[102.62945526600004,5.782095257000037],[102.62015748800007,5.787298624000073],[102.60621082000006,5.801752171000032],[102.57715526400006,5.82198651300007],[102.56843859700007,5.831236256000068],[102.53415304100008,5.846266762000027],[102.48765146800008,5.791023928000072],[102.45687983900007,5.763591381000026],[102.43156917394518,5.747319273916251]]],[[[102.77358876100004,5.892758140000069],[102.76831571600007,5.90150004000003],[102.77077647000004,5.911815306000051],[102.76110922000004,5.919158259000028],[102.76040614700008,5.923529018000067],[102.75513310200006,5.917409945000031],[102.75372695700008,5.911465639000028],[102.74353240200008,5.908143793000022],[102.74370817000005,5.903073568000025],[102.73913819800003,5.900975530000039],[102.73773205200007,5.897653621000075],[102.74247779300003,5.881393464000041],[102.74687199700008,5.884016102000032],[102.74739930200008,5.889960703000042],[102.75548463800004,5.894156853000027],[102.76110922000004,5.888911660000076],[102.76251536600006,5.884365786000046],[102.76603072900008,5.886988410000072],[102.76919455600006,5.884016102000032],[102.76937032500007,5.888212297000052],[102.77358876100004,5.892758140000069]]],[[[102.72630712000006,5.921955548000028],[102.72191291600006,5.92982285000005],[102.72261598900008,5.932969739000043],[102.72613135200004,5.933669045000045],[102.72648288900007,5.93751521400003],[102.71822178400004,5.936815913000032],[102.71804601600007,5.923179358000027],[102.71523372500008,5.92038207500002],[102.71681563900006,5.918109271000048],[102.71523372500008,5.915137130000062],[102.71734294300006,5.913913302000026],[102.71470642000008,5.90866829600003],[102.71646410200003,5.90447225500003],[102.71470642000008,5.896779431000027],[102.72630712000006,5.892058782000049],[102.73263477500007,5.90150004000003],[102.73333784800008,5.906395445000044],[102.73193170200005,5.910941138000055],[102.72156137900004,5.918633765000038],[102.72630712000006,5.921955548000028]]],[[[102.66707844400008,5.941009136000048],[102.66726717300008,5.941440883000041],[102.66645563600008,5.941609827000036],[102.66707844400008,5.941009136000048]]],[[[102.66883362900006,5.942097888000035],[102.66687084100005,5.943975041000044],[102.66700295200008,5.94181631400005],[102.66883362900006,5.942097888000035]]],[[[102.66938698500007,5.959039336000046],[102.66803417100004,5.959063363000041],[102.66945945700007,5.958582825000065],[102.66938698500007,5.959039336000046]]],[[[102.66436641300004,5.96156731800005],[102.66132536000003,5.958588530000043],[102.66579478700004,5.956022177000023],[102.66708493100003,5.959963357000049],[102.66436641300004,5.96156731800005]]],[[[102.67805115600004,5.961888109000029],[102.67537871500008,5.962987965000025],[102.67505617900008,5.962300556000059],[102.67805115600004,5.961888109000029]]],[[[102.68279704300005,5.959505082000021],[102.68316565600009,5.963537892000033],[102.68076967400003,5.96330875600006],[102.68279704300005,5.959505082000021]]],[[[102.66685454800006,5.96257551900004],[102.66584086400007,5.962529692000032],[102.66685454800006,5.962025592000032],[102.66685454800006,5.96257551900004]]]]}},{"type":"Feature","properties":{"state":"Terengganu","district":"Kuala Nerus"},"geometry":{"type":"MultiPolygon","coordinates":[[[[102.97950301700007,5.232257535000031],[102.98665265400007,5.235870636000072],[102.98165416800003,5.240611218000026],[102.97927393700007,5.247722022000062],[102.98117812200007,5.263839545000053],[102.99212718600006,5.265972715000032],[102.98451044600006,5.291570186000058],[102.98046405300005,5.296547350000026],[102.98213021500004,5.302472492000049],[102.98808079300005,5.304368525000029],[102.98998497800005,5.307686570000044],[102.99736369400006,5.299865436000061],[103.00212415700008,5.305079536000051],[103.00712264200007,5.304131521000045],[103.01997589100006,5.315507604000061],[103.02592646800008,5.315507604000061],[103.03854169400006,5.32285454600003],[103.04853866500008,5.324987513000053],[103.04925273400005,5.329727412000068],[103.06305807500007,5.341813990000048],[103.06543830600003,5.350345549000053],[103.06877063000007,5.350345549000053],[103.07091283800008,5.34252495800007],[103.08686038700006,5.34252495800007],[103.10018968100007,5.334941259000061],[103.09828549600007,5.324039529000061],[103.09233491800006,5.320958570000073],[103.09138282600009,5.317640596000047],[103.10947258300007,5.324039529000061],[103.11685130000006,5.319773581000049],[103.12780036300006,5.323091543000032],[103.13137071000006,5.325461504000032],[103.13327489500006,5.334941259000061],[103.14541407400009,5.341577001000076],[103.14755628200004,5.345605809000062],[103.13446501000004,5.350345549000053],[103.12128448000004,5.374769439000033],[103.09636643500005,5.408463616000063],[103.04838990000007,5.451041484000029],[102.99743807700008,5.501760741000055],[102.93532891900009,5.438823795000076],[102.91673336300005,5.451041484000029],[102.91078278500004,5.441045212000063],[102.92119629600006,5.384026267000024],[102.92119629600006,5.376991091000036],[102.91301425200004,5.363661060000027],[102.91412998500005,5.357736508000073],[102.92119629600006,5.352922767000052],[102.91784909600005,5.34144369400002],[102.92082438500006,5.328112888000021],[102.92528731900006,5.326261364000061],[102.92640305200007,5.322187993000057],[102.90780749600003,5.307375504000049],[102.92751878600006,5.297376873000076],[102.93272554100008,5.287007752000022],[102.93384127500008,5.276638456000057],[102.93198171900008,5.272194420000062],[102.93532891900009,5.265528305000032],[102.94462669700005,5.26219522100007],[102.97950301700007,5.232257535000031]]],[[[103.06508331900005,5.596321356000033],[103.06573207700006,5.599784464000038],[103.06192799500008,5.596438750000061],[103.06508331900005,5.596321356000033]]],[[[103.06434609400009,5.627899437000053],[103.05797646800005,5.626021235000053],[103.05561734800006,5.618097502000069],[103.05930347400005,5.614693199000044],[103.05912654000008,5.611963872000047],[103.06257675300009,5.610819312000046],[103.06873995600006,5.613108430000068],[103.07148243400007,5.61909531200007],[103.06938871400007,5.626109276000022],[103.06434609400009,5.627899437000053]]],[[[103.06941820300005,5.653841485000044],[103.06980156000009,5.65859544500006],[103.06853353300005,5.660356161000038],[103.06711806100009,5.657597703000022],[103.06941820300005,5.653841485000044]]],[[[103.07367451500005,5.666152477000026],[103.07209752000006,5.666383254000039],[103.07288601800008,5.664990893000038],[103.07367451500005,5.666152477000026]]],[[[103.07164915900006,5.667037124000046],[103.07222893700003,5.668429481000032],[103.07117760700004,5.668267937000053],[103.07164915900006,5.667037124000046]]],[[[103.01921021900006,5.733807256000034],[103.02072005600007,5.73393870600006],[103.01956880500006,5.734408169000062],[103.01921021900006,5.733807256000034]]],[[[103.02898641500008,5.736924485000031],[103.03111906000004,5.737506616000076],[103.03055287100005,5.740229480000039],[103.02898641500008,5.736924485000031]]],[[[103.00754473600006,5.737242838000043],[103.00141655200008,5.74829156100003],[102.99915880000003,5.745449171000075],[102.99809903900007,5.732108089000064],[102.99984994900007,5.735592388000043],[103.00215377700005,5.734354547000066],[103.00754473600006,5.737242838000043]]],[[[103.06188199200005,5.773034273000064],[103.05856035100004,5.774743],[103.06129693000008,5.771325541000067],[103.06188199200005,5.773034273000064]]],[[[103.04393970100006,5.778839933000029],[103.04172802500005,5.779045307000047],[103.04045999800007,5.77754900900004],[103.04278962900008,5.77649279600007],[103.04393970100006,5.778839933000029]]],[[[102.89978890900005,5.794449746000055],[102.89813303200003,5.797959448000029],[102.89028561500004,5.802830018000066],[102.88913370100005,5.79982172900003],[102.89345338000004,5.79566740000007],[102.89287742300007,5.791083277000041],[102.90331664600006,5.788146553000047],[102.90396459800007,5.793661851000024],[102.89978890900005,5.794449746000055]]],[[[103.00542705700008,5.816568811000025],[102.99949976700003,5.817830308000055],[102.99602006400005,5.81545399700002],[102.99277168200007,5.801309648000029],[102.99505666900006,5.798336885000026],[102.99452936400007,5.787844654000025],[102.98908055100009,5.78399745400003],[102.99558397300007,5.772105943000042],[102.99539780000003,5.758491955000068],[102.99834958000008,5.749466335000022],[103.00655697000008,5.765440152000053],[103.00540505600009,5.752761419000024],[103.01411640800006,5.749251437000055],[103.01973199000008,5.751543673000072],[103.02469962100008,5.762360034000039],[103.03038719800008,5.763506126000038],[103.03038719800008,5.767445801000065],[103.03348296800004,5.766944390000049],[103.03405892500007,5.771671968000021],[103.03643474800003,5.773104559000046],[103.03326698400008,5.777044168000032],[103.04399418600008,5.789364221000028],[103.03463488200003,5.789220966000073],[103.03197108000006,5.792802327000061],[103.03117913900007,5.791154904000052],[103.02585153500007,5.793446970000048],[103.02124387800006,5.785353070000042],[103.01433239200009,5.785782838000046],[103.01382842900006,5.791083277000041],[103.01737010500005,5.798320788000069],[103.01560076500004,5.800638496000033],[103.01922791300007,5.80213473200007],[103.01905097900004,5.807268847000046],[103.01371346800005,5.80961585600005],[103.01091201200006,5.817448925000065],[103.00943756200007,5.812901651000061],[103.00542705700008,5.816568811000025]]]]}},{"type":"Feature","properties":{"state":"Terengganu","district":"Marang"},"geometry":{"type":"MultiPolygon","coordinates":[[[[103.27045766800006,5.21565358600003],[103.26819991600007,5.223316467000075],[103.26746269000006,5.231667525000034],[103.26142665900005,5.225105989000042],[103.26078158700005,5.218682041000022],[103.26787737900008,5.210284924000064],[103.27045766800006,5.21565358600003]]],[[[103.26263559000006,5.232569968000064],[103.26387244900008,5.235133447000067],[103.26063342500004,5.232623855000043],[103.26263559000006,5.232569968000064]]],[[[103.21521528300008,4.968653053000025],[103.22913870600007,4.955476533000024],[103.23360163900009,4.911012526000036],[103.26670172900003,4.900266611000063],[103.27079275100004,4.889149967000037],[103.28046244000006,4.885444377000056],[103.28343772900007,4.881368205000058],[103.28678493000007,4.869880679000062],[103.29794226300004,4.870251247000056],[103.30649621900005,4.878774265000061],[103.31095915200007,4.877662573000066],[103.33401764200005,4.865063270000064],[103.34145586400007,4.852834310000048],[103.35261319800009,4.851722575000053],[103.36823346500006,4.859504679000054],[103.37790315400008,4.873586354000054],[103.38682902100004,4.876180314000067],[103.30091755200004,5.027724152000076],[103.22705600300009,5.180403175000038],[103.18254568000003,5.258151055000042],[103.18230765700008,5.261943387000031],[103.18659207300004,5.267394824000064],[103.17778521800005,5.261469347000059],[103.17540498700004,5.251751442000057],[103.17231068600006,5.250803345000065],[103.16445592300005,5.255543813000031],[103.16231371500004,5.250092272000074],[103.15398290600007,5.249618223000027],[103.14731825900009,5.229707827000027],[103.14946046700004,5.221411642000021],[103.14684221200008,5.216433878000032],[103.13732128800007,5.215959803000032],[103.13327489500006,5.211930153000026],[103.12589617800006,5.20979679800007],[103.12042164600007,5.210033838000072],[103.12423001600007,5.222122748000061],[103.12970454800006,5.229707827000027],[103.12899047900004,5.243218522000063],[103.11827943800006,5.251751442000057],[103.12018362300006,5.255069768000055],[103.11804141500005,5.256965946000037],[103.10899653700005,5.259336161000022],[103.10685432900004,5.262891467000031],[103.09828549600007,5.261706367000045],[103.09519119600009,5.257677012000045],[103.09162084900004,5.258625098000039],[103.08852654900005,5.260758286000055],[103.08900259500007,5.267157806000057],[103.08495620200006,5.268342896000036],[103.07591132300007,5.253647630000046],[103.06972272200005,5.248670123000068],[103.07519725400005,5.245351763000031],[103.07543527700005,5.242270412000039],[103.06829458300007,5.236581726000054],[103.06877063000007,5.231841114000076],[103.06186795900004,5.230418924000048],[103.05948772800008,5.225204197000039],[103.05353715000007,5.223781992000056],[103.04687250300009,5.213115347000041],[103.04421565000007,5.212871902000074],[103.04401622500006,5.207900477000067],[103.05115691900005,5.203633733000061],[103.04615843400006,5.199129916000061],[103.05306110400005,5.186566467000034],[103.05599083400006,5.17182483800002],[103.05250416700005,5.152725954000061],[103.05366638900006,5.146359532000076],[103.07981639000008,5.113368870000045],[103.09085750100007,5.106423251000024],[103.10131750200009,5.100635177000072],[103.11584528000009,5.108159663000038],[103.13095416900006,5.09021651300003],[103.13095416900006,5.080955337000034],[103.13967083600005,5.063590273000045],[103.15187417000004,5.049697885000057],[103.15768528100006,5.049697885000057],[103.17046972600008,5.036384068000075],[103.17976750400004,5.020754457000066],[103.19487639300007,5.006861154000035],[103.20766083800004,4.991230836000057],[103.21521528300008,4.968653053000025]]]]}}]}