{"type":"FeatureCollection","features":[{"type":"Feature","properties":{"state":"Kelantan","district":"Tumpat"},"geometry":{"type":"Polygon","coordinates":[[[102.23255636500005,6.209763963000057],[102.21512303100008,6.21900710500006],[102.19013525300005,6.217851721000045],[102.16863414100004,6.212074764000022],[102.15178191800004,6.213230160000023],[102.12156413900004,6.227672404000032],[102.09948191700005,6.246157896000057],[102.09076525000006,6.229983126000036],[102.08495413800006,6.224783987000023],[102.07739969400006,6.199942946000021],[102.07972413800007,6.171634287000074],[102.08960302700007,6.157190511000067],[102.09483302800004,6.153723946000071],[102.12388858400004,6.150835125000071],[102.12853747300005,6.146212978000051],[102.13260525100009,6.128301780000072],[102.13957858400005,6.12079045400003],[102.15003858500006,6.116745850000029],[102.16921525200007,6.115012439000054],[102.17735080800009,6.109812172000034],[102.18432414100005,6.112123408000059],[102.18897303000006,6.096522371000049],[102.22035303100006,6.087854932000027],[102.22035303100006,6.099989307000044],[102.23197525400008,6.123101643000041],[102.23139414300005,6.140435238000066],[102.23488080900006,6.154301708000048],[102.24475969900004,6.167590069000028],[102.24592192100005,6.173367514000063],[102.24417858700008,6.180300364000061],[102.23313747600008,6.192432633000067],[102.23255636500005,6.209763963000057]]]}},{"type":"Feature","properties":{"state":"Kelantan","district":"Kota Bharu"},"geometry":{"type":"Polygon","coordinates":[[[102.22035303100006,6.099989307000044],[102.22200338700009,6.068624275000047],[102.20415165300005,6.049023092000027],[102.18146507500006,6.041996080000047],[102.15468747400007,6.045694519000051],[102.14799307400006,6.043845302000022],[102.14464587300006,6.03718807100006],[102.14576160700005,6.031270464000045],[102.15952231800009,6.020544636000068],[102.17737405200006,6.013147390000029],[102.20043254200004,5.98392728500005],[102.21010223100006,5.967652119000036],[102.20824267500006,5.951376469000024],[102.19857298600004,5.933990583000025],[102.19485387500004,5.920673364000038],[102.19745725300004,5.913274770000044],[102.21419325300008,5.905506140000057],[102.22497867600003,5.895517741000049],[102.25064054300009,5.894037963000073],[102.26365743300005,5.890708448000055],[102.26328552100006,5.896257629000047],[102.27183947700007,5.902546633000043],[102.27183947700007,5.930291388000057],[102.28002152200008,5.936949922000053],[102.28002152200008,5.950636655000039],[102.28225298900009,5.954705618000048],[102.29675752200006,5.954335714000024],[102.29861707800006,5.96543274000004],[102.31981601200005,5.97024138200004],[102.33171716800007,5.979858539000077],[102.33320481200008,6.007229520000067],[102.33989921300008,6.010188463000077],[102.33952730100003,6.012407659000075],[102.32762614600006,6.022024073000068],[102.32390703400006,6.030160905000059],[102.31795645600005,6.03607852500005],[102.31646881200004,6.041996080000047],[102.32316321200005,6.049023092000027],[102.34361832400003,6.057159519000038],[102.34324641300009,6.071213058000069],[102.33692392400008,6.07786986900004],[102.32576659000006,6.083047332000035],[102.31349352300003,6.096360580000066],[102.30493956700008,6.101537865000068],[102.30642721200007,6.112262082000029],[102.32427894500006,6.115220448000059],[102.33469245700007,6.113741267000023],[102.33506436800008,6.131860957000072],[102.32911379000006,6.148870717000023],[102.34324641300009,6.166249693000054],[102.34250259000004,6.168838003000076],[102.32725423400007,6.17845161300005],[102.31349352300003,6.183628100000021],[102.28894738900004,6.186955815000033],[102.25026863200009,6.206551933000071],[102.23255636500005,6.209763963000057],[102.23313747600008,6.192432633000067],[102.24417858700008,6.180300364000061],[102.24592192100005,6.173367514000063],[102.24475969900004,6.167590069000028],[102.23488080900006,6.154301708000048],[102.23139414300005,6.140435238000066],[102.23197525400008,6.123101643000041],[102.22035303100006,6.099989307000044]]]}},{"type":"Feature","properties":{"state":"Kelantan","district":"Pasir Puteh"},"geometry":{"type":"Polygon","coordinates":[[[102.26365743300005,5.890708448000055],[102.27972399300006,5.87835207300003],[102.28020003900008,5.86935468300004],[102.27520155400003,5.862014600000066],[102.27282132300007,5.846150220000027],[102.28115213200005,5.83004859700003],[102.27758178500005,5.823418383000046],[102.27758178500005,5.816551293000032],[102.29091108000006,5.80494808900005],[102.29448142600006,5.804474484000025],[102.30043200400007,5.809920920000025],[102.30305025900009,5.808736917000033],[102.30376432800006,5.79831757900007],[102.30090805100008,5.784345893000022],[102.30281223500003,5.780793714000026],[102.30638258200008,5.78245140000007],[102.30900083700004,5.778425582000068],[102.31328525300006,5.757111953000049],[102.32661454700008,5.750954534000073],[102.33494535600005,5.753322780000076],[102.33899174900006,5.750007233000076],[102.34756058200009,5.750717709000071],[102.35398720600006,5.746454839000023],[102.36422220000009,5.751665009000021],[102.37326707800008,5.743849736000072],[102.37683742500008,5.744560220000039],[102.37517126300008,5.758059243000048],[102.37755149500003,5.762322026000049],[102.37302905500007,5.767532050000057],[102.38469218800009,5.774873367000055],[102.39373706700007,5.772031578000053],[102.39897357500007,5.77368929000005],[102.39873555200006,5.76161156400002],[102.39468915900005,5.759716995000076],[102.39492718200006,5.748823104000053],[102.40301996800008,5.755927839000037],[102.40659031500007,5.75498054600007],[102.40516217600003,5.74219193700003],[102.40992263900006,5.74195510800007],[102.41420705500008,5.747638973000051],[102.42182379500008,5.745033875000047],[102.43265860700006,5.747525296000049],[102.45687983900007,5.763591381000026],[102.48765146800008,5.791023928000072],[102.53415304100008,5.846266762000027],[102.47604192800009,5.905228687000033],[102.46961969300008,5.917726662000064],[102.42996943400004,5.900732422000033],[102.40264512100003,5.885341076000032],[102.39584783600009,5.890104810000025],[102.39013193600005,5.890104810000025],[102.38565190800006,5.899478489000046],[102.38056407800008,5.901716838000027],[102.37993131300004,5.908640322000053],[102.37195846800006,5.908892084000058],[102.36695962000005,5.914682565000021],[102.36417545300009,5.914619626000047],[102.36196077300008,5.921165316000042],[102.34474955400003,5.942878827000072],[102.34234504500006,5.939165562000028],[102.32848748200007,5.935955771000067],[102.32386829300003,5.93803269700004],[102.32356679300005,5.936355951000053],[102.32328169500005,5.938212042000032],[102.31511750100003,5.93746445000005],[102.31141121800005,5.940197021000074],[102.31081510200005,5.938444053000069],[102.30403505100008,5.939012153000021],[102.29395035200008,5.934881903000075],[102.29187409000008,5.941372282000032],[102.28258034800007,5.939798864000068],[102.27183947700007,5.930291388000057],[102.27183947700007,5.902546633000043],[102.26328552100006,5.896257629000047],[102.26365743300005,5.890708448000055]]]}},{"type":"Feature","properties":{"state":"Kelantan","district":"Pasir Mas"},"geometry":{"type":"Polygon","coordinates":[[[102.09277857559971,6.155085684321949],[102.09034685000006,6.140365905000067],[102.08365244900006,6.135928557000057],[102.07212320500008,6.11337147100005],[102.06059396000006,6.100798256000076],[102.05799058200006,6.085636045000058],[102.04943662600004,6.07786986900004],[102.02749387000006,6.066775137000036],[102.02191520300005,6.061967349000042],[102.01856800300004,6.053461158000061],[102.00071626900007,6.048283411000057],[102.00108818000007,6.044215146000056],[101.99699715800006,6.038667463000024],[101.99104658000005,6.039037310000026],[101.97207911300006,6.017955611000048],[101.97207911300006,6.003160948000072],[101.96315324600005,5.996503218000043],[101.95385546800009,5.99354420100002],[101.95236782300003,5.989475527000025],[101.94716106800007,5.987256237000054],[101.94121049000006,5.97024138200004],[101.94455769000007,5.954335714000024],[101.94009475600006,5.950636655000039],[101.93005315600004,5.948417208000023],[101.92856551100004,5.926962091000064],[101.92261493400008,5.914754497000047],[101.92410257800009,5.909575436000068],[101.93600373400005,5.905506140000057],[101.95608693500009,5.921043291000046],[101.96687235700006,5.918083867000064],[102.00417969100005,5.919679184000074],[102.00708524700008,5.914477048000037],[102.03497858100008,5.895402133000061],[102.07449413800003,5.890777813000057],[102.09715747200005,5.897136244000023],[102.10529302800006,5.895980171000076],[102.10819858300005,5.902916572000038],[102.11575302800009,5.90580671400005],[102.12214525100006,5.903494602000023],[102.12563191700008,5.898292314000059],[102.13434858400007,5.89771427900007],[102.14655191800006,5.906962766000049],[102.15061969600004,5.901182480000045],[102.16398525200003,5.894824095000047],[102.17212080800005,5.887309547000029],[102.17909414100006,5.887309547000029],[102.19129747500006,5.902338542000052],[102.19669050105598,5.915453818272242],[102.19485387500004,5.920673364000038],[102.19857298600004,5.933990583000025],[102.20824267500006,5.951376469000024],[102.21010223100006,5.967652119000036],[102.20043254200004,5.98392728500005],[102.17737405200006,6.013147390000029],[102.15059645100007,6.026092504000076],[102.14576160700005,6.031270464000045],[102.14464587300006,6.03718807100006],[102.14799307400006,6.043845302000022],[102.15468747400007,6.045694519000051],[102.18146507500006,6.041996080000047],[102.20415165300005,6.049023092000027],[102.22200338700009,6.068624275000047],[102.22042828700006,6.088603255000066],[102.18897303000006,6.096522371000049],[102.18432414100005,6.112123408000059],[102.17735080800009,6.109812172000034],[102.16921525200007,6.115012439000054],[102.15003858500006,6.116745850000029],[102.13957858400005,6.12079045400003],[102.13260525100009,6.128301780000072],[102.12853747300005,6.146212978000051],[102.12388858400004,6.150835125000071],[102.09277857559971,6.155085684321949]]]}},{"type":"Feature","properties":{"state":"Kelantan","district":"Machang"},"geometry":{"type":"Polygon","coordinates":[[[102.19669050105598,5.915453818272242],[102.19129747500006,5.902338542000052],[102.18229025300008,5.890488791000053],[102.18165846800008,5.874800489000052],[102.17618393700008,5.853964075000022],[102.16261661900006,5.821997613000065],[102.16805303000007,5.817939703000036],[102.17095858500005,5.812158495000062],[102.17037747400008,5.798861491000025],[102.15817414100007,5.791923799000074],[102.15352525100008,5.786142325000071],[102.14945747400009,5.765328526000076],[102.14597080700008,5.760124957000073],[102.14829525100004,5.737575608000043],[102.14364636200008,5.719651130000045],[102.14422747300006,5.712134246000062],[102.14887636200007,5.705773729000043],[102.14364636200008,5.690161251000063],[102.11110413900008,5.69189599200007],[102.10703636100004,5.685535251000033],[102.10471191700003,5.676861399000074],[102.10587413900004,5.666452605000075],[102.11517191700005,5.639273203000073],[102.12446969500007,5.630598658000054],[102.14074080700004,5.64042979900006],[102.14771414000006,5.641586393000068],[102.15701191800008,5.650839062000045],[102.16863414100004,5.633490187000064],[102.17386414100008,5.63291188200003],[102.17967525200004,5.636960004000059],[102.18781080800005,5.637538304000032],[102.19594636400006,5.650839062000045],[102.19304080800003,5.659513304000029],[102.19362191900007,5.668765686000029],[102.20059525300007,5.671657025000059],[102.21919080900005,5.664717788000075],[102.23894858700004,5.672235292000039],[102.24301636500007,5.663561240000035],[102.27788303300008,5.656621905000065],[102.28776192200007,5.665874333000033],[102.29647858900006,5.664717788000075],[102.30984414500006,5.670500492000031],[102.32843970100004,5.665296061000049],[102.33192636800004,5.670500492000031],[102.35458970200006,5.670500492000031],[102.36156303500007,5.679174439000064],[102.37492859100007,5.683222236000063],[102.37957748000008,5.687270005000073],[102.37783414700004,5.693052483000031],[102.38248303600005,5.697100183000032],[102.39759192500009,5.700569617000042],[102.39933525900005,5.708086653000066],[102.40758703700004,5.718286534000072],[102.41390952600005,5.72124701000007],[102.43156917394518,5.747319273916251],[102.42182379500008,5.745033875000047],[102.41420705500008,5.747638973000051],[102.40992263900006,5.74195510800007],[102.40516217600003,5.74219193700003],[102.40659031500007,5.75498054600007],[102.40301996800008,5.755927839000037],[102.39492718200006,5.748823104000053],[102.39468915900005,5.759716995000076],[102.39873555200006,5.76161156400002],[102.39897357500007,5.77368929000005],[102.39373706700007,5.772031578000053],[102.38469218800009,5.774873367000055],[102.37302905500007,5.767532050000057],[102.37755149500003,5.762322026000049],[102.37517126300008,5.758059243000048],[102.37683742500008,5.744560220000039],[102.37326707800008,5.743849736000072],[102.36422220000009,5.751665009000021],[102.35398720600006,5.746454839000023],[102.34756058200009,5.750717709000071],[102.33899174900006,5.750007233000076],[102.33494535600005,5.753322780000076],[102.32661454700008,5.750954534000073],[102.31328525300006,5.757111953000049],[102.30900083700004,5.778425582000068],[102.30638258200008,5.78245140000007],[102.30281223500003,5.780793714000026],[102.30090805100008,5.784345893000022],[102.30376432800006,5.79831757900007],[102.30305025900009,5.808736917000033],[102.30043200400007,5.809920920000025],[102.29448142600006,5.804474484000025],[102.29091108000006,5.80494808900005],[102.27758178500005,5.816551293000032],[102.27758178500005,5.823418383000046],[102.28115213200005,5.83004859700003],[102.27282132300007,5.846150220000027],[102.27520155400003,5.862014600000066],[102.28020003900008,5.86935468300004],[102.27972399300006,5.87835207300003],[102.26365743300005,5.890708448000055],[102.25064054300009,5.894037963000073],[102.22497867600003,5.895517741000049],[102.21419325300008,5.905506140000057],[102.20043254200004,5.91031530500004],[102.19669050105598,5.915453818272242]]]}},{"type":"Feature","properties":{"state":"Kelantan","district":"Tanah Merah"},"geometry":{"type":"Polygon","coordinates":[[[101.93336769000007,5.906598661000032],[101.94307004500007,5.871840819000056],[101.94046666700007,5.86703132100007],[101.93042506700004,5.860741914000073],[101.92893742300004,5.851862632000064],[101.91629244400008,5.84224325100007],[101.89434968800003,5.844463123000025],[101.89211822200008,5.840763331000062],[101.88430808800007,5.837063515000068],[101.87835751000006,5.830033798000045],[101.87910133200006,5.816714092000041],[101.88430808800007,5.80228405400004],[101.89249013300008,5.793033836000063],[101.88839911000008,5.783043430000021],[101.89658115500004,5.777123106000033],[101.89992835500004,5.763062089000073],[101.90550702200005,5.755291377000049],[101.91034186600007,5.75085092300003],[101.91629244400008,5.75085092300003],[101.91666435600007,5.747150518000069],[101.92112728900008,5.742339955000034],[101.92373066700009,5.731238502000053],[101.93265653400005,5.729758292000042],[101.93451608900006,5.718656594000038],[101.94753297900007,5.71421585500002],[101.95906222300005,5.715696105000063],[101.96836000200005,5.720876951000037],[101.97096337900007,5.715696105000063],[101.96203751200005,5.711995472000069],[101.95608693500009,5.700893430000065],[101.95867142600008,5.68824580200004],[101.97229121800007,5.653911204000053],[101.96502732900007,5.638550329000054],[101.94868357900003,5.620478191000075],[101.94777559300007,5.610538275000067],[101.95049955100006,5.599694538000051],[101.96411934300005,5.586139584000023],[101.96593531500008,5.576199085000042],[101.97229121800007,5.566258417000029],[101.96984764600006,5.549144170000034],[101.96538471300005,5.550624841000058],[101.96984764600006,5.539149544000054],[101.98137689100008,5.542110932000071],[101.98844320200004,5.531005649000065],[102.00294773600007,5.529895109000051],[102.00666684700008,5.522121273000039],[102.01745227000004,5.513977144000023],[102.03046915900006,5.520270344000039],[102.02898151400007,5.529895109000051],[102.03270062600006,5.543221449000043],[102.03232871500006,5.550624841000058],[102.04013884800008,5.559138627000038],[102.04646133700004,5.575795677000031],[102.05985013800006,5.585419536000074],[102.07323893800009,5.581718071000068],[102.07993333800005,5.585049390000052],[102.08699965000005,5.594673097000054],[102.09443787200007,5.595783514000061],[102.09704125000007,5.600225163000061],[102.09332213900007,5.621322534000058],[102.10299182800009,5.62428350700003],[102.11377979883602,5.643412976170706],[102.10587413900004,5.666452605000075],[102.10471191700003,5.676861399000074],[102.11110413900008,5.69189599200007],[102.14364636200008,5.690161251000063],[102.14887636200007,5.705773729000043],[102.14422747300006,5.712134246000062],[102.14364636200008,5.719651130000045],[102.14829525100004,5.737575608000043],[102.14597080700008,5.760124957000073],[102.14945747400009,5.765328526000076],[102.15352525100008,5.786142325000071],[102.15817414100007,5.791923799000074],[102.17037747400008,5.798861491000025],[102.17095858500005,5.812158495000062],[102.16805303000007,5.817939703000036],[102.16261661900006,5.821997613000065],[102.17618393700008,5.853964075000022],[102.18165846800008,5.874800489000052],[102.18229025300008,5.890488791000053],[102.17909414100006,5.887309547000029],[102.17212080800005,5.887309547000029],[102.16398525200003,5.894824095000047],[102.15061969600004,5.901182480000045],[102.14655191800006,5.906962766000049],[102.13434858400007,5.89771427900007],[102.12563191700008,5.898292314000059],[102.12214525100006,5.903494602000023],[102.11575302800009,5.90580671400005],[102.10819858300005,5.902916572000038],[102.10529302800006,5.895980171000076],[102.09715747200005,5.897136244000023],[102.07449413800003,5.890777813000057],[102.04660080400004,5.893089978000035],[102.03497858100008,5.895402133000061],[102.00708524700008,5.914477048000037],[102.00417969100005,5.919679184000074],[101.96687235700006,5.918083867000064],[101.95608693500009,5.921043291000046],[101.93600373400005,5.905506140000057],[101.93336769000007,5.906598661000032]]]}},{"type":"Feature","properties":{"state":"Kelantan","district":"Jeli"},"geometry":{"type":"Polygon","coordinates":[[[101.88168132949262,5.81062497919328],[101.86199342100008,5.801544042000046],[101.86608444300003,5.794143870000028],[101.86385297600003,5.791183774000046],[101.85901813200007,5.793033836000063],[101.84116639800004,5.790813761000038],[101.83633155300004,5.787113617000045],[101.81959555300006,5.756771521000076],[101.82517422000006,5.749370764000048],[101.82405848600007,5.737159304000045],[101.81699217500005,5.73271870800005],[101.80843821900004,5.743450089000021],[101.79765279600008,5.751220962000048],[101.78909884100005,5.753441192000025],[101.77533812900003,5.771202720000076],[101.77571004000004,5.783783466000045],[101.76380888400007,5.791183774000046],[101.75488301700005,5.795623912000053],[101.74558523900004,5.791553787000055],[101.73777510600007,5.783043430000021],[101.73182452800006,5.784523501000024],[101.72289866100004,5.781193335000069],[101.71992337200004,5.786743601000069],[101.71694808300003,5.786743601000069],[101.71508852700003,5.764912243000026],[101.70950986100007,5.756401485000026],[101.70132781600006,5.752701116000026],[101.68942666000004,5.756771521000076],[101.68831092700003,5.751961040000026],[101.69314577100005,5.730498397000076],[101.68942666000004,5.727537970000071],[101.68979857100004,5.721617068000057],[101.69463341600004,5.703853995000031],[101.68273226000008,5.688310856000044],[101.67194683700006,5.679058787000031],[101.66562434800005,5.66832620200006],[101.66074301500004,5.668765686000029],[101.65725634800003,5.658935026000051],[101.65958079200004,5.649104198000032],[101.65841857000004,5.642164689000026],[101.66248634800007,5.629442042000051],[101.65783745900006,5.616140794000046],[101.65958079200004,5.60862256300004],[101.66248634800007,5.602839243000062],[101.67527079300004,5.598212545000024],[101.67759523700005,5.591850776000058],[101.68340634900005,5.588380691000054],[101.68398746000008,5.583175525000058],[101.67759523700005,5.559462518000032],[101.67410857100003,5.555413860000044],[101.67410857100003,5.548473240000021],[101.66364857000008,5.531121330000076],[101.65609412600008,5.523602011000037],[101.66422968100005,5.508563087000027],[101.67468968200006,5.510876793000023],[101.69037968200007,5.499886612000068],[101.69735301600008,5.499308176000056],[101.70897523800005,5.510876793000023],[101.71769190500004,5.511455218000037],[101.72582746100005,5.500465048000024],[101.73338190600003,5.499886612000068],[101.74093635000008,5.507984660000034],[101.74674746200009,5.502778785000032],[101.74732857300006,5.474434888000076],[101.73628746100007,5.461708619000035],[101.74093635000008,5.444932671000061],[101.74209857300008,5.428734759000065],[101.74558523900004,5.420635639000068],[101.74267968400005,5.398073235000027],[101.78742524100005,5.358153080000022],[101.90422857700008,5.349474439000062],[101.97686746800008,5.421792663000076],[101.97221857900007,5.457080818000065],[101.99139524700007,5.458816248000062],[101.98790858000007,5.473856427000044],[101.99371969100008,5.477327184000046],[101.98848969100004,5.504514081000025],[101.99568234276222,5.530138992228557],[101.98844320200004,5.531005649000065],[101.98137689100008,5.542110932000071],[101.96984764600006,5.539149544000054],[101.96538471300005,5.550624841000058],[101.96984764600006,5.549144170000034],[101.97229121800007,5.566258417000029],[101.96593531500008,5.576199085000042],[101.96411934300005,5.586139584000023],[101.95049955100006,5.599694538000051],[101.94777559300007,5.610538275000067],[101.94868357900003,5.620478191000075],[101.96502732900007,5.638550329000054],[101.97229121800007,5.653911204000053],[101.95867142600008,5.68824580200004],[101.95608693500009,5.700893430000065],[101.96203751200005,5.711995472000069],[101.97096337900007,5.715696105000063],[101.96836000200005,5.720876951000037],[101.95906222300005,5.715696105000063],[101.94753297900007,5.71421585500002],[101.93451608900006,5.718656594000038],[101.93265653400005,5.729758292000042],[101.92373066700009,5.731238502000053],[101.92112728900008,5.742339955000034],[101.91666435600007,5.747150518000069],[101.91629244400008,5.75085092300003],[101.91034186600007,5.75085092300003],[101.90550702200005,5.755291377000049],[101.89992835500004,5.763062089000073],[101.89658115500004,5.777123106000033],[101.88839911000008,5.783043430000021],[101.89249013300008,5.793033836000063],[101.88430808800007,5.80228405400004],[101.88168132949262,5.81062497919328]]]}},{"type":"Feature","properties":{"state":"Kelantan","district":"Kuala Krai"},"geometry":{"type":"Polygon","coordinates":[[[102.11377979883602,5.643412976170706],[102.10299182800009,5.62428350700003],[102.09332213900007,5.621322534000058],[102.09704125000007,5.600225163000061],[102.09443787200007,5.595783514000061],[102.08699965000005,5.594673097000054],[102.07993333800005,5.585049390000052],[102.07323893800009,5.581718071000068],[102.05985013800006,5.585419536000074],[102.04646133700004,5.575795677000031],[102.04013884800008,5.559138627000038],[102.03232871500006,5.550624841000058],[102.03270062600006,5.543221449000043],[102.02898151400007,5.529895109000051],[102.03046915900006,5.520270344000039],[102.01745227000004,5.513977144000023],[102.00666684700008,5.522121273000039],[102.00294773600007,5.529895109000051],[101.99568234276222,5.530138992228557],[101.98848969100004,5.504514081000025],[101.99371969100008,5.477327184000046],[101.98790858000007,5.473856427000044],[101.99139524700007,5.458816248000062],[101.97221857900007,5.457080818000065],[101.97686746800008,5.421792663000076],[101.90422857700008,5.349474439000062],[101.78750286800005,5.358147312000028],[101.82054857500003,5.289299157000073],[101.89086302100009,5.264417279000043],[102.01289635800003,5.185714573000041],[102.08088636000008,5.175876042000027],[102.13783525100007,5.17703352500007],[102.13028080600009,5.255737320000037],[102.29241081100008,5.255737320000037],[102.35110303500005,5.295085497000059],[102.41676859300009,5.298557275000064],[102.42025525900004,5.314180035000049],[102.42722859300005,5.321701963000066],[102.42606637100005,5.346581532000073],[102.43013414900008,5.354103063000025],[102.43594526000004,5.355260213000065],[102.44152391904157,5.36324447960974],[102.43826970400005,5.369724408000025],[102.43129637100009,5.369724408000025],[102.42316081500007,5.37666710000002],[102.41502525900006,5.39228786700005],[102.40863303700007,5.398073235000027],[102.39991637000008,5.401544429000069],[102.39294303600008,5.408486757000048],[102.38713192500006,5.409643804000041],[102.38190192500008,5.420057127000064],[102.39933525900005,5.439147752000054],[102.40049748100006,5.448403595000059],[102.39875414800008,5.468071788000032],[102.39178081400007,5.472699504000047],[102.39236192500005,5.496415986000045],[102.39003748100004,5.504514081000025],[102.38190192500008,5.516661017000047],[102.38248303600005,5.521866770000031],[102.39003748100004,5.523602011000037],[102.39759192500009,5.531121330000076],[102.39875414800008,5.540375745000063],[102.40282192600006,5.543267720000074],[102.40514637000007,5.550208402000067],[102.40340303700003,5.568716489000053],[102.39642970300008,5.580862103000072],[102.40049748100006,5.616140794000046],[102.39003748100004,5.630598658000054],[102.38538859200008,5.673970086000054],[102.37891923100005,5.686696872000027],[102.37492859100007,5.683222236000063],[102.36156303500007,5.679174439000064],[102.35458970200006,5.670500492000031],[102.33192636800004,5.670500492000031],[102.32843970100004,5.665296061000049],[102.30984414500006,5.670500492000031],[102.29647858900006,5.664717788000075],[102.28776192200007,5.665874333000033],[102.27788303300008,5.656621905000065],[102.24301636500007,5.663561240000035],[102.23894858700004,5.672235292000039],[102.21919080900005,5.664717788000075],[102.20059525300007,5.671657025000059],[102.19362191900007,5.668765686000029],[102.19304080800003,5.659513304000029],[102.19594636400006,5.650839062000045],[102.18781080800005,5.637538304000032],[102.17967525200004,5.636960004000059],[102.17386414100008,5.63291188200003],[102.16863414100004,5.633490187000064],[102.15701191800008,5.650839062000045],[102.14771414000006,5.641586393000068],[102.14074080700004,5.64042979900006],[102.12446969500007,5.630598658000054],[102.11517191700005,5.639273203000073],[102.11377979883602,5.643412976170706]]]}},{"type":"Feature","properties":{"state":"Kelantan","district":"Kecil Lojing"},"geometry":{"type":"Polygon","coordinates":[[[101.42279950000005,4.98489676500003],[101.42536976300005,4.97511385200005],[101.44656869700003,4.955106012000044],[101.44805634200009,4.946213444000023],[101.44508105300008,4.943990283000062],[101.44508105300008,4.93991446900003],[101.45326309700005,4.926204730000052],[101.45437883100004,4.913976885000068],[101.45065972000003,4.899525508000067],[101.45289118600004,4.895078867000052],[101.44470914200008,4.88247989100006],[101.43541136400006,4.876180314000067],[101.43689900800007,4.869139541000038],[101.44582487500008,4.86098697500006],[101.44433723000009,4.856910655000036],[101.43466754100007,4.858763530000033],[101.43020460800005,4.858392956000046],[101.42351020800004,4.85320488800005],[101.41198096300008,4.85431662000002],[101.41012140700008,4.844681546000061],[101.40268318500006,4.844681546000061],[101.40045171800006,4.835416923000025],[101.40937758500007,4.818740282000022],[101.41495625200008,4.813181310000061],[101.41012140700008,4.797986557000058],[101.39737229400004,4.777528696000047],[101.39737229400004,4.764719986000046],[101.38761334600008,4.764008384000022],[101.37523614400004,4.759501554000053],[101.38071067600004,4.748115746000053],[101.38023462900009,4.741236730000026],[101.38570916100008,4.730087834000074],[101.38713730000006,4.72012483900005],[101.37952056000006,4.70850116400004],[101.37333195900004,4.707077843000036],[101.36833347400005,4.713719981000054],[101.36523917300008,4.713957199000049],[101.35833650300003,4.707077843000036],[101.35095778600004,4.705654520000053],[101.34619732400006,4.711110577000056],[101.34191290700005,4.711585015000026],[101.33881860700006,4.704705636000028],[101.33953267600003,4.700198420000049],[101.33358209800008,4.695216726000069],[101.33429616800004,4.68477877600003],[101.34838416100007,4.671227],[101.35247518300008,4.662330725000061],[101.35916958300004,4.658253228000035],[101.36512016100005,4.636382613000023],[101.37627749500007,4.633046358000058],[101.37627749500007,4.629710087000035],[101.37255838400006,4.627115199000059],[101.37144265100005,4.615994142000034],[101.38631909500003,4.611174963000053],[101.39487305100005,4.612657790000071],[101.40193936300005,4.617106255000067],[101.42871696300006,4.60487291000004],[101.43317989700006,4.595234369000025],[101.44322149700008,4.590044331000058],[101.44917207500004,4.577069072000029],[101.45512265300005,4.575586170000065],[101.47557776500008,4.575586170000065],[101.47371820900008,4.581888482000068],[101.48227216500004,4.60227793100006],[101.49194185400006,4.601165794000053],[101.50012389900007,4.613399203000029],[101.51090932100004,4.608950715000049],[101.51983518800006,4.612287084000059],[101.54214985600004,4.595975800000076],[101.55107572300005,4.577069072000029],[101.56409261200008,4.580776313000058],[101.56855554500004,4.578922695000074],[101.57971287900006,4.562981381000043],[101.58640727900007,4.562981381000043],[101.58640727900007,4.557420375000049],[101.58901065700007,4.555195960000049],[101.59607696800003,4.55927404800002],[101.60909385800005,4.562239916000067],[101.61430061300007,4.55927404800002],[101.62136692500007,4.546298232000026],[101.63475572500005,4.55853257900003],[101.63921865800006,4.560015516000021],[101.64926025900007,4.557420375000049],[101.66339288100005,4.566317965000053],[101.66748390400005,4.583000648000052],[101.67455021500007,4.595975800000076],[101.67901314900007,4.594863653000061],[101.69649297100005,4.600053656000057],[101.70723190500007,4.606726461000051],[101.72234079400005,4.610201855000071],[101.72698968300006,4.614256461000025],[101.72524635000008,4.618311043000062],[101.73105746100003,4.621786381000049],[101.74267968400005,4.613677233000033],[101.75255857300004,4.611360316000059],[101.75546412900007,4.623524043000032],[101.76011301800008,4.622944823000068],[101.76476190700004,4.626420138000071],[101.76999190700008,4.654801237000072],[101.77405968500005,4.661751537000043],[101.77522190700006,4.670439314000021],[101.77115412900008,4.686077042000022],[101.77638412900006,4.709822551000059],[101.77347857400008,4.736462890000041],[101.78045190700004,4.760206674000074],[101.78684412900009,4.756732025000076],[101.79439857400007,4.756732025000076],[101.79730413000004,4.76426040900003],[101.81706190800008,4.759048460000031],[101.82112968600006,4.769472319000045],[101.83623857500004,4.782791465000059],[101.83972524200004,4.802480163000041],[101.83507635300003,4.879492232000075],[101.83100857500006,4.892230222000023],[101.81299413000005,4.90844185900005],[101.80950746400003,4.914810609000028],[101.81880524200005,4.94954817100006],[101.81996746400006,4.961126953000075],[101.81764301900006,4.975600146000033],[101.81125079700007,4.980810417000043],[101.80602079700009,4.963442686000064],[101.79033079600003,4.984862822000025],[101.77231635100009,4.983704995000039],[101.76766746200008,4.977915827000061],[101.76824857300005,4.969231980000075],[101.78974968500006,4.926389998000047],[101.76069412900006,4.929863776000047],[101.55381856700006,4.931600658000036],[101.49861301000004,4.953600768000058],[101.43220273700007,4.991605790000051],[101.42279950000005,4.98489676500003]]]}},{"type":"Feature","properties":{"state":"Kelantan","district":"Gua Musang"},"geometry":{"type":"Polygon","coordinates":[[[101.74290897100008,5.399853740000026],[101.73919301700005,5.389395163000074],[101.75255857300004,5.374352878000025],[101.74442301700009,5.365674468000066],[101.74093635000008,5.358153080000022],[101.71071857200008,5.343688610000072],[101.69735301600008,5.332116789000054],[101.67759523700005,5.330959595000024],[101.67062190400009,5.326909398000055],[101.65493190300003,5.342531438000037],[101.64563412500007,5.34484578100006],[101.64040412500003,5.339638498000056],[101.63226856900008,5.340795676000027],[101.62645745800006,5.34484578100006],[101.62297079100006,5.351210177000041],[101.61076745800005,5.347160114000076],[101.60379412400005,5.34195285100003],[101.59972634600007,5.335009765000052],[101.57764412300008,5.326909398000055],[101.57125190100004,5.303186283000059],[101.57183301200007,5.291613700000028],[101.56718412300006,5.287563245000058],[101.55439967800004,5.286405967000064],[101.54858856700008,5.281198190000055],[101.54510190000008,5.263838619000069],[101.53464190000005,5.263838619000069],[101.52476301100006,5.270782506000046],[101.52185745500009,5.263259958000049],[101.52243856600006,5.244742531000043],[101.51546523300004,5.238377038000067],[101.51255967700007,5.231432790000042],[101.51139745500006,5.200182723000069],[101.49047745400009,5.183399639000072],[101.49047745400009,5.175297300000068],[101.48408523200004,5.170088600000042],[101.48699078700008,5.161986091000074],[101.48190025400004,5.147748575000037],[101.48636318700005,5.130709438000054],[101.47780923100004,5.112928983000074],[101.48375980900005,5.089220943000043],[101.46293278700006,5.070698429000061],[101.46404852000006,5.056250498000054],[101.46032940900005,5.052545849000069],[101.45884176400006,5.026983191000056],[101.44805634200009,5.011793311000076],[101.45177545300004,5.003642497000044],[101.44396531900009,4.994380086000035],[101.44136194100008,4.996973574000037],[101.43220273700007,4.991605790000051],[101.49861301000004,4.953600768000058],[101.55381856700006,4.931600658000036],[101.76069412900006,4.929863776000047],[101.78974968500006,4.926389998000047],[101.76824857300005,4.969231980000075],[101.76766746200008,4.977915827000061],[101.77231635100009,4.983704995000039],[101.79033079600003,4.984862822000025],[101.80602079700009,4.963442686000064],[101.81125079700007,4.980810417000043],[101.81764301900006,4.975600146000033],[101.81996746400006,4.961126953000075],[101.81706190800008,4.94086395100004],[101.80950746400003,4.914810609000028],[101.81299413000005,4.90844185900005],[101.83100857500006,4.892230222000023],[101.83507635300003,4.879492232000075],[101.83972524200004,4.802480163000041],[101.83623857500004,4.782791465000059],[101.82112968600006,4.769472319000045],[101.81848031400006,4.76268320500003],[101.82247350600005,4.746054608000065],[101.82065753300009,4.72795691500005],[101.82338149200007,4.717098071000066],[101.83155336700008,4.717098071000066],[101.83881725600008,4.720717705000027],[101.84517315900007,4.718907890000025],[101.84608114500008,4.697189751000053],[101.84971309000008,4.687235378000025],[101.85697697900008,4.685425477000024],[101.86696482600007,4.690855166000063],[101.86968878500005,4.679995744000053],[101.88603253500008,4.672756036000067],[101.89238843800007,4.664611275000027],[101.89329642400008,4.657371408000074],[101.88784850700006,4.646511468000028],[101.89602038300006,4.616645771000037],[101.91236413300004,4.613025601000061],[101.92779989800005,4.654656439000064],[101.94051170300008,4.664611275000027],[101.95413149600006,4.720717705000027],[101.95049955100006,4.741530229000034],[101.95049955100006,4.759627567000052],[101.96230337100008,4.765961523000044],[101.98137108000009,4.745149735000041],[101.98772698300007,4.748769222000021],[101.99589885800003,4.765056676000029],[102.00316274700003,4.762342127000068],[102.00679469200008,4.749674090000042],[102.01405858100009,4.739720470000066],[102.02313844200006,4.737005821000025],[102.02858635900009,4.742435108000052],[102.03494226200007,4.737910705000047],[102.03948219300008,4.728861811000058],[102.04856205400006,4.728861811000058],[102.05673392900007,4.744244860000038],[102.06672177700005,4.743339985000034],[102.11121309700007,4.759627567000052],[102.11847698700007,4.756008138000027],[102.12392490300005,4.745149735000041],[102.12755684800004,4.718907890000025],[102.13845268200004,4.704429206000043],[102.15842837700006,4.694474936000063],[102.17477212700004,4.679090785000028],[102.17477212700004,4.664611275000027],[102.19656379400004,4.646511468000028],[102.20291969700008,4.63836640300002],[102.21653948900007,4.632031287000075],[102.22834330900008,4.632936307000023],[102.23560719800008,4.639271415000053],[102.23197525400008,4.653751447000047],[102.26829469900008,4.662801315000024],[102.28373046400009,4.656466419000026],[102.31278602000003,4.636556376000044],[102.32912977100005,4.637461390000055],[102.34002560400006,4.641986443000064],[102.35092143800006,4.665516253000021],[102.36272525800007,4.671851067000034],[102.36908116100005,4.683615571000075],[102.36726518800003,4.692665054000031],[102.36181727200005,4.698999622000031],[102.36363324400008,4.706239058000051],[102.37945568000004,4.713957199000049],[102.40230589900005,4.711585015000026],[102.40801845400006,4.716329375000043],[102.41872949400005,4.714668852000045],[102.42682228000007,4.710398920000046],[102.44586412900009,4.712533890000032],[102.45681319300007,4.706128961000047],[102.46419191000007,4.707315064000056],[102.48680410600008,4.688099959000056],[102.49418282200008,4.685253232000036],[102.50013340000004,4.675526826000066],[102.51227257900007,4.668884325000022],[102.51655699600008,4.673628975000042],[102.52917222100007,4.67837359300006],[102.53180535200005,4.686795210000071],[102.54221886300007,4.696432500000071],[102.54742561900008,4.710517530000061],[102.55523575200004,4.70792294000006],[102.56193015200006,4.69939779300006],[102.57234366400007,4.691613872000062],[102.58498864200004,4.695320512000023],[102.59688979800006,4.686795210000071],[102.60321228700008,4.688648546000024],[102.60507184300008,4.701621755000076],[102.60246846500007,4.723860979000051],[102.59874935400006,4.734239040000034],[102.59428642000006,4.739428012000076],[102.60395610900008,4.760554138000032],[102.59874935400006,4.770561025000063],[102.61102242100009,4.781679616000076],[102.62924606600006,4.773526],[102.63705619900009,4.765742912000064],[102.65838597435527,4.761798323300236],[102.65974277800007,4.767596036000043],[102.66420571100008,4.772043514000075],[102.66569335600008,4.783903313000053],[102.65974277800007,4.791315583000028],[102.65565175500006,4.80799289600003],[102.65230455500006,4.812069511000061],[102.64412251000005,4.815775503000054],[102.64598206600004,4.81911087800006],[102.64486633300004,4.82652276500005],[102.65267646600006,4.839863958000024],[102.65267646600006,4.844310964000044],[102.65081691100005,4.84949910000006],[102.64077531000004,4.849128520000022],[102.62143593200005,4.860245827000028],[102.61251006500004,4.86283983900006],[102.60693139800009,4.871362951000037],[102.58945157600004,4.874327486000027],[102.58461673100004,4.883591575000025],[102.56936837500007,4.893967202000056],[102.55858295200005,4.896190530000069],[102.55523575200004,4.899525508000067],[102.54035930700007,4.905083767000065],[102.52659859600004,4.895449421000023],[102.50614348400006,4.902860469000075],[102.51097832900007,4.913235797000027],[102.51432552900008,4.938061818000051],[102.52027610700009,4.945472391000067],[102.51439526200005,4.950706058000037],[102.52078748500008,4.961126953000075],[102.50742192900009,4.975600146000033],[102.50509748400003,4.984283909000055],[102.49986748400005,4.991809744000022],[102.49928637300007,5.002808885000036],[102.50567859500006,5.010334508000028],[102.51207081800004,5.012071177000053],[102.51497637300008,5.016702274000068],[102.51671970700005,5.028858747000072],[102.51090859500005,5.041014992000044],[102.51439526200005,5.053749862000075],[102.50044859500008,5.07516703400006],[102.50335415100005,5.082112991000031],[102.51555748400006,5.086743588000047],[102.51904415100006,5.090795332000027],[102.51904415100006,5.098319933000028],[102.52834192900008,5.106423251000024],[102.52543637400004,5.112211272000025],[102.51788192900005,5.117420447000029],[102.51148970700007,5.126102310000022],[102.48650192800005,5.137677944000075],[102.48650192800005,5.144623224000043],[102.47662303900006,5.156777281000075],[102.46325748300006,5.164879856000027],[102.44931081600004,5.16603735800004],[102.44175637100005,5.170667346000073],[102.43710748200004,5.179348483000069],[102.41153859200006,5.18166343200005],[102.42199859300007,5.201340161000076],[102.42316081500007,5.209442164000052],[102.42316081500007,5.217544064000037],[102.41502525900006,5.234326236000072],[102.41618748100007,5.247057239000071],[102.41444414800009,5.254579982000052],[102.41793081500003,5.271361159000037],[102.41560637000003,5.282355478000056],[102.41676859300009,5.298557275000064],[102.35110303500005,5.295085497000059],[102.29241081100008,5.255737320000037],[102.13028080600009,5.255737320000037],[102.13783525100007,5.17703352500007],[102.08088636000008,5.175876042000027],[102.01289635800003,5.185714573000041],[101.89086302100009,5.264417279000043],[101.82054857500003,5.289299157000073],[101.78750286800005,5.358147312000028],[101.74290897100008,5.399853740000026]]]}},{"type":"Feature","properties":{"state":"Kelantan","district":"Bachok"},"geometry":{"type":"Polygon","coordinates":[[[102.27989832400004,5.937746410000045],[102.29118200300007,5.941568959000051],[102.29395035200008,5.934881903000075],[102.30403505100008,5.939012153000021],[102.31081510200005,5.938444053000069],[102.31141121800005,5.940197021000074],[102.31511750100003,5.93746445000005],[102.32328169500005,5.938212042000032],[102.32356679300005,5.936355951000053],[102.32386829300003,5.93803269700004],[102.32848748200007,5.935955771000067],[102.34234504500006,5.939165562000028],[102.34500266000003,5.942815890000077],[102.36196077300008,5.921165316000042],[102.36417545300009,5.914619626000047],[102.36695962000005,5.914682565000021],[102.37195846800006,5.908892084000058],[102.37993131300004,5.908640322000053],[102.38056407800008,5.901716838000027],[102.38565190800006,5.899478489000046],[102.39013193600005,5.890104810000025],[102.39584783600009,5.890104810000025],[102.40264512100003,5.885341076000032],[102.42996943400004,5.900732422000033],[102.46961969300008,5.917726662000064],[102.44931081600004,5.95724870500004],[102.37027970200006,6.134079652000025],[102.34280345200006,6.167791082000065],[102.32911379000006,6.148870717000023],[102.33506436800008,6.131860957000072],[102.33469245700007,6.113741267000023],[102.32427894500006,6.115220448000059],[102.30642721200007,6.112262082000029],[102.30493956700008,6.101537865000068],[102.31349352300003,6.096360580000066],[102.32576659000006,6.083047332000035],[102.33692392400008,6.07786986900004],[102.34324641300009,6.071213058000069],[102.34361832400003,6.057159519000038],[102.32316321200005,6.049023092000027],[102.31646881200004,6.041996080000047],[102.31795645600005,6.03607852500005],[102.32390703400006,6.030160905000059],[102.32762614600006,6.022024073000068],[102.33952730100003,6.012407659000075],[102.33989921300008,6.010188463000077],[102.33320481200008,6.007229520000067],[102.33171716800007,5.979858539000077],[102.31981601200005,5.97024138200004],[102.29861707800006,5.96543274000004],[102.29675752200006,5.954335714000024],[102.28225298900009,5.954705618000048],[102.28002152200008,5.950636655000039],[102.27989832400004,5.937746410000045]]]}}]}