{"type":"FeatureCollection","features":[{"type":"Feature","properties":{"state":"Kuala Lumpur","district":"Kuala Lumpur"},"geometry":{"type":"Polygon","coordinates":[[[101.73060465900005,3.035991304000049],[101.73084268300005,3.039794322000034],[101.73060465900005,3.054768575000026],[101.74940848600005,3.054768575000026],[101.74988453200007,3.072594794000054],[101.74321988500009,3.08257734700004],[101.75226476300008,3.09422354000003],[101.75131267100005,3.10040310100004],[101.75393092500008,3.104918911000027],[101.75178871700007,3.108246338000072],[101.75464499400005,3.112049098000057],[101.75226476300008,3.11680252900004],[101.74702825500003,3.116327187000024],[101.74393395400006,3.109197029000029],[101.73869744500007,3.11347513000004],[101.74107767700008,3.123694967000063],[101.73584116800004,3.139381034000053],[101.73917349200008,3.141995356000052],[101.74107767700008,3.15055127200003],[101.74512407000009,3.149838282000076],[101.74988453200007,3.15577985300007],[101.74726627800004,3.159820102000026],[101.73631721400005,3.162672033000035],[101.73250884400005,3.176456255000062],[101.74988453200007,3.175743283000031],[101.75773929500008,3.18620016400007],[101.75678720200006,3.193092141000022],[101.75274080900004,3.201647634000039],[101.74750430100005,3.202835891000063],[101.74560011600005,3.210440706000043],[101.74012558400005,3.216619575000038],[101.74321988500009,3.22873955700004],[101.73845942200006,3.234680672000025],[101.73822139900005,3.231591297000023],[101.72989059000008,3.233254808000027],[101.71965559600005,3.223273701000039],[101.71775141100005,3.225887810000074],[101.71370501800004,3.219946644000061],[101.71608524900006,3.214956037000036],[101.71275292600006,3.21353014500005],[101.70204188500009,3.216619575000038],[101.69942363100006,3.219233701000064],[101.69989967700008,3.223748994000061],[101.69632933000008,3.223273701000039],[101.69466316900008,3.228264267000043],[101.67252701900009,3.227788976000056],[101.67109888000005,3.235631247000072],[101.66419620900007,3.244424025000058],[101.65253307700004,3.234918316000062],[101.63753762000005,3.228977203000056],[101.63753762000005,3.21733252000007],[101.63349122700004,3.216619575000038],[101.62658855700005,3.200934679000056],[101.61920984000005,3.198082854000063],[101.61897181700004,3.173842020000052],[101.61492542400003,3.153640891000066],[101.62230414100009,3.142946017000043],[101.62706460300006,3.13985636600006],[101.62920681100007,3.13058735900006],[101.63515738900009,3.132726368000021],[101.64848668400003,3.127497671000071],[101.64396424400007,3.121080599000038],[101.64943877600007,3.11846622500002],[101.65277110000005,3.110147720000043],[101.65753156200009,3.11276211400002],[101.66276807100007,3.088043943000059],[101.65657947000005,3.079012160000048],[101.64801063700008,3.072357113000066],[101.65181900700009,3.067841165000061],[101.65134296100007,3.059522263000076],[101.65895970100007,3.057620790000044],[101.65800760800005,3.049064122000061],[101.65443726200004,3.050252552000075],[101.65396121500004,3.046211885000048],[101.67490725000005,3.04478576300005],[101.67609736500003,3.04193351400005],[101.67966771200008,3.04193351400005],[101.68633235900006,3.04573651100003],[101.69061677600007,3.043597327000043],[101.69704340000004,3.045498824000049],[101.70323200100006,3.050014867000073],[101.70727839400007,3.045974198000067],[101.71037269400006,3.053104779000023],[101.71441908700007,3.05405552000002],[101.72560617400006,3.036942060000058],[101.73060465900005,3.035991304000049]]]}}]}