{"type":"FeatureCollection","features":[{"type":"Feature","properties":{"state":"Malacca","district":"Alor Gajah"},"geometry":{"type":"Polygon","coordinates":[[[102.03121298100007,2.440486311000029],[102.02786578100006,2.436770568000043],[102.02712195900006,2.427481166000064],[102.01484889200003,2.41187482600003],[101.99550951300006,2.401842084000066],[101.98658364700003,2.399612576000038],[101.96815080200008,2.387094749000028],[101.97570524600008,2.372579501000075],[101.99430080200005,2.367353974000025],[102.00476080300007,2.369676433000052],[102.01347747000005,2.367934589000072],[102.04078969300008,2.348774165000066],[102.04950636000007,2.346451671000068],[102.06810191600005,2.326710320000075],[102.07972413800007,2.294775198000025],[102.09109067200006,2.289990674000023],[102.12790987300008,2.289619060000064],[102.13348854000009,2.295193262000055],[102.14613351800006,2.291477130000033],[102.14613351800006,2.304483551000033],[102.18034934100007,2.307828040000061],[102.19150667500008,2.314145387000053],[102.20377974200005,2.316375032000053],[102.21605280900008,2.310057695000069],[102.22051574200003,2.31117252100006],[102.23241689800005,2.297422937000022],[102.23725174300006,2.297794549000059],[102.23948321000006,2.315260210000076],[102.23464836500006,2.32157752400002],[102.24022703200006,2.336813282000037],[102.25659112100004,2.330496036000056],[102.25435965400004,2.318604673000038],[102.25584729900004,2.308942868000031],[102.26142596600005,2.302253887000063],[102.25993832100005,2.296308100000033],[102.24320232100007,2.277727356000071],[102.25733494300005,2.271038229000055],[102.26365743300005,2.274011178000023],[102.27146756600007,2.285902913000029],[102.28448445500004,2.284044836000021],[102.30531147800008,2.29370681000006],[102.30865867800009,2.296308100000033],[102.31126205600003,2.305226771000036],[102.32911379000006,2.300024220000068],[102.33729583500008,2.30039583100006],[102.34064303500008,2.304065489000038],[102.34645414600004,2.34296792400005],[102.35284636900008,2.354580382000051],[102.35110303500005,2.362128428000062],[102.35807636900006,2.370837661000053],[102.35749525800009,2.375482563000048],[102.34935970200007,2.384772320000025],[102.34877859100004,2.40741583800002],[102.33773747900005,2.432961921000071],[102.34006192400005,2.437606611000035],[102.36156303500007,2.44863768700003],[102.36504970200008,2.45444347900002],[102.36679303600005,2.460829822000051],[102.36214414700004,2.469538422000028],[102.36783900259414,2.48936724040244],[102.31646881200004,2.480615679000039],[102.27518667700008,2.458321735000027],[102.23092925400005,2.466124658000069],[102.21045698100005,2.480356572000062],[102.20275493300005,2.480453975000046],[102.20252230900007,2.483698110000034],[102.19427369400006,2.486560667000049],[102.19070334700007,2.49274342700005],[102.17713602900005,2.499877344000026],[102.14143256100004,2.457311067000035],[102.12143861900006,2.463493963000076],[102.08906747500004,2.448036669000032],[102.08882945200008,2.446134221000023],[102.08740131400003,2.451603753000029],[102.08383096700004,2.45469521800004],[102.07621422700004,2.455170827000074],[102.07073969500004,2.458975696000039],[102.06597923300006,2.457548871000029],[102.06359900200005,2.456359850000069],[102.06050470100007,2.443756157000053],[102.06574121000006,2.443042736000052],[102.06383702500005,2.438762208000071],[102.05979063200004,2.433768240000063],[102.05217389200004,2.433292623000057],[102.04884156800006,2.42068871400005],[102.03741645900004,2.424018060000037],[102.03551227400004,2.42758520700005],[102.03789250500006,2.434719474000076],[102.03121298100007,2.440486311000029]]]}},{"type":"Feature","properties":{"state":"Malacca","district":"Melaka Tengah"},"geometry":{"type":"Polygon","coordinates":[[[102.09109067200006,2.289990674000023],[102.09109067200006,2.285159682000028],[102.09890080500008,2.280328675000021],[102.10038845000008,2.273639560000049],[102.10485138300004,2.271781467000039],[102.11005813900005,2.275126033000049],[102.11600871700006,2.272896323000055],[102.13906720700004,2.249484167000048],[102.15394365100008,2.216780844000027],[102.17625831900006,2.219382271000029],[102.19187858600009,2.216037578000055],[102.18369654100007,2.206746724000027],[102.18109316300007,2.197084175000043],[102.18853138600008,2.197455813000033],[102.19411005300009,2.202658730000053],[102.20192018600005,2.204516911000042],[102.21084605300007,2.197827450000034],[102.22349103100004,2.196340899000063],[102.22014383100009,2.188536483000064],[102.22460676500003,2.186678283000049],[102.24097085400007,2.187793203000069],[102.24580569900007,2.186306642000034],[102.24989672100008,2.179988742000035],[102.26960801000007,2.174785746000055],[102.28076534400009,2.175900675000037],[102.28783165500005,2.171812597000041],[102.30977441200008,2.165866282000025],[102.32279130100005,2.15769006000005],[102.33684954100005,2.155742627000052],[102.34018186500003,2.159310442000049],[102.33756361100006,2.165494636000062],[102.33899174900006,2.17477088000004],[102.34922674400008,2.18428491700007],[102.35827162200007,2.184522767000033],[102.36826859300004,2.177387246000023],[102.37398114800004,2.176673692000065],[102.37326707800008,2.179527906000033],[102.37945568000004,2.185474168000042],[102.38231195700007,2.192609650000065],[102.38564428100005,2.194036743000026],[102.39159485900007,2.203074963000063],[102.39802148300004,2.206880513000044],[102.39873555200006,2.214491584000029],[102.39159485900007,2.223767524000039],[102.39564125200008,2.239465135000046],[102.38588230400006,2.246362517000023],[102.37612335600005,2.235659669000029],[102.36636440800004,2.237562403000027],[102.34280011900006,2.229237923000028],[102.33589744900007,2.236135353000066],[102.32994687100006,2.235659669000029],[102.32161606200003,2.228762236000023],[102.31280920600005,2.228762236000023],[102.31709362300006,2.240416500000038],[102.31542746100007,2.243508432000056],[102.32256815400007,2.25111931400005],[102.32899477800004,2.263724749000062],[102.32899477800004,2.274665226000025],[102.33904411253329,2.302312531715851],[102.32911379000006,2.300024220000068],[102.31126205600003,2.305226771000036],[102.30865867800009,2.296308100000033],[102.30531147800008,2.29370681000006],[102.28448445500004,2.284044836000021],[102.27146756600007,2.285902913000029],[102.26365743300005,2.274011178000023],[102.25733494300005,2.271038229000055],[102.24320232100007,2.277727356000071],[102.25993832100005,2.296308100000033],[102.26142596600005,2.302253887000063],[102.25584729900004,2.308942868000031],[102.25435965400004,2.318604673000038],[102.25659112100004,2.330496036000056],[102.24022703200006,2.336813282000037],[102.23464836500006,2.32157752400002],[102.23948321000006,2.315260210000076],[102.23725174300006,2.297794549000059],[102.23241689800005,2.297422937000022],[102.22051574200003,2.31117252100006],[102.21605280900008,2.310057695000069],[102.20377974200005,2.316375032000053],[102.19150667500008,2.314145387000053],[102.18034934100007,2.307828040000061],[102.14613351800006,2.304483551000033],[102.14613351800006,2.291477130000033],[102.13348854000009,2.295193262000055],[102.12790987300008,2.289619060000064],[102.09109067200006,2.289990674000023]]]}},{"type":"Feature","properties":{"state":"Malacca","district":"Jasin"},"geometry":{"type":"Polygon","coordinates":[[[102.36783900259414,2.48936724040244],[102.36214414700004,2.469538422000028],[102.36679303600005,2.460829822000051],[102.36504970200008,2.45444347900002],[102.36156303500007,2.44863768700003],[102.34006192400005,2.437606611000035],[102.33773747900005,2.432961921000071],[102.34877859100004,2.40741583800002],[102.34935970200007,2.384772320000025],[102.35749525800009,2.375482563000048],[102.35807636900006,2.370837661000053],[102.35110303500005,2.362128428000062],[102.35284636900008,2.354580382000051],[102.34645414600004,2.34296792400005],[102.34064303500008,2.304065489000038],[102.32899477800004,2.274665226000025],[102.32899477800004,2.263724749000062],[102.32256815400007,2.25111931400005],[102.31542746100007,2.243508432000056],[102.31709362300006,2.240416500000038],[102.31280920600005,2.228762236000023],[102.32161606200003,2.228762236000023],[102.32994687100006,2.235659669000029],[102.33589744900007,2.236135353000066],[102.34280011900006,2.229237923000028],[102.36636440800004,2.237562403000027],[102.37612335600005,2.235659669000029],[102.38588230400006,2.246362517000023],[102.38945265000007,2.244935475000034],[102.39088078900005,2.241130023000039],[102.39373706700007,2.242081387000042],[102.39564125200008,2.239465135000046],[102.39492718200006,2.232567721000066],[102.39159485900007,2.223767524000039],[102.39873555200006,2.214491584000029],[102.39802148300004,2.206880513000044],[102.39159485900007,2.203074963000063],[102.38564428100005,2.194036743000026],[102.38231195700007,2.192609650000065],[102.37945568000004,2.185474168000042],[102.37326707800008,2.179527906000033],[102.37398114800004,2.176673692000065],[102.37136289300008,2.17596013800005],[102.35541534500004,2.18499846800006],[102.34327616600007,2.180717160000029],[102.33780163400007,2.170727396000075],[102.34018186500003,2.159310442000049],[102.33588553500005,2.155908647000047],[102.34733743500004,2.15025709300005],[102.36295770200007,2.137992619000045],[102.37634650300004,2.132046172000059],[102.40498365900004,2.132789479000053],[102.43342028100005,2.117428518000054],[102.46343023600008,2.11255712600007],[102.48871781200006,2.100226345000067],[102.48826080700007,2.105554472000051],[102.49100283400008,2.10722902200007],[102.49298318600006,2.105706704000056],[102.49298318600006,2.11042588600003],[102.48536644600006,2.113927206000028],[102.48460477200007,2.110882581000055],[102.48247208500004,2.113470513000038],[102.49054582900004,2.120929822000051],[102.50251363200005,2.119112570000027],[102.50489386300006,2.121015452000051],[102.50227560800005,2.126010505000067],[102.50417979300005,2.127437660000055],[102.50679804800006,2.121253312000022],[102.51631897200008,2.120539732000054],[102.51536688000004,2.114117495000073],[102.52131745800006,2.11839898900007],[102.53036233600005,2.120064011000068],[102.53036233600005,2.123869770000056],[102.53393268300005,2.127675519000036],[102.53012431300004,2.130767683000045],[102.53440872900006,2.131956975000037],[102.53940721500004,2.137903423000068],[102.53226652100005,2.150509815000021],[102.53440872900006,2.159548296000025],[102.53083838300006,2.159786150000059],[102.52941024400008,2.166683902000045],[102.52107943500005,2.164305370000022],[102.51703304200004,2.165256783000075],[102.51584292600006,2.169062429000064],[102.51203455600006,2.166921755000033],[102.50560793200003,2.167635313000062],[102.50203758500004,2.174533028000042],[102.49442084600008,2.174295177000033],[102.49418282200008,2.182857815000034],[102.48323375900009,2.178814353000064],[102.47609306500004,2.182382115000053],[102.47490295000006,2.184522767000033],[102.47778526100007,2.189093943000046],[102.47081192800005,2.195481486000062],[102.46964970500005,2.202449685000033],[102.48650192800005,2.214063276000047],[102.49638081700004,2.225096104000045],[102.49638081700004,2.236128849000067],[102.48998859500006,2.243096856000022],[102.49579970600007,2.254710127000067],[102.50161081700008,2.295355843000038],[102.50684081800006,2.304065489000038],[102.50974637300004,2.318000813000026],[102.51439526200005,2.323807157000033],[102.51381415100008,2.332516629000054],[102.50916526200007,2.33832291300007],[102.50916526200007,2.344129174000045],[102.51497637300008,2.353999761000068],[102.52078748500008,2.356322242000033],[102.53415304100008,2.374901951000027],[102.53415304100008,2.387094749000028],[102.54751859600003,2.396384427000044],[102.56553304100004,2.395223221000037],[102.59391450900006,2.410760080000045],[102.58610437500005,2.416705379000064],[102.56527735300006,2.418191699000033],[102.50949068400007,2.437885292000033],[102.43101743700004,2.457578597000065],[102.43436463800003,2.467610924000041],[102.36783900259414,2.48936724040244]]]}}]}