{"type":"FeatureCollection","features":[{"type":"Feature","properties":{"state":"Negeri Sembilan","district":"Jelebu"},"geometry":{"type":"Polygon","coordinates":[[[101.91468857800004,3.260596521000025],[101.92744977800004,3.260271626000076],[101.92782168900004,3.256558527000038],[101.93340035600005,3.250617541000054],[101.93191271200004,3.243933889000061],[101.94567342300007,3.224625315000026],[101.94939253400008,3.208658332000027],[101.94678915600008,3.202717066000048],[101.94864871200008,3.197147097000027],[101.94232622300007,3.184150386000056],[101.94790489000007,3.165954715000055],[101.95645884600003,3.156671086000074],[101.95645884600003,3.145901972000047],[101.96724426800006,3.13996034500002],[101.96389706800005,3.135875456000065],[101.96092177900005,3.119535743000029],[101.95013635700008,3.110251701000038],[101.95645884600003,3.092797483000027],[101.95757457900004,3.082399088000045],[101.96203751200005,3.074228849000065],[101.95980604600004,3.061973374000047],[101.96612853500005,3.056402658000025],[101.96501280100006,3.045261137000068],[101.96873191300006,3.035976449000032],[101.96798809000006,3.027805857000033],[101.95459929000003,3.025577503000022],[101.94753297900007,3.016292645000021],[101.93972284500006,3.01666404100007],[101.94232622300007,3.005893511000068],[101.94083857900006,3.002179511000065],[101.93116888900005,2.995865681000055],[101.93005315600004,2.983609319000038],[101.92447448900003,2.97320987400002],[101.92398635600006,2.967569063000042],[101.93270302300004,2.965828066000029],[101.93735191200005,2.96002472300006],[101.94723080100005,2.955962365000062],[101.95594746800003,2.948417946000063],[101.97686746800008,2.93855209000003],[101.98151635700003,2.924043320000067],[101.98674635800006,2.921141544000022],[101.98790858000007,2.911275448000026],[101.98500302400004,2.904891457000076],[101.98907080200007,2.892703739000069],[101.98500302400004,2.879355135000026],[101.99662524700005,2.853818240000066],[102.00243635800007,2.848014321000051],[102.01754524700004,2.842790769000032],[102.02393747000008,2.845692745000065],[102.02568080300006,2.83698679400004],[102.03032969200007,2.83466519600006],[102.04311413700003,2.838727990000052],[102.05066858200007,2.83408479600007],[102.06635858200008,2.842210373000057],[102.06984524900008,2.839308388000063],[102.06693969300005,2.83408479600007],[102.07275080500006,2.83466519600006],[102.07972413800007,2.839308388000063],[102.08321080500008,2.846273140000051],[102.09134636100003,2.848014321000051],[102.09250858300004,2.860782904000075],[102.10354969400004,2.867747526000073],[102.10819858300005,2.872390584000073],[102.11110413900008,2.879935512000031],[102.13376747300003,2.897927063000054],[102.15120080700007,2.896766326000034],[102.16805303000007,2.905471822000038],[102.18722969700008,2.895605588000024],[102.19885191900005,2.908373638000057],[102.20582525300006,2.911855809000031],[102.22325858700003,2.906632549000051],[102.23952969800007,2.906052186000068],[102.23894858700004,2.924043320000067],[102.24998969900008,2.929846851000036],[102.27032858800004,2.952480331000061],[102.35284636900008,2.961765729000035],[102.34064303500008,2.976854333000063],[102.34354859000007,2.986139526000045],[102.34006192400005,3.00993247200006],[102.34529192400004,3.030243114000029],[102.33773747900005,3.037206674000061],[102.33541303500004,3.052294235000033],[102.32960192300004,3.057516803000055],[102.32320970100005,3.075505453000062],[102.32437192300006,3.080147636000049],[102.31623636700004,3.085950337000043],[102.31333081200006,3.091753006000033],[102.31797970100007,3.103358248000063],[102.29589747800009,3.124247362000062],[102.29291416900008,3.139536945000032],[102.15933636300008,3.178789195000036],[102.14655191800006,3.196775765000041],[102.14190302900005,3.199676795000073],[102.12679414000007,3.193874726000047],[102.12156413900004,3.199096590000067],[102.11517191700005,3.200257],[102.11459080600008,3.190393469000071],[102.09890080500008,3.193874726000047],[102.07739969400006,3.180529844000034],[102.07507524900007,3.167184789000032],[102.06635858200008,3.171826567000039],[102.05880413800008,3.169505681000032],[102.05531747100008,3.17472766800006],[102.05299302600008,3.189813259000061],[102.05473636000005,3.196775765000041],[102.04195191500008,3.228106455000045],[102.02626191400009,3.231007397000042],[102.01463969200006,3.228106455000045],[102.00824746900008,3.229266833000054],[101.99430080200005,3.237389438000037],[101.97686746800008,3.241450716000031],[101.97454302400007,3.272199862000036],[101.96756969000006,3.275680839000074],[101.95943413500004,3.272780026000021],[101.95013635700008,3.274520514000073],[101.94839302300005,3.283222912000042],[101.94141969000003,3.28960462200007],[101.93502746700005,3.290764929000034],[101.92863524500007,3.275100677000069],[101.91643191100007,3.265237874000036],[101.91468857800004,3.260596521000025]]]}},{"type":"Feature","properties":{"state":"Negeri Sembilan","district":"Jempol"},"geometry":{"type":"Polygon","coordinates":[[[102.29291416900008,3.139536945000032],[102.29589747800009,3.124247362000062],[102.31797970100007,3.103358248000063],[102.31333081200006,3.091753006000033],[102.31623636700004,3.085950337000043],[102.32437192300006,3.080147636000049],[102.32320970100005,3.075505453000062],[102.32960192300004,3.057516803000055],[102.33541303500004,3.052294235000033],[102.33773747900005,3.037206674000061],[102.34529192400004,3.030243114000029],[102.34006192400005,3.00993247200006],[102.34354859000007,2.986139526000045],[102.34064303500008,2.976854333000063],[102.35284636900008,2.961765729000035],[102.27032858800004,2.952480331000061],[102.24998969900008,2.929846851000036],[102.23894858700004,2.924043320000067],[102.23952969800007,2.906052186000068],[102.24766525400008,2.89781098900005],[102.25584729900004,2.894468064000023],[102.26291361000006,2.882953470000075],[102.27183947700007,2.878124734000039],[102.27779005500008,2.87069587000002],[102.30122045600007,2.861781169000039],[102.29936090000007,2.845808824000073],[102.29452605600005,2.835779564000063],[102.29601370000006,2.832436458000075],[102.31126205600003,2.827978968000025],[102.31535307900003,2.819435398000053],[102.34138685700003,2.791204026000059],[102.34845316800005,2.77151595700002],[102.35365992400006,2.769287099000053],[102.36518916900008,2.770401528000036],[102.36816445800008,2.780802823000045],[102.38564428100005,2.783031660000063],[102.39419823600008,2.77783103400003],[102.39531397000007,2.768172668000034],[102.39903308100008,2.761114581000072],[102.39903308100008,2.756656820000046],[102.39531397000007,2.750713113000074],[102.40014881400003,2.738454125000032],[102.38306414700008,2.719159894000029],[102.36330636900004,2.705228850000026],[102.35633303500003,2.693039055000042],[102.35923859100006,2.676205328000037],[102.35110303500005,2.668078618000038],[102.35168414600008,2.657049426000071],[102.34994081300005,2.653566503000036],[102.33432054600007,2.645207447000075],[102.34956890200004,2.645207447000075],[102.34845316800005,2.598767228000042],[102.42841406000008,2.689416920000042],[102.55151664100003,2.68533039700003],[102.55226046300004,2.674556771000027],[102.56676499700006,2.66006795100003],[102.57085601900008,2.65858190900002],[102.58164144200003,2.663040031000037],[102.59688979800006,2.652266209000061],[102.63177971000005,2.650083570000049],[102.7013222156915,2.832076560575578],[102.69868012900008,2.832670069000073],[102.69414019800007,2.839925060000041],[102.69595617000004,2.847180005000041],[102.69414019800007,2.873478798000065],[102.68596832300005,2.888895050000031],[102.67870443400005,2.897963336000032],[102.66962457200003,2.887081384000055],[102.46895963600008,3.016751087000046],[102.39178081400007,3.119206451000025],[102.29291416900008,3.139536945000032]]]}},{"type":"Feature","properties":{"state":"Negeri Sembilan","district":"Kuala Pilah"},"geometry":{"type":"Polygon","coordinates":[[[102.06693969300005,2.83408479600007],[102.06394116000007,2.826864593000039],[102.06617262700007,2.819063937000067],[102.06170969300007,2.812749082000039],[102.06170969300007,2.807920052000043],[102.05204000400005,2.799376336000023],[102.05129618200004,2.776345137000021],[102.05501529300005,2.769658575000051],[102.05166809300005,2.752942007000058],[102.05761867100006,2.745512346000055],[102.05501529300005,2.725452030000042],[102.04832089300004,2.700561914000048],[102.05018044800005,2.69387493000005],[102.06394116000007,2.681986868000024],[102.07472658200004,2.687930914000049],[102.08216480500005,2.702419403000022],[102.08662773800006,2.701304910000033],[102.09183449400007,2.707991853000067],[102.09778507200008,2.704276889000027],[102.12047165100006,2.703533895000021],[102.12344693900008,2.697961425000074],[102.12456267300007,2.68644490500003],[102.11600871700006,2.66972718300002],[102.11563680600005,2.664526068000043],[102.12084356200006,2.655238307000047],[102.11675253900006,2.643721387000028],[102.11786827300006,2.639634712000031],[102.12790987300008,2.631461322000064],[102.13497618400004,2.631089803000066],[102.14613351800006,2.615485905000071],[102.16435716300003,2.615485905000071],[102.16435716300003,2.605083199000035],[102.17067965200005,2.597281113000065],[102.17997743000006,2.592822756000032],[102.17811787400007,2.582048329000031],[102.18332463000007,2.569044589000043],[102.19299431900004,2.558641502000057],[102.20154827500005,2.554926093000063],[102.20340783100005,2.54489443500006],[102.20675503100006,2.542665167000052],[102.22795396500004,2.537835074000043],[102.23539218700006,2.544522891000042],[102.25956641000005,2.540435896000076],[102.29712943400006,2.538206620000039],[102.32539467900006,2.540064350000023],[102.32874187900006,2.57053073700007],[102.32279130100005,2.571645348000061],[102.34845316800005,2.598767228000042],[102.34956890200004,2.645207447000075],[102.33432054600007,2.645207447000075],[102.34994081300005,2.653566503000036],[102.35168414600008,2.657049426000071],[102.35110303500005,2.668078618000038],[102.35923859100006,2.676205328000037],[102.35633303500003,2.693039055000042],[102.36330636900004,2.705228850000026],[102.38306414700008,2.719159894000029],[102.40014881400003,2.738454125000032],[102.39531397000007,2.750713113000074],[102.39903308100008,2.756656820000046],[102.39903308100008,2.761114581000072],[102.39531397000007,2.768172668000034],[102.39419823600008,2.77783103400003],[102.38564428100005,2.783031660000063],[102.36816445800008,2.780802823000045],[102.36518916900008,2.770401528000036],[102.35365992400006,2.769287099000053],[102.34845316800005,2.77151595700002],[102.34138685700003,2.791204026000059],[102.31535307900003,2.819435398000053],[102.31126205600003,2.827978968000025],[102.29601370000006,2.832436458000075],[102.29452605600005,2.835779564000063],[102.29936090000007,2.845808824000073],[102.30122045600007,2.861781169000039],[102.27779005500008,2.87069587000002],[102.27183947700007,2.878124734000039],[102.26291361000006,2.882953470000075],[102.25584729900004,2.894468064000023],[102.24766525400008,2.89781098900005],[102.23952969800007,2.906052186000068],[102.22325858700003,2.906632549000051],[102.21105525300004,2.911275448000026],[102.20582525300006,2.911855809000031],[102.19885191900005,2.908373638000057],[102.18722969700008,2.895605588000024],[102.16805303000007,2.905471822000038],[102.15120080700007,2.896766326000034],[102.13376747300003,2.897927063000054],[102.11110413900008,2.879935512000031],[102.10819858300005,2.872390584000073],[102.10354969400004,2.867747526000073],[102.09250858300004,2.860782904000075],[102.09134636100003,2.848014321000051],[102.08321080500008,2.846273140000051],[102.07972413800007,2.839308388000063],[102.07275080500006,2.83466519600006],[102.06693969300005,2.83408479600007]]]}},{"type":"Feature","properties":{"state":"Negeri Sembilan","district":"Rembau"},"geometry":{"type":"Polygon","coordinates":[[[102.05327605967543,2.69045493938468],[102.04162649300008,2.670470198000032],[102.03121298100007,2.659324930000025],[102.02675004800005,2.645578962000059],[102.02898151400007,2.623287878000042],[102.03158489200007,2.624030921000042],[102.03121298100007,2.57053073700007],[102.01150169200008,2.570902274000048],[102.01187360300008,2.542665167000052],[102.03046915900006,2.543779802000074],[102.02935342600006,2.53189031900007],[102.03381635900007,2.52557398600004],[102.03121298100007,2.440486311000029],[102.03789250500006,2.434719474000076],[102.03551227400004,2.42758520700005],[102.03741645900004,2.424018060000037],[102.04884156800006,2.42068871400005],[102.05217389200004,2.433292623000057],[102.05979063200004,2.433768240000063],[102.06574121000006,2.443042736000052],[102.06050470100007,2.443756157000053],[102.06359900200005,2.456359850000069],[102.07073969500004,2.458975696000039],[102.07621422700004,2.455170827000074],[102.08383096700004,2.45469521800004],[102.08740131400003,2.451603753000029],[102.08882945200008,2.446134221000023],[102.08906747500004,2.448036669000032],[102.12143861900006,2.463493963000076],[102.14143256100004,2.457311067000035],[102.17713602900005,2.499877344000026],[102.19070334700007,2.49274342700005],[102.19427369400006,2.486560667000049],[102.20712694200006,2.482473491000064],[102.21084605300007,2.485445984000023],[102.21382134200007,2.506624805000058],[102.19968872000004,2.515542101000051],[102.19708534200004,2.534862700000076],[102.20326870484668,2.545821024728185],[102.20154827500005,2.554926093000063],[102.19299431900004,2.558641502000057],[102.18332463000007,2.569044589000043],[102.17811787400007,2.582048329000031],[102.17997743000006,2.592822756000032],[102.17067965200005,2.597281113000065],[102.16435716300003,2.605083199000035],[102.16435716300003,2.615485905000071],[102.14613351800006,2.615485905000071],[102.13497618400004,2.631089803000066],[102.12790987300008,2.631461322000064],[102.11786827300006,2.639634712000031],[102.11675253900006,2.643721387000028],[102.12084356200006,2.655238307000047],[102.11563680600005,2.664526068000043],[102.11600871700006,2.66972718300002],[102.12456267300007,2.68644490500003],[102.12344693900008,2.697961425000074],[102.12047165100006,2.703533895000021],[102.09778507200008,2.704276889000027],[102.09183449400007,2.707991853000067],[102.08662773800006,2.701304910000033],[102.08216480500005,2.702419403000022],[102.07472658200004,2.687930914000049],[102.06394116000007,2.681986868000024],[102.05327605967543,2.69045493938468]]]}},{"type":"Feature","properties":{"state":"Negeri Sembilan","district":"Tampin"},"geometry":{"type":"Polygon","coordinates":[[[102.42841406000008,2.689416920000042],[102.32279130100005,2.571645348000061],[102.32874187900006,2.57053073700007],[102.32539467900006,2.540064350000023],[102.29712943400006,2.538206620000039],[102.25956641000005,2.540435896000076],[102.23539218700006,2.544522891000042],[102.22795396500004,2.537835074000043],[102.20675503100006,2.542665167000052],[102.20326870484668,2.545821024728185],[102.19708534200004,2.534862700000076],[102.19782916400004,2.521115380000026],[102.19968872000004,2.515542101000051],[102.21382134200007,2.506624805000058],[102.21084605300007,2.485445984000023],[102.20712694200006,2.482473491000064],[102.20252230900007,2.483698110000034],[102.20275493300005,2.480453975000046],[102.21045698100005,2.480356572000062],[102.23092925400005,2.466124658000069],[102.27741814400008,2.458321735000027],[102.31646881200004,2.480615679000039],[102.36518916900008,2.490276271000027],[102.43436463800003,2.467610924000041],[102.43101743700004,2.457578597000065],[102.50949068400007,2.437885292000033],[102.56527735300006,2.418191699000033],[102.58610437500005,2.416705379000064],[102.59391450900006,2.410760080000045],[102.59510462500003,2.419975282000053],[102.59201032400006,2.421639957000025],[102.59105823200008,2.42592054000005],[102.59415253200007,2.434006049000061],[102.59272439300008,2.442329316000041],[102.59605671700007,2.453743999000039],[102.59986508700007,2.458024480000063],[102.60510159600005,2.459213500000033],[102.60557764200007,2.464682978000042],[102.61652670500007,2.471579245000044],[102.61176624300003,2.489414252000074],[102.60724380400006,2.489889849000065],[102.60510159600005,2.501779715000055],[102.60771985000008,2.506297836000044],[102.60676775700006,2.510102558000028],[102.61224228900005,2.511767120000059],[102.61890693600009,2.518900933000054],[102.61914496000009,2.522467826000025],[102.61081415000007,2.531028327000058],[102.60890996500007,2.543631184000049],[102.61010008100004,2.552191545000028],[102.61319438200007,2.554569413000024],[102.60938601200007,2.567409824000038],[102.61319438200007,2.570263231000069],[102.61652670500007,2.580250106000051],[102.62390542200006,2.58429239000003],[102.62271530600003,2.589285782000047],[102.62890390700005,2.590712462000056],[102.63247425400004,2.587145759000066],[102.63437843900005,2.58809688100007],[102.63961494800009,2.605930280000052],[102.63842483200006,2.609496929000045],[102.62723774600005,2.618770170000062],[102.62557158400006,2.632085474000064],[102.63177971000005,2.650083570000049],[102.59688979800006,2.652266209000061],[102.58164144200003,2.663040031000037],[102.57085601900008,2.65858190900002],[102.56676499700006,2.66006795100003],[102.55226046300004,2.674556771000027],[102.55151664100003,2.68533039700003],[102.42841406000008,2.689416920000042]]]}},{"type":"Feature","properties":{"state":"Negeri Sembilan","district":"Seremban"},"geometry":{"type":"Polygon","coordinates":[[[101.92398635600006,2.967569063000042],[101.88156524300007,2.867747526000073],[101.75081524000007,2.871229821000043],[101.76127524000003,2.742377943000065],[101.76476190700004,2.723803540000063],[101.77870857400006,2.723223085000029],[101.78393857400005,2.714516230000072],[101.79381746300004,2.689556234000065],[101.79381746300004,2.668078618000038],[101.82635968600005,2.669820060000063],[101.83856302000004,2.650664059000064],[101.84379302000008,2.647761609000042],[101.84727968700008,2.651244549000069],[101.85309079800004,2.66691765500002],[101.85657746500004,2.66691765500002],[101.86878079900004,2.658790884000041],[101.87749746600008,2.658210398000051],[101.87865968800008,2.652405526000052],[101.87226746500005,2.628605267000069],[101.91003968900009,2.624541763000025],[101.91003968900009,2.607707104000042],[101.92805413400004,2.569392905000029],[101.93560857800009,2.561265503000072],[101.93677080100008,2.554879650000032],[101.93444635600008,2.54384946600004],[101.97047524600003,2.54384946600004],[101.97105635700007,2.553138048000051],[101.97802969100007,2.552557514000057],[101.97628635700005,2.563007093000067],[101.97396191300004,2.567070795000063],[101.96524524600005,2.571134485000073],[102.03121298100007,2.57053073700007],[102.03158489200007,2.624030921000042],[102.02898151400007,2.623287878000042],[102.02675004800005,2.645578962000059],[102.03121298100007,2.659324930000025],[102.04162649300008,2.670470198000032],[102.05327605967543,2.69045493938468],[102.04832089300004,2.700561914000048],[102.05501529300005,2.725452030000042],[102.05761867100006,2.745512346000055],[102.05166809300005,2.752942007000058],[102.05501529300005,2.769658575000051],[102.05129618200004,2.776345137000021],[102.05204000400005,2.799376336000023],[102.06170969300007,2.807920052000043],[102.06170969300007,2.812749082000039],[102.06617262700007,2.819063937000067],[102.06394116000007,2.826864593000039],[102.06984524900008,2.839308388000063],[102.06635858200008,2.842210373000057],[102.05066858200007,2.83408479600007],[102.04311413700003,2.838727990000052],[102.03032969200007,2.83466519600006],[102.02568080300006,2.83698679400004],[102.02393747000008,2.845692745000065],[102.01754524700004,2.842790769000032],[102.00243635800007,2.848014321000051],[101.99662524700005,2.853818240000066],[101.98500302400004,2.879355135000026],[101.98907080200007,2.892703739000069],[101.98500302400004,2.904891457000076],[101.98790858000007,2.911275448000026],[101.98674635800006,2.921141544000022],[101.98151635700003,2.924043320000067],[101.97686746800008,2.93855209000003],[101.95594746800003,2.948417946000063],[101.94723080100005,2.955962365000062],[101.93735191200005,2.96002472300006],[101.93270302300004,2.965828066000029],[101.92398635600006,2.967569063000042]]]}},{"type":"Feature","properties":{"state":"Negeri Sembilan","district":"Port Dickson"},"geometry":{"type":"Polygon","coordinates":[[[102.01150169200008,2.570902274000048],[101.96524524600005,2.571134485000073],[101.97396191300004,2.567070795000063],[101.97628635700005,2.563007093000067],[101.97802969100007,2.552557514000057],[101.97105635700007,2.553138048000051],[101.97047524600003,2.54384946600004],[101.93444635600008,2.54384946600004],[101.93677080100008,2.554879650000032],[101.93560857800009,2.561265503000072],[101.92805413400004,2.569392905000029],[101.91003968900009,2.607707104000042],[101.91003968900009,2.624541763000025],[101.87226746500005,2.628605267000069],[101.87865968800008,2.652405526000052],[101.87749746600008,2.658210398000051],[101.86878079900004,2.658790884000041],[101.85657746500004,2.66691765500002],[101.85309079800004,2.66691765500002],[101.84727968700008,2.651244549000069],[101.84379302000008,2.647761609000042],[101.83856302000004,2.650664059000064],[101.82635968600005,2.669820060000063],[101.79381746300004,2.668078618000038],[101.79381746300004,2.689556234000065],[101.78393857400005,2.714516230000072],[101.77870857400006,2.723223085000029],[101.76452323403824,2.725075014384551],[101.76083359500007,2.703533895000021],[101.74075039500008,2.673442252000029],[101.74037848400008,2.669355676000066],[101.74781670600004,2.66006795100003],[101.74744479500004,2.654866795000032],[101.73368408300007,2.648179562000053],[101.72513012800005,2.635919541000021],[101.73182452800006,2.622916357000065],[101.73070879400007,2.617715045000068],[101.72624586100005,2.616228952000029],[101.72141101600005,2.620315704000063],[101.71806381600004,2.619201137000061],[101.70281546000007,2.60768388300005],[101.71248515000008,2.59690958300007],[101.72141101600005,2.595051936000061],[101.72996497200006,2.594680406000066],[101.74409759500008,2.604711672000064],[101.75860212900005,2.60322556400007],[101.77236284000008,2.59690958300007],[101.78054488500004,2.590222041000061],[101.78575164100005,2.577218384000048],[101.78872693000005,2.578332988000057],[101.79393368500007,2.574617637000074],[101.79690897400008,2.566072287000054],[101.79244604100006,2.555669175000048],[101.79839661900007,2.543408257000067],[101.79095839600006,2.534862700000076],[101.79207413000006,2.522601584000029],[101.80806630800004,2.524087786000052],[101.81885173000006,2.519629175000034],[101.83298435300009,2.505510139000023],[101.84414168700005,2.485074423000071],[101.84786079800006,2.465009957000063],[101.85418328700007,2.457207028000028],[101.85715857600007,2.436770568000043],[101.85604284300007,2.416705379000064],[101.84972035400006,2.410760080000045],[101.85455519800007,2.403328421000026],[101.85715857600007,2.404443172000072],[101.86459679800004,2.418191699000033],[101.87724177700005,2.420792756000026],[101.89992835500004,2.418563279000068],[101.90848231100006,2.423393808000071],[101.93116888900005,2.426366433000055],[101.93674755600006,2.424136965000059],[101.94121049000006,2.413732733000074],[101.95720266800004,2.404071589000068],[101.96910382400006,2.401470500000073],[101.97505440200007,2.392924030000074],[102.01484889200003,2.41187482600003],[102.02712195900006,2.427481166000064],[102.02786578100006,2.436770568000043],[102.03121298100007,2.440486311000029],[102.03381635900007,2.52557398600004],[102.02935342600006,2.53189031900007],[102.03046915900006,2.543779802000074],[102.01187360300008,2.542665167000052],[102.01150169200008,2.570902274000048]]]}}]}