{"type":"FeatureCollection","features":[{"type":"Feature","properties":{"state":"Pahang","district":"Cameron Highlands"},"geometry":{"type":"Polygon","coordinates":[[[101.37440281273642,4.614779202893613],[101.37333195900004,4.610285265000073],[101.36476312700006,4.607200969000075],[101.36357301100008,4.601032338000039],[101.34833953200007,4.591779291000023],[101.35143383200005,4.588220395000064],[101.35476615600004,4.575170957000068],[101.35595627100008,4.567578448000063],[101.35357604000006,4.554765906000057],[101.35571824800007,4.546461358000045],[101.36595324200005,4.528665577000027],[101.37237986700006,4.529377417000035],[101.38237683800008,4.522496271000023],[101.38689927700005,4.506123627000022],[101.38047265300008,4.503750749000062],[101.37880649100003,4.499242260000074],[101.36119278000007,4.497818521000056],[101.35881254900005,4.495682907000059],[101.36761940400004,4.485716627000045],[101.36024068800003,4.477885882000066],[101.35714638700006,4.461037632000057],[101.34810150800007,4.453206624000074],[101.33977069900004,4.450596269000073],[101.33810453800004,4.446087453000075],[101.33358209800008,4.447036680000053],[101.33263000600004,4.443951689000073],[101.33358209800008,4.43161159400006],[101.34167488400004,4.433984705000057],[101.35238592500008,4.427814600000033],[101.35309999400005,4.421407129000045],[101.34833953200007,4.415474236000023],[101.34929162400005,4.412389113000074],[101.35452813300009,4.409541296000043],[101.35786045600008,4.397437951000029],[101.36547719600009,4.398624562000066],[101.36833347400005,4.404557590000024],[101.37404602800007,4.407405426000025],[101.38962226100006,4.409845064000024],[101.39708666600006,4.403314031000036],[101.39982869300007,4.405136651000021],[101.40790243700008,4.394200866000062],[101.41323415500005,4.392985769000063],[101.41673785500006,4.395264074000067],[101.43547503500008,4.391770670000028],[101.44461512200007,4.377796889000024],[101.43638904300008,4.371113684000022],[101.43440869100004,4.356380044000048],[101.42926739200004,4.35068397200007],[101.42331681400003,4.349259948000054],[101.42236472100006,4.344987857000035],[101.42545902200004,4.340478402000031],[101.44473889400007,4.333832840000071],[101.44450087100006,4.326712531000055],[101.45735412000005,4.323425855000039],[101.47478745400008,4.329220408000026],[101.48640967600005,4.322846397000035],[101.49919412100007,4.332697118000056],[101.51604634400007,4.330958765000048],[101.52883078900004,4.339071046000072],[101.54916967800006,4.346024360000058],[101.55846745600007,4.359930797000061],[101.57764412300008,4.354715913000064],[101.58519856800007,4.355295346000048],[101.58577967900004,4.370360455000025],[101.59275301300005,4.380789968000045],[101.59217190200008,4.388322304000042],[101.60786190200008,4.403966143000048],[101.60844301300006,4.41033946500005],[101.60146968000004,4.431197226000052],[101.60437523500008,4.445681436000029],[101.59217190200008,4.452633756000068],[101.58810412400004,4.459006658000021],[101.59159079000005,4.474069661000044],[101.58113079000003,4.493766967000056],[101.58113079000003,4.502456786000039],[101.59159079000005,4.527946322000048],[101.59159079000005,4.538373601000046],[101.58640727900007,4.562981381000043],[101.57971287900006,4.562981381000043],[101.56855554500004,4.578922695000074],[101.56409261200008,4.580776313000058],[101.55107572300005,4.577069072000029],[101.54214985600004,4.595975800000076],[101.51983518800006,4.612287084000059],[101.51090932100004,4.608950715000049],[101.50012389900007,4.613399203000029],[101.49194185400006,4.601165794000053],[101.48227216500004,4.60227793100006],[101.47371820900008,4.581888482000068],[101.47557776500008,4.575586170000065],[101.47074292000008,4.575215444000037],[101.44917207500004,4.577069072000029],[101.44322149700008,4.590044331000058],[101.43317989700006,4.595234369000025],[101.42871696300006,4.60487291000004],[101.40528656300006,4.615994142000034],[101.40193936300005,4.617106255000067],[101.39487305100005,4.612657790000071],[101.38631909500003,4.611174963000053],[101.37440281273642,4.614779202893613]]]}},{"type":"Feature","properties":{"state":"Pahang","district":"Lipis"},"geometry":{"type":"Polygon","coordinates":[[[101.58901065700007,4.555195960000049],[101.59159079000005,4.527946322000048],[101.58113079000003,4.502456786000039],[101.58113079000003,4.493766967000056],[101.59159079000005,4.474069661000044],[101.58810412400004,4.459006658000021],[101.59217190200008,4.452633756000068],[101.60437523500008,4.445681436000029],[101.60146968000004,4.431197226000052],[101.60844301300006,4.41033946500005],[101.60786190200008,4.403966143000048],[101.59217190200008,4.388322304000042],[101.59275301300005,4.380789968000045],[101.58577967900004,4.370360455000025],[101.58519856800007,4.355295346000048],[101.57764412300008,4.354715913000064],[101.55846745600007,4.359930797000061],[101.54916967800006,4.346024360000058],[101.52883078900004,4.339071046000072],[101.51604634400007,4.330958765000048],[101.49919412100007,4.332697118000056],[101.48640967600005,4.322846397000035],[101.47478745400008,4.329220408000026],[101.45735412000005,4.323425855000039],[101.44450087100006,4.326712531000055],[101.44470914200008,4.319740496000065],[101.45028780800004,4.315661084000055],[101.44842825300003,4.308243916000038],[101.45103163100003,4.301939266000034],[101.44619678600009,4.294521964000069],[101.44768443100008,4.28673371900004],[101.44470914200008,4.278945395000051],[101.44565925800003,4.272649196000032],[101.46018703600004,4.259067136000056],[101.46381898100009,4.252728759000036],[101.45292314700004,4.240051849000054],[101.45110717500006,4.228280246000054],[101.45292314700004,4.221941616000038],[101.46472696700005,4.215602935000049],[101.48561064800003,4.211980808000021],[101.49469051000005,4.207453126000075],[101.51194224600005,4.205642046000037],[101.51103426000009,4.199303232000034],[101.49923044000008,4.186625450000065],[101.49650648200009,4.157646892000059],[101.50286238500007,4.148590873000046],[101.51624986900003,4.11725215000007],[101.53289856600009,4.126385078000055],[101.53812856700006,4.120009400000072],[101.55904856700005,4.10899674500007],[101.56079190100007,4.102620928000022],[101.56544079000008,4.096824687000037],[101.57590079000005,4.090448773000048],[101.58262120400008,4.077549630000021],[101.61599745800004,4.084652443000039],[101.62994412500007,4.095085806000043],[101.65202634800005,4.08175426300005],[101.66306745900005,4.078276432000052],[101.67759523700005,4.078856072000065],[101.69270412700007,4.072480015000053],[101.69967746000003,4.073639302000061],[101.70897523800005,4.081174625000074],[101.71652968300003,4.094506179000064],[101.72408412800007,4.094506179000064],[101.72757079400009,4.098563564000074],[101.73744968400007,4.100302437000039],[101.74035523900005,4.104939413000068],[101.73744968400007,4.112474442000064],[101.74035523900005,4.11827057000005],[101.75023412800005,4.115952124000046],[101.75720746200005,4.10609865300006],[101.77173524000006,4.095085806000043],[101.77464079600009,4.086391347000074],[101.79149301900009,4.082333900000037],[101.80543968600006,4.084652443000039],[101.80834524100004,4.077117152000028],[101.81415635300004,4.034802287000048],[101.83333302000005,4.031903928000077],[101.83856302000004,4.027846207000039],[101.85367190900007,4.033642944000064],[101.85948302100007,4.048714268000026],[101.86413191000008,4.055670169000052],[101.87691635400006,4.066683556000044],[101.87691635400006,4.072480015000053],[101.88156524300007,4.078856072000065],[101.88737635500007,4.073059659000023],[101.89609302200006,4.073639302000061],[101.90422857700008,4.088709878000031],[101.90306635500008,4.102041306000046],[101.91410746700006,4.103780171000039],[101.92747302300006,4.091608034000046],[101.95013635700008,4.085811713000055],[101.94781191200008,4.078856072000065],[101.95362302300003,4.07074108200004],[101.94897413400008,4.063785311000061],[101.94723080100005,4.05335154200003],[101.93735191200005,4.038859973000058],[101.95013635700008,4.016252609000048],[101.96175857900005,4.00639792000004],[101.96408302400005,3.999441598000033],[101.96175857900005,3.98900700400003],[101.94141969000003,3.97219543600005],[101.92805413400004,3.947847040000056],[101.94200080100006,3.944368639000061],[101.95478524600009,3.929875147000075],[101.95652857900006,3.922338431000071],[101.98325969100006,3.928135911000027],[101.98965191300005,3.934513092000032],[101.99546302500005,3.944948374000035],[101.99720635800008,3.95596325200006],[102.00824746900008,3.970456289000026],[102.01347747000005,3.976833144000068],[102.02916747000006,3.987267893000023],[102.04311413700003,3.972775151000064],[102.05008747100004,3.97103600500003],[102.05647969300009,3.973354865000033],[102.08204858300007,3.971615721000035],[102.10877969500007,3.979151989000059],[102.12098302800007,3.998282205000066],[102.12795636200008,4.003499460000057],[102.12621302800005,4.010455747000037],[102.11982080600006,4.017411976000062],[102.10038845000008,4.024855074000072],[102.09443787200007,4.032274918000041],[102.09109067200006,4.039323707000051],[102.09741316100008,4.058985794000023],[102.09332213900007,4.06900214500007],[102.09369405000007,4.074195759000077],[102.11043005000005,4.075679643000058],[102.11452107300005,4.078276432000052],[102.12753796200008,4.065663375000042],[102.14501778500005,4.063808497000025],[102.15134027400006,4.052308157000027],[102.15394365100008,4.037468768000053],[102.16844818500005,4.039694694000048],[102.16807627400004,4.033758879000061],[102.17105156300005,4.029306989000077],[102.19076285300008,4.029306989000077],[102.20303592000005,4.026710042000047],[102.20526738600006,4.01632217100007],[102.21010223100006,4.013354183000047],[102.21865618700008,4.021516123000026],[102.21902809800008,4.039694694000048],[102.23464836500006,4.036726792000024],[102.23836747600006,4.047114402000034],[102.24506187600008,4.053421101000026],[102.25928747700004,4.052192226000045],[102.26451747700008,4.062626010000031],[102.27439636600008,4.061466707000022],[102.28369414400004,4.054510856000036],[102.29182970000005,4.067842851000023],[102.31391192300003,4.089869142000055],[102.31623636700004,4.099143188000028],[102.30054636700004,4.101461683000025],[102.29415414500005,4.115372511000032],[102.28718081100004,4.119429790000027],[102.27846414400005,4.119429790000027],[102.27149081100004,4.114792898000076],[102.26451747700008,4.114792898000076],[102.25580081000004,4.11827057000005],[102.25173303200006,4.124646261000066],[102.25115192100009,4.13160150300007],[102.24708414300005,4.136817894000046],[102.24824636500006,4.143193437000036],[102.25347636600009,4.148989340000071],[102.25812525500004,4.166376795000076],[102.26916636600004,4.184922989000029],[102.26974747700007,4.209843746000047],[102.26393636600005,4.21274145600006],[102.26219303200008,4.22201405800007],[102.24359747600005,4.244615560000057],[102.24650303200008,4.254467290000036],[102.24592192100005,4.262580385000035],[102.24301636500007,4.268375400000025],[102.23662414300009,4.27243188500006],[102.23429969800009,4.279385809000075],[102.23836747600006,4.286339669000029],[102.23546192100008,4.293293466000023],[102.22965080900008,4.296770341000069],[102.22790747600004,4.305462459000069],[102.23313747600008,4.313575013000047],[102.23371858700006,4.319369641000037],[102.22790747600004,4.321108021000043],[102.22965080900008,4.332117668000024],[102.21570414200005,4.328061501000036],[102.21337969800004,4.334435468000038],[102.22093414200003,4.357033644000069],[102.21105525300004,4.366883918000042],[102.20931192000006,4.372098717000029],[102.21047414200007,4.390060525000024],[102.21802858700005,4.396433965000028],[102.21396080900007,4.408601292000071],[102.21454192000004,4.419030270000064],[102.23662414300009,4.421927182000047],[102.23546192100008,4.430617851000022],[102.25405747700006,4.430038477000039],[102.25347636600009,4.43525283300005],[102.24185414300007,4.446840160000022],[102.23778636500003,4.454951181000069],[102.24998969900008,4.495504939000057],[102.25173303200006,4.511725812000066],[102.25696303200004,4.516939587000024],[102.25812525500004,4.521574022000038],[102.25463858800003,4.527367024000057],[102.24882747700008,4.530842803000041],[102.22732636500007,4.563282601000026],[102.21628525300008,4.585873738000032],[102.21686636400005,4.601513337000029],[102.22576591081484,4.632738693269428],[102.21653948900007,4.632031287000075],[102.20291969700008,4.63836640300002],[102.19656379400004,4.646511468000028],[102.17477212700004,4.664611275000027],[102.17477212700004,4.679090785000028],[102.15842837700006,4.694474936000063],[102.13845268200004,4.704429206000043],[102.12755684800004,4.718907890000025],[102.12392490300005,4.745149735000041],[102.11847698700007,4.756008138000027],[102.11121309700007,4.759627567000052],[102.06672177700005,4.743339985000034],[102.05673392900007,4.744244860000038],[102.04856205400006,4.728861811000058],[102.03948219300008,4.728861811000058],[102.03494226200007,4.737910705000047],[102.02858635900009,4.742435108000052],[102.02313844200006,4.737005821000025],[102.01405858100009,4.739720470000066],[102.00679469200008,4.749674090000042],[102.00316274700003,4.762342127000068],[101.99589885800003,4.765056676000029],[101.98772698300007,4.748769222000021],[101.98137108000009,4.745149735000041],[101.96230337100008,4.765961523000044],[101.95049955100006,4.759627567000052],[101.95049955100006,4.741530229000034],[101.95413149600006,4.720717705000027],[101.94051170300008,4.664611275000027],[101.92779989800005,4.654656439000064],[101.91236413300004,4.613025601000061],[101.89602038300006,4.616645771000037],[101.88784850700006,4.646511468000028],[101.89329642400008,4.657371408000074],[101.89238843800007,4.664611275000027],[101.88603253500008,4.672756036000067],[101.86968878500005,4.679995744000053],[101.86696482600007,4.690855166000063],[101.85697697900008,4.685425477000024],[101.84971309000008,4.687235378000025],[101.84608114500008,4.697189751000053],[101.84517315900007,4.718907890000025],[101.83881725600008,4.720717705000027],[101.83155336700008,4.717098071000066],[101.82338149200007,4.717098071000066],[101.82065753300009,4.72795691500005],[101.82247350600005,4.746054608000065],[101.81848031400006,4.76268320500003],[101.81706190800008,4.759048460000031],[101.79730413000004,4.76426040900003],[101.79439857400007,4.756732025000076],[101.78684412900009,4.756732025000076],[101.78045190700004,4.760206674000074],[101.77347857400008,4.736462890000041],[101.77638412900006,4.709822551000059],[101.77115412900008,4.686077042000022],[101.77522190700006,4.670439314000021],[101.77405968500005,4.661751537000043],[101.76999190700008,4.654801237000072],[101.76476190700004,4.626420138000071],[101.76011301800008,4.622944823000068],[101.75546412900007,4.623524043000032],[101.75255857300004,4.611360316000059],[101.74267968400005,4.613677233000033],[101.73105746100003,4.621786381000049],[101.72524635000008,4.618311043000062],[101.72698968300006,4.614256461000025],[101.72234079400005,4.610201855000071],[101.70723190500007,4.606726461000051],[101.69649297100005,4.600053656000057],[101.67901314900007,4.594863653000061],[101.67455021500007,4.595975800000076],[101.66748390400005,4.583000648000052],[101.66339288100005,4.566317965000053],[101.64926025900007,4.557420375000049],[101.63921865800006,4.560015516000021],[101.63475572500005,4.55853257900003],[101.62136692500007,4.546298232000026],[101.61430061300007,4.55927404800002],[101.60909385800005,4.562239916000067],[101.59607696800003,4.55927404800002],[101.58901065700007,4.555195960000049]]]}},{"type":"Feature","properties":{"state":"Pahang","district":"Jerantut"},"geometry":{"type":"Polygon","coordinates":[[[102.65838597435527,4.761798323300236],[102.63705619900009,4.765742912000064],[102.62924606600006,4.773526],[102.61102242100009,4.781679616000076],[102.59874935400006,4.770561025000063],[102.60395610900008,4.760554138000032],[102.59428642000006,4.739428012000076],[102.60098082000007,4.729420674000039],[102.60507184300008,4.701621755000076],[102.60321228700008,4.688648546000024],[102.59688979800006,4.686795210000071],[102.58498864200004,4.695320512000023],[102.57234366400007,4.691613872000062],[102.56193015200006,4.69939779300006],[102.55523575200004,4.70792294000006],[102.54742561900008,4.710517530000061],[102.54221886300007,4.696432500000071],[102.53180535200005,4.686795210000071],[102.52917222100007,4.67837359300006],[102.51655699600008,4.673628975000042],[102.51227257900007,4.668884325000022],[102.50013340000004,4.675526826000066],[102.49418282200008,4.685253232000036],[102.48680410600008,4.688099959000056],[102.46419191000007,4.707315064000056],[102.45681319300007,4.706128961000047],[102.44586412900009,4.712533890000032],[102.42682228000007,4.710398920000046],[102.41872949400005,4.714668852000045],[102.40801845400006,4.716329375000043],[102.40230589900005,4.711585015000026],[102.37945568000004,4.713957199000049],[102.36363324400008,4.706239058000051],[102.36181727200005,4.698999622000031],[102.36726518800003,4.692665054000031],[102.36908116100005,4.683615571000075],[102.36272525800007,4.671851067000034],[102.35092143800006,4.665516253000021],[102.34002560400006,4.641986443000064],[102.32912977100005,4.637461390000055],[102.31278602000003,4.636556376000044],[102.28373046400009,4.656466419000026],[102.26829469900008,4.662801315000024],[102.23197525400008,4.653751447000047],[102.23560719800008,4.639271415000053],[102.22576591081484,4.632738693269428],[102.21512303100008,4.592245468000044],[102.22732636500007,4.563282601000026],[102.24882747700008,4.530842803000041],[102.25463858800003,4.527367024000057],[102.25812525500004,4.521574022000038],[102.25696303200004,4.516939587000024],[102.25173303200006,4.511725812000066],[102.24998969900008,4.495504939000057],[102.23778636500003,4.454951181000069],[102.24185414300007,4.446840160000022],[102.25347636600009,4.43525283300005],[102.25405747700006,4.430038477000039],[102.23546192100008,4.430617851000022],[102.23662414300009,4.421927182000047],[102.21454192000004,4.419030270000064],[102.21396080900007,4.408601292000071],[102.21802858700005,4.396433965000028],[102.21047414200007,4.390060525000024],[102.20931192000006,4.372098717000029],[102.21105525300004,4.366883918000042],[102.22093414200003,4.357033644000069],[102.21337969800004,4.334435468000038],[102.21570414200005,4.328061501000036],[102.22965080900008,4.332117668000024],[102.22790747600004,4.321108021000043],[102.23371858700006,4.319369641000037],[102.23313747600008,4.313575013000047],[102.22790747600004,4.305462459000069],[102.22965080900008,4.296770341000069],[102.23546192100008,4.293293466000023],[102.23836747600006,4.286339669000029],[102.23429969800009,4.279385809000075],[102.23662414300009,4.27243188500006],[102.24301636500007,4.268375400000025],[102.24592192100005,4.262580385000035],[102.24650303200008,4.254467290000036],[102.24359747600005,4.244615560000057],[102.26219303200008,4.22201405800007],[102.26393636600005,4.21274145600006],[102.26974747700007,4.209843746000047],[102.26916636600004,4.184922989000029],[102.25812525500004,4.166376795000076],[102.25347636600009,4.148989340000071],[102.24824636500006,4.143193437000036],[102.24708414300005,4.136817894000046],[102.25115192100009,4.13160150300007],[102.25173303200006,4.124646261000066],[102.25580081000004,4.11827057000005],[102.26451747700008,4.114792898000076],[102.27149081100004,4.114792898000076],[102.27846414400005,4.119429790000027],[102.28718081100004,4.119429790000027],[102.29415414500005,4.115372511000032],[102.30054636700004,4.101461683000025],[102.31623636700004,4.099143188000028],[102.31391192300003,4.089869142000055],[102.29182970000005,4.067842851000023],[102.28369414400004,4.054510856000036],[102.27439636600008,4.061466707000022],[102.26451747700008,4.062626010000031],[102.25928747700004,4.052192226000045],[102.24506187600008,4.053421101000026],[102.23836747600006,4.047114402000034],[102.23464836500006,4.036726792000024],[102.21902809800008,4.039694694000048],[102.21865618700008,4.021516123000026],[102.21010223100006,4.013354183000047],[102.20526738600006,4.01632217100007],[102.20303592000005,4.026710042000047],[102.19076285300008,4.029306989000077],[102.17105156300005,4.029306989000077],[102.16807627400004,4.033758879000061],[102.16844818500005,4.039694694000048],[102.15394365100008,4.037468768000053],[102.15134027400006,4.052308157000027],[102.14501778500005,4.063808497000025],[102.12753796200008,4.065663375000042],[102.11452107300005,4.078276432000052],[102.11043005000005,4.075679643000058],[102.09369405000007,4.074195759000077],[102.09332213900007,4.06900214500007],[102.09741316100008,4.058985794000023],[102.09109067200006,4.039323707000051],[102.09443787200007,4.032274918000041],[102.10038845000008,4.024855074000072],[102.11982080600006,4.017411976000062],[102.12621302800005,4.010455747000037],[102.12795636200008,4.003499460000057],[102.12098302800007,3.998282205000066],[102.10877969500007,3.979151989000059],[102.08204858300007,3.971615721000035],[102.06170969300007,3.973354865000033],[102.06170969300007,3.956542978000073],[102.06577747100005,3.941469961000053],[102.07216969400008,3.938571273000036],[102.07681858300003,3.92581692400006],[102.09425191600008,3.909583834000045],[102.09599525000004,3.904365989000041],[102.08844080500006,3.885813386000052],[102.09018413800004,3.875957150000033],[102.08262969400005,3.865521010000066],[102.07681858300003,3.850446360000035],[102.09483302800004,3.840589713000043],[102.10819858300005,3.83595125100004],[102.11807747300008,3.835371442000053],[102.12272636200004,3.838270485000066],[102.12853747300005,3.847547358000043],[102.14248414000008,3.846967556000038],[102.16340414100006,3.857983718000071],[102.18490525200008,3.86030289200005],[102.19943303100007,3.868419951000021],[102.20756858600004,3.865521010000066],[102.21512303100008,3.867840164000029],[102.20989303100004,3.878276275000076],[102.22209636500008,3.886972936000063],[102.22906969800005,3.888712257000066],[102.23720525400006,3.882334728000046],[102.24359747600005,3.863201851000042],[102.23836747600006,3.849866560000066],[102.24011081000003,3.834211822000043],[102.24475969900004,3.827833883000039],[102.25580081000004,3.827254068000059],[102.26161192100005,3.83015313900006],[102.27381525500004,3.831312765000064],[102.28834303300005,3.840009906000034],[102.29299192200006,3.83363201100002],[102.29880303400006,3.811019090000059],[102.30810081200008,3.801741822000054],[102.31972303400005,3.815657687000055],[102.36330636900004,3.814498040000046],[102.39526748100008,3.753034534000051],[102.40572748100004,3.754194263000045],[102.40572748100004,3.748975470000062],[102.42316081500007,3.739697539000076],[102.43478303800003,3.743176775000052],[102.43652637100007,3.750715071000059],[102.43420192600007,3.756513716000029],[102.44001303800007,3.761732464000033],[102.44117526000008,3.769270600000027],[102.43885081500008,3.777388520000045],[102.45860859400005,3.787825733000034],[102.46209526100006,3.79536364300003],[102.45221637100008,3.812178742000071],[102.45221637100008,3.822035716000073],[102.45628414900006,3.830732952000062],[102.47081192800005,3.842908934000036],[102.47081192800005,3.849286760000041],[102.48185303900004,3.857983718000071],[102.48069081700004,3.86436143100002],[102.47546081700006,3.86899973800007],[102.46964970500005,3.869579525000063],[102.46906859400008,3.875377368000045],[102.48243415000007,3.883494282000072],[102.49405637300003,3.882334728000046],[102.49986748400005,3.856244334000053],[102.51962526200003,3.826094437000052],[102.55797859700004,3.84580795200003],[102.56204637500008,3.834791632000076],[102.57366859700005,3.835371442000053],[102.58006082000009,3.84580795200003],[102.58935859800005,3.841749324000034],[102.61492748700005,3.856244334000053],[102.62364415400003,3.853345352000076],[102.64805082200007,3.85218575600004],[102.65444304400006,3.848127159000057],[102.67652526700005,3.846387754000034],[102.68233637800006,3.842329129000063],[102.70558082300005,3.83595125100004],[102.70964860100008,3.841749324000034],[102.71081082400008,3.849286760000041],[102.72417638000007,3.855084742000031],[102.72882526900008,3.859723099000064],[102.73114971300004,3.874217803000022],[102.74335304700008,3.891611118000071],[102.74451526900003,3.897408811000048],[102.74044749100005,3.908424316000037],[102.75497526900006,3.914801647000047],[102.76136749200003,3.920599179000021],[102.76194860300006,3.926976418000038],[102.77589527000003,3.942629434000025],[102.79216638200006,3.945528108000076],[102.80030193700009,3.959441604000062],[102.80030193700009,3.965818544000058],[102.81482971600008,3.955383525000059],[102.82819527100008,3.933353608000061],[102.84911527200006,3.934513092000032],[102.86015638400005,3.95886187900004],[102.86073749500008,3.976833144000068],[102.86712971700007,3.997702508000032],[102.87933305100006,4.00639792000004],[102.89909082900004,4.008716681000067],[102.91129416300004,4.017411976000062],[102.91652416300008,4.036541298000031],[102.91710527400005,4.046975283000052],[102.91419971800008,4.062626010000031],[102.92001083000008,4.086391347000074],[102.92660544476135,4.10050652848907],[102.91450189600005,4.10609865300006],[102.91227043000004,4.110179164000044],[102.90706367400009,4.112404888000071],[102.89553442900007,4.134290847000045],[102.89032767300006,4.138000272000056],[102.92117305200009,4.158842278000066],[102.92059194100005,4.195934584000042],[102.91245638500004,4.216218695000066],[102.91942971900005,4.220854989000031],[102.92059194100005,4.230127494000044],[102.92756527400007,4.234184180000057],[102.93221416300008,4.240558929000031],[102.93047083000005,4.277067841000076],[102.93395749700005,4.283442235000052],[102.93860638600006,4.286339669000029],[102.95080972000005,4.286339669000029],[102.95778305300007,4.292713986000024],[102.95720194200004,4.311257149000028],[102.96766194200006,4.328640955000026],[102.97405416500004,4.332117668000024],[102.98451416500006,4.33327656900002],[102.99846083200003,4.328640955000026],[103.01415083300009,4.332697118000056],[103.01298861000004,4.339071046000072],[103.00775861000005,4.341388825000024],[103.00543416600004,4.379631141000061],[103.00833972100008,4.384845851000023],[103.01938083300007,4.390639931000067],[103.02635416600003,4.401648558000034],[103.02332879400007,4.408870082000021],[103.01879972200004,4.406863114000032],[103.00892083200006,4.417871502000025],[103.01240749900006,4.432935346000022],[103.00601527700007,4.446840160000022],[102.98858194300004,4.454371825000067],[102.98683861000006,4.466538198000023],[102.97695972000008,4.472910980000051],[102.97231083100007,4.482180381000035],[102.97056749800004,4.475807680000059],[102.95429638600007,4.471752296000034],[102.95720194200004,4.457847953000055],[102.95371527500004,4.45205439800003],[102.94848527500005,4.450895682000066],[102.94209305300006,4.453792469000064],[102.92988971900007,4.468855580000024],[102.91478083000004,4.465958852000028],[102.89967194000008,4.470593611000027],[102.89386082900006,4.470014268000057],[102.87817082900006,4.463062112000046],[102.87468416200005,4.471752296000034],[102.87758971700003,4.481021712000029],[102.86712971700007,4.492028991000041],[102.85202082800004,4.494925616000046],[102.84795305000006,4.500718831000029],[102.84853416100003,4.523891228000025],[102.83865527200004,4.538952890000076],[102.83749305000003,4.549959290000061],[102.83923638300007,4.555752064000046],[102.85608860600007,4.563282601000026],[102.86189971700009,4.561544792000063],[102.87119749500005,4.567337473000066],[102.87468416200005,4.577184924000051],[102.87410305100008,4.584135984000056],[102.86306193900003,4.591666222000072],[102.86131860600005,4.59745865900004],[102.86306193900003,4.60325104900005],[102.88340082900004,4.606726461000051],[102.87642749500009,4.620048714000063],[102.87003527300004,4.622944823000068],[102.86596749500006,4.629316221000067],[102.87061638400007,4.635687561000054],[102.86829193900007,4.644954863000066],[102.86248082800006,4.655380432000072],[102.84562860500006,4.669860132000053],[102.84421173900006,4.682081418000053],[102.84039860500008,4.679706158000045],[102.82587082700007,4.681443677000061],[102.78286860300005,4.671597676000033],[102.77705749200004,4.676810282000076],[102.76601638100004,4.676810282000076],[102.75962415800007,4.683181192000063],[102.75206971400007,4.681443677000061],[102.74567749100004,4.689552045000028],[102.72998749100009,4.687235378000025],[102.72359526800005,4.694764517000067],[102.71022971200006,4.704031038000039],[102.70383749000007,4.713876582000069],[102.69744526800008,4.715614016000075],[102.68814749000006,4.713876582000069],[102.68117415600005,4.720826293000073],[102.66955193300004,4.735304635000034],[102.65838597435527,4.761798323300236]]]}},{"type":"Feature","properties":{"state":"Pahang","district":"Raub"},"geometry":{"type":"Polygon","coordinates":[[[101.62471412500008,3.778548216000047],[101.65188561000008,3.728620975000069],[101.66465416500006,3.722958055000049],[101.68593509000004,3.705969079000056],[101.72424075500004,3.713047859000028],[101.73842803900004,3.710216354000067],[101.74410295200005,3.69322713300005],[101.77531497600006,3.65075266100007],[101.78666480200008,3.623851122000076],[101.80397466200009,3.609365910000065],[101.81996746400006,3.620235494000042],[101.82519746400004,3.626034990000051],[101.82577857500007,3.630094616000065],[101.84030635300007,3.641693445000044],[101.85018524200007,3.635894049000058],[101.88214635500003,3.651552333000041],[101.86761857600004,3.677648864000048],[101.86413191000008,3.691566702000046],[101.87226746500005,3.695046128000058],[101.87575413200005,3.689826984000035],[101.88330857700004,3.685187720000044],[101.89609302200006,3.66605050000004],[101.91003968900009,3.666630421000036],[101.91585080000004,3.661991037000064],[101.92747302300006,3.66315088500005],[101.93677080100008,3.659091409000041],[101.93967635600006,3.641693445000044],[101.94548746800007,3.634154223000053],[101.94606857900004,3.613856005000059],[101.95246080100009,3.605156629000021],[101.95420413400007,3.597037137000029],[101.96117746800007,3.590077514000029],[101.96233969000008,3.580217958000048],[101.97512413500004,3.570358296000052],[101.97105635700007,3.561078518000045],[101.97570524600008,3.557018585000037],[101.98267858000008,3.555278608000037],[101.99081413600004,3.565138432000026],[101.99836858000003,3.565138432000026],[102.00476080300007,3.559338549000074],[102.01231524700006,3.558178568000073],[102.01696413600007,3.563398471000028],[102.02858635900009,3.588917572000071],[102.02626191400009,3.602256819000047],[102.01928858100007,3.609216348000075],[102.01870747000004,3.614435960000037],[102.02219413600005,3.620815445000062],[102.03439747000004,3.628354779000063],[102.03614080400007,3.635314107000056],[102.03381635900007,3.638793752000026],[102.03846524800008,3.642853320000029],[102.04950636000007,3.63647399000007],[102.05066858200007,3.641113507000057],[102.05066858200007,3.646332935000032],[102.04195191500008,3.66315088500005],[102.04427635900004,3.684027900000046],[102.03614080400007,3.693306417000031],[102.04078969300008,3.708383799000046],[102.05650293700006,3.716502283000068],[102.06319733800007,3.733945173000052],[102.08437302700008,3.749555337000061],[102.08437302700008,3.76231232300006],[102.09367080500004,3.771010161000049],[102.09715747200005,3.82841369800002],[102.11007216500008,3.835841287000051],[102.09483302800004,3.840589713000043],[102.07681858300003,3.850446360000035],[102.08262969400005,3.865521010000066],[102.09018413800004,3.875957150000033],[102.08844080500006,3.885813386000052],[102.09599525000004,3.904365989000041],[102.09425191600008,3.909583834000045],[102.07681858300003,3.92581692400006],[102.07216969400008,3.938571273000036],[102.06577747100005,3.941469961000053],[102.06170969300007,3.956542978000073],[102.06170969300007,3.973354865000033],[102.05008747100004,3.97103600500003],[102.04311413700003,3.972775151000064],[102.02916747000006,3.987267893000023],[102.01347747000005,3.976833144000068],[102.00824746900008,3.970456289000026],[101.99720635800008,3.95596325200006],[101.99546302500005,3.944948374000035],[101.98965191300005,3.934513092000032],[101.98325969100006,3.928135911000027],[101.96292080100005,3.922338431000071],[101.95652857900006,3.922338431000071],[101.95478524600009,3.929875147000075],[101.94200080100006,3.944368639000061],[101.92805413400004,3.947847040000056],[101.94141969000003,3.97219543600005],[101.96175857900005,3.98900700400003],[101.96408302400005,3.999441598000033],[101.96175857900005,4.00639792000004],[101.95013635700008,4.016252609000048],[101.93735191200005,4.038859973000058],[101.94723080100005,4.05335154200003],[101.94897413400008,4.063785311000061],[101.95362302300003,4.07074108200004],[101.94781191200008,4.078856072000065],[101.95013635700008,4.085811713000055],[101.92747302300006,4.091608034000046],[101.91410746700006,4.103780171000039],[101.90306635500008,4.102041306000046],[101.90422857700008,4.088709878000031],[101.90016080000004,4.078276432000052],[101.89609302200006,4.073639302000061],[101.88737635500007,4.073059659000023],[101.88156524300007,4.078856072000065],[101.87691635400006,4.072480015000053],[101.87691635400006,4.066683556000044],[101.86413191000008,4.055670169000052],[101.85948302100007,4.048714268000026],[101.85367190900007,4.033642944000064],[101.83856302000004,4.027846207000039],[101.83333302000005,4.031903928000077],[101.81415635300004,4.034802287000048],[101.80834524100004,4.077117152000028],[101.80543968600006,4.084652443000039],[101.79149301900009,4.082333900000037],[101.77464079600009,4.086391347000074],[101.77173524000006,4.095085806000043],[101.75720746200005,4.10609865300006],[101.75023412800005,4.115952124000046],[101.74035523900005,4.11827057000005],[101.73744968400007,4.112474442000064],[101.74035523900005,4.104939413000068],[101.73744968400007,4.100302437000039],[101.72757079400009,4.098563564000074],[101.72408412800007,4.094506179000064],[101.71652968300003,4.094506179000064],[101.70897523800005,4.081174625000074],[101.69967746000003,4.073639302000061],[101.69270412700007,4.072480015000053],[101.67759523700005,4.078856072000065],[101.66306745900005,4.078276432000052],[101.64389079200004,4.085232078000047],[101.62994412500007,4.095085806000043],[101.61599745800004,4.084652443000039],[101.58262120400008,4.077549630000021],[101.55846745600007,4.029005558000051],[101.55846745600007,4.009876059000021],[101.57357634500005,3.994224318000022],[101.57183301200007,3.987847597000041],[101.57706301200005,3.960021328000039],[101.57357634500005,3.943209169000056],[101.57706301200005,3.929875147000075],[101.57299523400008,3.911902866000048],[101.57764412300008,3.900887407000027],[101.60437523500008,3.878856055000028],[101.59972634600007,3.859723099000064],[101.60205079100007,3.846387754000034],[101.59159079000005,3.840009906000034],[101.58984745700008,3.836531060000027],[101.59623967900006,3.821455897000021],[101.59100967900008,3.800582157000065],[101.59682079100008,3.79536364300003],[101.61018634600003,3.794783806000055],[101.62471412500008,3.778548216000047]]]}},{"type":"Feature","properties":{"state":"Pahang","district":"Kuantan"},"geometry":{"type":"Polygon","coordinates":[[[102.92660544476135,4.10050652848907],[102.92001083000008,4.086391347000074],[102.91419971800008,4.062626010000031],[102.91710527400005,4.046975283000052],[102.91652416300008,4.036541298000031],[102.91129416300004,4.017411976000062],[102.89909082900004,4.008716681000067],[102.87933305100006,4.00639792000004],[102.86712971700007,3.997702508000032],[102.86073749500008,3.976833144000068],[102.86015638400005,3.95886187900004],[102.84911527200006,3.934513092000032],[102.82819527100008,3.933353608000061],[102.81482971600008,3.955383525000059],[102.80030193700009,3.965818544000058],[102.80030193700009,3.959441604000062],[102.79216638200006,3.945528108000076],[102.77589527000003,3.942629434000025],[102.76194860300006,3.926976418000038],[102.76136749200003,3.920599179000021],[102.75497526900006,3.914801647000047],[102.74044749100005,3.908424316000037],[102.74451526900003,3.897408811000048],[102.74335304700008,3.891611118000071],[102.73114971300004,3.874217803000022],[102.72882526900008,3.859723099000064],[102.72417638000007,3.855084742000031],[102.71255415700006,3.851026159000071],[102.70964860100008,3.841749324000034],[102.70558082300005,3.83595125100004],[102.70343385200005,3.83654034500006],[102.71069460100006,3.831173610000064],[102.71181033500005,3.827091720000055],[102.70846313500004,3.815588108000043],[102.71292606800006,3.810392878000073],[102.72259575700008,3.80556870700002],[102.73486882400005,3.791838229000064],[102.73858793500006,3.773654286000067],[102.75904304700003,3.755469963000053],[102.75829922500009,3.750645487000043],[102.76350598100004,3.748789912000063],[102.77020038100005,3.757325524000066],[102.78693638100003,3.757696635000059],[102.79325887000005,3.764747726000053],[102.80516002600007,3.75101660200005],[102.80106900400006,3.739883099000053],[102.80664767100006,3.727264958000035],[102.81073869300008,3.722069200000021],[102.82747469400005,3.713162116000035],[102.82747469400005,3.707595142000059],[102.82412749400004,3.701285863000066],[102.82970616000006,3.697574502000066],[102.83751629400007,3.707224009000072],[102.84235113900007,3.70907967200003],[102.84309496100008,3.717986798000027],[102.84644216100008,3.720584692000045],[102.86950065000008,3.717244541000071],[102.88214562900004,3.697203365000064],[102.89218722900006,3.690522872000031],[102.89255914000006,3.686440324000046],[102.88958385100005,3.682357757000034],[102.91375807400004,3.66862535000007],[102.92045247400006,3.657861964000062],[103.12574741400005,3.620003513000029],[103.35447275400008,3.605898979000074],[103.36860537600006,3.609610720000035],[103.37009302100006,3.606270154000072],[103.37381213200007,3.606270154000072],[103.37790315400008,3.609239546000026],[103.38310991000009,3.601073693000046],[103.39501106600005,3.604414278000036],[103.39612679900006,3.611095412000054],[103.37385862100007,3.63821381200006],[103.35758750900004,3.66315088500005],[103.33085639800004,3.716502283000068],[103.32678862000006,3.758833164000066],[103.34247862000007,3.802901486000053],[103.34654639800004,3.806960298000035],[103.35468195400006,3.808699783000066],[103.37153417600007,3.804061149000063],[103.37618306600007,3.806380469000032],[103.37676417700004,3.816237510000065],[103.37443973200004,3.823195353000074],[103.37618306600007,3.832472389000031],[103.36746639900008,3.862042269000028],[103.36572306500005,3.900887407000027],[103.36630417600009,3.913642136000021],[103.36920973200006,3.919439676000025],[103.39187306600007,3.956542978000073],[103.40407640000006,3.965818544000058],[103.40988751100008,3.967557701000032],[103.41686084400004,3.965238824000039],[103.42848306700006,3.956542978000073],[103.43313195600007,3.95886187900004],[103.43487528900005,3.964079384000058],[103.40930640000005,4.017411976000062],[103.38548084400009,4.091028403000053],[103.38664306600003,4.115372511000032],[103.39419751000008,4.123487049000062],[103.40640084400007,4.128703493000046],[103.40988751100008,4.135658699000032],[103.41337417800008,4.168695093000053],[103.41744195600006,4.172752099000036],[103.42848306700006,4.176809083000023],[103.44126751200008,4.173331669000049],[103.44365704100005,4.180494198000076],[103.44056274000008,4.185716756000033],[103.39843264800004,4.177170733000025],[103.34416337700009,4.176933342000041],[103.33464245300007,4.189040185000067],[103.32559757400008,4.188565410000024],[103.32012304300008,4.194262686000059],[103.31702874200005,4.191176667000036],[103.32155118100007,4.180731588000071],[103.32083711200005,4.169574190000048],[103.32488350500006,4.168862010000055],[103.32773978200004,4.162927154000045],[103.32440745900004,4.154618281000069],[103.33035803700005,4.141798705000042],[103.32345536600008,4.141086500000029],[103.32397604200008,4.126130051000075],[103.30909959700006,4.118711074000032],[103.30575239700005,4.102389079000034],[103.30649621900005,4.089776401000051],[103.30054564100004,4.086437717000024],[103.30612430800005,4.06195361400006],[103.31653781900008,4.061582637000072],[103.32695133100003,4.048227353000073],[103.32843897500004,4.033758879000061],[103.32509177500003,4.023371098000041],[103.32471986400009,4.004079153000021],[103.32620750800004,3.989609896000047],[103.32806706400004,3.986641811000027],[103.33252999800004,3.98589978900003],[103.33327382000004,3.982560678000027],[103.32992662000004,3.977737494000053],[103.33513337500005,3.951023967000026],[103.32583559700004,3.932472399000062],[103.30500857500004,3.921341260000077],[103.30909959700006,3.90909683700005],[103.31690973000008,3.898336438000058],[103.31133106400006,3.882010052000055],[103.30054564100004,3.893883819000052],[103.27785906300005,3.938408946000038],[103.26595790700009,3.951766021000026],[103.26781746200004,3.960299595000038],[103.27562759600005,3.96326777400003],[103.26967701800004,3.977737494000053],[103.24717639500005,3.994804017000035],[103.24020306100005,4.006977611000025],[103.24252750600004,4.013354183000047],[103.24078417300007,4.017991659000074],[103.22625639400007,4.019151024000053],[103.22160750500007,4.014513555000065],[103.21347195000004,4.01219481000004],[103.20940417200006,4.017411976000062],[103.20475528300005,4.033642944000064],[103.19952528200008,4.038859973000058],[103.19080861600008,4.030164907000028],[103.17976750400004,4.029585233000034],[103.16233417000007,4.035961628000052],[103.15884750400005,4.044076967000024],[103.13467328100006,4.053050120000023],[103.13021034700006,4.066405325000062],[103.12091256900004,4.071969928000044],[103.12277212500004,4.078647402000058],[103.11756536900003,4.083840954000038],[103.11049905800007,4.085324820000039],[103.10343274600007,4.091260256000055],[103.10082936800006,4.088292543000023],[103.08967203500004,4.092002182000044],[103.08520910100003,4.096082765000062],[103.07330794500007,4.094227957000044],[103.07330794500007,4.108324389000074],[103.07107647900006,4.113888701000064],[103.06661354500005,4.112404888000071],[103.05731576700003,4.119082024000022],[103.04838990000007,4.116485367000053],[103.02681905500003,4.12204962200002],[103.01975274400007,4.117598221000037],[103.01417407700006,4.119823925000048],[103.01231452100006,4.124275314000045],[102.99520661000008,4.129839514000025],[102.98553692100006,4.121678673000076],[102.96917283100004,4.119082024000022],[102.95838740900007,4.111292027000047],[102.94165140800004,4.105727696000031],[102.93160980800008,4.099421408000069],[102.92660544476135,4.10050652848907]]]}},{"type":"Feature","properties":{"state":"Pahang","district":"Temerloh"},"geometry":{"type":"Polygon","coordinates":[[[102.11007216500008,3.835841287000051],[102.09715747200005,3.82841369800002],[102.09367080500004,3.771010161000049],[102.08437302700008,3.76231232300006],[102.08437302700008,3.749555337000061],[102.06319733800007,3.733945173000052],[102.05650293700006,3.716502283000068],[102.04078969300008,3.708383799000046],[102.03614080400007,3.693306417000031],[102.04427635900004,3.684027900000046],[102.04195191500008,3.66315088500005],[102.05066858200007,3.646332935000032],[102.05066858200007,3.641113507000057],[102.04950636000007,3.63647399000007],[102.03846524800008,3.642853320000029],[102.03381635900007,3.638793752000026],[102.03614080400007,3.635314107000056],[102.03439747000004,3.628354779000063],[102.02219413600005,3.620815445000062],[102.01870747000004,3.614435960000037],[102.01928858100007,3.609216348000075],[102.02626191400009,3.602256819000047],[102.02858635900009,3.588917572000071],[102.01696413600007,3.563398471000028],[102.01286028900006,3.558790558000055],[102.02161302500008,3.552378640000029],[102.02800524800006,3.563398471000028],[102.03614080400007,3.548318669000025],[102.03846524800008,3.538458666000054],[102.05706080400006,3.515838262000045],[102.05880413800008,3.510038070000064],[102.05473636000005,3.504817866000053],[102.06229080400004,3.499597633000064],[102.08611636100005,3.494377371000041],[102.08902191600004,3.486256906000051],[102.09715747200005,3.482196647000023],[102.10296858300006,3.475816205000058],[102.10645525000007,3.465955437000048],[102.10645525000007,3.457254673000023],[102.10296858300006,3.445073471000057],[102.10354969400004,3.434632316000034],[102.09773858300008,3.428251554000042],[102.09715747200005,3.394026742000051],[102.10819858300005,3.380104437000057],[102.11459080600008,3.35051887700007],[102.12330747300007,3.347618284000021],[102.12911858400008,3.351098995000029],[102.13899747300007,3.35051887700007],[102.14945747400009,3.364441606000071],[102.16747191900004,3.365021715000069],[102.19304080800003,3.37604372800007],[102.20233858600005,3.376623830000028],[102.22790747600004,3.394026742000051],[102.23836747600006,3.390546185000062],[102.24359747600005,3.382424836000041],[102.25115192100009,3.377784034000058],[102.25928747700004,3.376623830000028],[102.26451747700008,3.370822790000034],[102.27265303300004,3.367342149000024],[102.28485636600004,3.366762041000072],[102.31449303400007,3.356900152000037],[102.31972303400005,3.370242684000061],[102.32553414500006,3.374883522000061],[102.34064303500008,3.371983001000046],[102.35110303500005,3.37256310600003],[102.36156303500007,3.380104437000057],[102.37144192500006,3.378944236000052],[102.37725303600007,3.371983001000046],[102.38713192500006,3.370242684000061],[102.47429859400006,3.365021715000069],[102.48185303900004,3.417810215000031],[102.50393526200008,3.414909823000073],[102.50335415100005,3.471175856000059],[102.50277304000008,3.478136371000062],[102.48708303900008,3.517578312000069],[102.49405637300003,3.550638655000057],[102.49463748400007,3.557598576000032],[102.49173192800004,3.566878390000056],[102.49405637300003,3.581957888000034],[102.49231303900007,3.587177656000051],[102.48127192800007,3.591817425000045],[102.48069081700004,3.594717268000068],[102.48708303900008,3.60457666800005],[102.48301526100005,3.610376264000024],[102.49115081700006,3.620235494000042],[102.49115081700006,3.624295145000076],[102.47952859400004,3.639953630000036],[102.47836637200004,3.646332935000032],[102.48533970600005,3.657351628000072],[102.48475859500007,3.66315088500005],[102.47546081700006,3.686347538000064],[102.46906859400008,3.695046128000058],[102.46848748300005,3.702004938000073],[102.47255526100008,3.708963693000044],[102.46790637200007,3.717662060000066],[102.46151415000008,3.717082172000062],[102.45454081600008,3.724040808000041],[102.45105414900007,3.716502283000068],[102.44524303800006,3.716502283000068],[102.44175637100005,3.722881039000072],[102.44059414900005,3.738537791000056],[102.43222614900009,3.741901057000064],[102.42316081500007,3.739697539000076],[102.41270081500005,3.744336517000022],[102.40572748100004,3.748975470000062],[102.40572748100004,3.754194263000045],[102.39526748100008,3.753034534000051],[102.36330636900004,3.814498040000046],[102.31972303400005,3.815657687000055],[102.30810081200008,3.801741822000054],[102.29880303400006,3.811019090000059],[102.29299192200006,3.83363201100002],[102.28834303300005,3.840009906000034],[102.27381525500004,3.831312765000064],[102.26161192100005,3.83015313900006],[102.25580081000004,3.827254068000059],[102.24475969900004,3.827833883000039],[102.24011081000003,3.834211822000043],[102.23836747600006,3.849866560000066],[102.24359747600005,3.863201851000042],[102.23720525400006,3.882334728000046],[102.22906969800005,3.888712257000066],[102.22209636500008,3.886972936000063],[102.20989303100004,3.878276275000076],[102.21512303100008,3.867840164000029],[102.20756858600004,3.865521010000066],[102.19943303100007,3.868419951000021],[102.18490525200008,3.86030289200005],[102.16340414100006,3.857983718000071],[102.14248414000008,3.846967556000038],[102.12853747300005,3.847547358000043],[102.12272636200004,3.838270485000066],[102.11807747300008,3.835371442000053],[102.11007216500008,3.835841287000051]]]}},{"type":"Feature","properties":{"state":"Pahang","district":"Maran"},"geometry":{"type":"Polygon","coordinates":[[[102.43222614900009,3.741901057000064],[102.44059414900005,3.738537791000056],[102.44175637100005,3.722881039000072],[102.44524303800006,3.716502283000068],[102.45105414900007,3.716502283000068],[102.45454081600008,3.724040808000041],[102.46151415000008,3.717082172000062],[102.46790637200007,3.717662060000066],[102.47255526100008,3.708963693000044],[102.46848748300005,3.702004938000073],[102.46906859400008,3.695046128000058],[102.47546081700006,3.686347538000064],[102.48475859500007,3.66315088500005],[102.48533970600005,3.657351628000072],[102.47836637200004,3.646332935000032],[102.47952859400004,3.639953630000036],[102.49115081700006,3.624295145000076],[102.49115081700006,3.620235494000042],[102.48301526100005,3.610376264000024],[102.48708303900008,3.60457666800005],[102.48069081700004,3.594717268000068],[102.48127192800007,3.591817425000045],[102.49231303900007,3.587177656000051],[102.49405637300003,3.581957888000034],[102.49173192800004,3.566878390000056],[102.49463748400007,3.557598576000032],[102.48708303900008,3.517578312000069],[102.50277304000008,3.478136371000062],[102.50335415100005,3.465375388000041],[102.57192526400007,3.454934456000046],[102.57657415300008,3.447393712000064],[102.59168304200006,3.434632316000034],[102.59168304200006,3.425931266000021],[102.58761526400008,3.417230138000036],[102.58935859800005,3.406208595000066],[102.59458859800009,3.398087377000024],[102.60504859800005,3.393446650000044],[102.62364415400003,3.396927197000025],[102.63352304300008,3.392866558000037],[102.63991526600006,3.384165130000042],[102.65560526600007,3.370822790000034],[102.66083526700004,3.359800718000031],[102.67129526700006,3.351679112000056],[102.68059304500008,3.352259229000026],[102.68872860100004,3.348198403000026],[102.69453971200005,3.316871467000055],[102.70093193400004,3.316291329000023],[102.71836526800007,3.322092692000069],[102.72998749100009,3.333115188000022],[102.73405526900007,3.377203932000043],[102.75032638000005,3.381844737000051],[102.75904304700003,3.378364135000027],[102.77182749200006,3.368502364000051],[102.78403082600005,3.36908247100007],[102.80669416000006,3.377203932000043],[102.81889749300007,3.375463625000066],[102.82819527100008,3.378944236000052],[102.82819527100008,3.383585032000042],[102.80843749300004,3.396347107000054],[102.80553193700007,3.403308168000024],[102.78112527000008,3.42767148300004],[102.77531415900006,3.453774346000046],[102.77821971400004,3.459574885000052],[102.79158527000004,3.459574885000052],[102.79332860400007,3.46363524100002],[102.78926082600003,3.470595811000067],[102.79623415900005,3.47349603300006],[102.80901860400007,3.468275627000025],[102.81947860500009,3.46073498800007],[102.82470860500007,3.465955437000048],[102.82354638200007,3.472335945000054],[102.83458749400006,3.480456531000073],[102.85027749400007,3.485096834000046],[102.85783193900005,3.489737114000036],[102.86712971700007,3.50771798300002],[102.86829193900007,3.516998296000054],[102.86538638400003,3.525698506000026],[102.89211749600008,3.537878662000026],[102.90315860700008,3.547158674000059],[102.90025305100005,3.558178568000073],[102.90199638500007,3.569198329000073],[102.91071305200006,3.583117839000067],[102.92059194100005,3.591237455000055],[102.92117305200009,3.599936964000051],[102.91710527400005,3.622555297000076],[102.92001083000008,3.63821381200006],[102.91768638500008,3.644593129000043],[102.91958909638419,3.659250119255694],[102.91375807400004,3.66862535000007],[102.88958385100005,3.682357757000034],[102.89255914000006,3.686440324000046],[102.89218722900006,3.690522872000031],[102.88214562900004,3.697203365000064],[102.86950065000008,3.717244541000071],[102.84644216100008,3.720584692000045],[102.84309496100008,3.717986798000027],[102.84235113900007,3.70907967200003],[102.83751629400007,3.707224009000072],[102.82970616000006,3.697574502000066],[102.82412749400004,3.701285863000066],[102.82747469400005,3.707595142000059],[102.82747469400005,3.713162116000035],[102.81073869300008,3.722069200000021],[102.80330047100006,3.732831807000025],[102.80106900400006,3.739883099000053],[102.80516002600007,3.75101660200005],[102.80367238200006,3.754356625000071],[102.79325887000005,3.764747726000053],[102.78693638100003,3.757696635000059],[102.77020038100005,3.757325524000066],[102.76350598100004,3.748789912000063],[102.75829922500009,3.750645487000043],[102.75904304700003,3.755469963000053],[102.73858793500006,3.773654286000067],[102.73486882400005,3.791838229000064],[102.72259575700008,3.80556870700002],[102.71292606800006,3.810392878000073],[102.70846313500004,3.815588108000043],[102.71181033500005,3.827091720000055],[102.71069460100006,3.831173610000064],[102.70343385200005,3.83654034500006],[102.68233637800006,3.842329129000063],[102.67652526700005,3.846387754000034],[102.65444304400006,3.848127159000057],[102.64805082200007,3.85218575600004],[102.62364415400003,3.853345352000076],[102.61492748700005,3.856244334000053],[102.58935859800005,3.841749324000034],[102.58006082000009,3.84580795200003],[102.57366859700005,3.835371442000053],[102.56204637500008,3.834791632000076],[102.55797859700004,3.84580795200003],[102.51962526200003,3.826094437000052],[102.49986748400005,3.856244334000053],[102.49405637300003,3.882334728000046],[102.48243415000007,3.883494282000072],[102.46906859400008,3.875377368000045],[102.46964970500005,3.869579525000063],[102.47546081700006,3.86899973800007],[102.48069081700004,3.86436143100002],[102.48185303900004,3.857983718000071],[102.47081192800005,3.849286760000041],[102.47081192800005,3.842908934000036],[102.45628414900006,3.830732952000062],[102.45221637100008,3.822035716000073],[102.45221637100008,3.812178742000071],[102.46209526100006,3.79536364300003],[102.45860859400005,3.787825733000034],[102.43885081500008,3.777388520000045],[102.44117526000008,3.769270600000027],[102.44001303800007,3.761732464000033],[102.43420192600007,3.756513716000029],[102.43652637100007,3.750715071000059],[102.43478303800003,3.743176775000052],[102.43222614900009,3.741901057000064]]]}},{"type":"Feature","properties":{"state":"Pahang","district":"Pekan"},"geometry":{"type":"Polygon","coordinates":[[[102.91958909638419,3.659250119255694],[102.91768638500008,3.644593129000043],[102.92001083000008,3.63821381200006],[102.91710527400005,3.622555297000076],[102.92117305200009,3.599936964000051],[102.92059194100005,3.591237455000055],[102.91071305200006,3.583117839000067],[102.90199638500007,3.569198329000073],[102.90025305100005,3.558178568000073],[102.90315860700008,3.547158674000059],[102.89211749600008,3.537878662000026],[102.86538638400003,3.525698506000026],[102.86829193900007,3.516998296000054],[102.86712971700007,3.50771798300002],[102.85783193900005,3.489737114000036],[102.85027749400007,3.485096834000046],[102.83458749400006,3.480456531000073],[102.82354638200007,3.472335945000054],[102.82470860500007,3.465955437000048],[102.81947860500009,3.46073498800007],[102.80901860400007,3.468275627000025],[102.79623415900005,3.47349603300006],[102.78926082600003,3.470595811000067],[102.79332860400007,3.46363524100002],[102.79158527000004,3.459574885000052],[102.77821971400004,3.459574885000052],[102.77531415900006,3.453774346000046],[102.78112527000008,3.42767148300004],[102.80553193700007,3.403308168000024],[102.80843749300004,3.396347107000054],[102.82819527100008,3.383585032000042],[102.82238416000007,3.360380830000054],[102.85085860500004,3.320352287000048],[102.86422416100004,3.310489932000053],[102.88921194000005,3.277421322000066],[102.89502305100007,3.279161803000022],[102.90257749600005,3.277421322000066],[102.90955082900007,3.269299040000021],[102.92001083000008,3.275100677000069],[102.93279527500005,3.302367919000062],[102.93221416300008,3.306428934000053],[102.93628194100006,3.309909791000052],[102.94616083100004,3.308749507000073],[102.95371527500004,3.315711191000048],[102.95894527500008,3.297146590000068],[102.97579749800008,3.276261],[102.98800083200007,3.27974196200006],[103.00136638800006,3.28728400500006],[103.00892083200006,3.285543539000059],[103.01996194400004,3.28728400500006],[103.02751638900008,3.29830688800007],[103.04727416700007,3.31397077500003],[103.05424750000009,3.316291329000023],[103.06238305600004,3.327313890000028],[103.07458639000004,3.307009078000021],[103.07691083400005,3.29598629100002],[103.07458639000004,3.284383226000045],[103.07749194600007,3.273360189000073],[103.08678972400008,3.262337031000072],[103.08737083500006,3.257695665000028],[103.09783083500008,3.254214627000067],[103.10945305800004,3.242611078000039],[103.10887194600008,3.231587584000067],[103.12630528000005,3.21360162600007],[103.12049416900004,3.19793617800002],[103.11410194700005,3.189233048000062],[103.12223750200008,3.184011134000059],[103.12339972500007,3.179369411000039],[103.11816972500009,3.170666125000025],[103.12107528000007,3.163703442000042],[103.11410194700005,3.152098868000053],[103.10189861300006,3.14803723600005],[103.10422305700007,3.138753447000056],[103.11061528000005,3.128309086000058],[103.10596639100004,3.12076587200005],[103.08039750100005,3.118444872000055],[103.07342416800009,3.113222604000043],[103.06296416700008,3.080727908000028],[103.08969527900007,3.06796186300005],[103.08039750100005,3.061578783000073],[103.08388416800005,3.056356235000067],[103.09434416800008,3.05461538000003],[103.09608750200005,3.048812509000072],[103.09318194600007,3.038947558000075],[103.09899305700009,3.031984008000052],[103.10945305800004,3.028502216000049],[103.11584528000009,3.022699206000027],[103.11758861300007,3.010512782000035],[103.12979194700006,2.99832622200006],[103.12746750300005,2.991362412000058],[103.13618417000004,2.988460812000028],[103.15013083700006,2.989621453000041],[103.15768528100006,2.983818235000058],[103.16291528100004,2.966408398000056],[103.16698305900007,2.961765729000035],[103.22044528300006,2.967569063000042],[103.36514195400008,2.965828066000029],[103.43080751200006,2.948998287000052],[103.42813349200009,3.010573986000054],[103.43097094900008,3.045992666000075],[103.44515823200004,3.118243144000076],[103.44515823200004,3.176323269000022],[103.44232077600009,3.247148263000042],[103.42245857900008,3.326466354000047],[103.41962112200008,3.363290450000022],[103.43522713400006,3.434102098000039],[103.46360170100007,3.487915444000066],[103.47495152800008,3.499244179000073],[103.47778898400009,3.51057277600006],[103.47353279900005,3.52048518600003],[103.45367060300003,3.540309690000072],[103.39649871100005,3.608868373000064],[103.39501106600005,3.604414278000036],[103.38310991000009,3.601073693000046],[103.37790315400008,3.609239546000026],[103.37381213200007,3.606270154000072],[103.37009302100006,3.606270154000072],[103.36860537600006,3.609610720000035],[103.35447275400008,3.605898979000074],[103.12574741400005,3.620003513000029],[102.91958909638419,3.659250119255694]]]}},{"type":"Feature","properties":{"state":"Pahang","district":"Bentong"},"geometry":{"type":"Polygon","coordinates":[[[101.75735622600007,3.374006406000035],[101.78335746300007,3.355159809000043],[101.78219524000008,3.343557439000051],[101.79788524100007,3.334855571000048],[101.81066968600004,3.309909791000052],[101.83391413100009,3.289024468000036],[101.84088746400005,3.285543539000059],[101.84844190900009,3.285543539000059],[101.85657746500004,3.273940352000068],[101.87924079900006,3.268138708000038],[101.88447079900004,3.26117669100006],[101.89318746600009,3.261756861000038],[101.89957968800007,3.267558542000074],[101.91468857800004,3.260596521000025],[101.91643191100007,3.265237874000036],[101.92863524500007,3.275100677000069],[101.93502746700005,3.290764929000034],[101.94141969000003,3.28960462200007],[101.94839302300005,3.283222912000042],[101.95013635700008,3.274520514000073],[101.95943413500004,3.272780026000021],[101.96756969000006,3.275680839000074],[101.97454302400007,3.272199862000036],[101.97686746800008,3.241450716000031],[101.99430080200005,3.237389438000037],[102.00824746900008,3.229266833000054],[102.01463969200006,3.228106455000045],[102.02626191400009,3.231007397000042],[102.04195191500008,3.228106455000045],[102.05473636000005,3.196775765000041],[102.05299302600008,3.189813259000061],[102.05531747100008,3.17472766800006],[102.05880413800008,3.169505681000032],[102.06635858200008,3.171826567000039],[102.07507524900007,3.167184789000032],[102.07739969400006,3.180529844000034],[102.09890080500008,3.193874726000047],[102.11459080600008,3.190393469000071],[102.11517191700005,3.200257],[102.12156413900004,3.199096590000067],[102.12679414000007,3.193874726000047],[102.14190302900005,3.199676795000073],[102.14655191800006,3.196775765000041],[102.15933636300008,3.178789195000036],[102.28543747800006,3.141074402000072],[102.29822192200004,3.150938403000055],[102.30926303400008,3.154419793000045],[102.31158747800004,3.160222084000054],[102.30693858900008,3.166604566000046],[102.31158747800004,3.171826567000039],[102.30926303400008,3.175307887000031],[102.29473525600008,3.172406788000046],[102.28718081100004,3.177628760000061],[102.28195081100006,3.18749241300003],[102.27207192200007,3.18749241300003],[102.27613970000004,3.19793617800002],[102.29182970000005,3.208960036000065],[102.29764081100006,3.216502608000042],[102.28776192200007,3.229266833000054],[102.28950525600004,3.236229070000036],[102.29589747800009,3.241450716000031],[102.29764081100006,3.246672335000028],[102.28834303300005,3.255955147000066],[102.29008636700007,3.262337031000072],[102.30170858900004,3.273360189000073],[102.30287081100005,3.293665689000022],[102.31856081200004,3.296566441000039],[102.32611525700008,3.312230355000054],[102.34122414600006,3.322672827000076],[102.33715636800008,3.32789402100002],[102.33192636800004,3.324413228000026],[102.32727747900009,3.325573494000025],[102.31449303400007,3.356900152000037],[102.28485636600004,3.366762041000072],[102.27265303300004,3.367342149000024],[102.26451747700008,3.370822790000034],[102.25928747700004,3.376623830000028],[102.25115192100009,3.377784034000058],[102.24359747600005,3.382424836000041],[102.23836747600006,3.390546185000062],[102.22790747600004,3.394026742000051],[102.20233858600005,3.376623830000028],[102.19304080800003,3.37604372800007],[102.16747191900004,3.365021715000069],[102.14945747400009,3.364441606000071],[102.13899747300007,3.35051887700007],[102.12911858400008,3.351098995000029],[102.12330747300007,3.347618284000021],[102.11459080600008,3.35051887700007],[102.10819858300005,3.380104437000057],[102.09715747200005,3.394026742000051],[102.09773858300008,3.428251554000042],[102.10354969400004,3.434632316000034],[102.10296858300006,3.445073471000057],[102.10645525000007,3.457254673000023],[102.10645525000007,3.465955437000048],[102.10296858300006,3.475816205000058],[102.09715747200005,3.482196647000023],[102.08902191600004,3.486256906000051],[102.08611636100005,3.494377371000041],[102.06229080400004,3.499597633000064],[102.05473636000005,3.504817866000053],[102.05880413800008,3.510038070000064],[102.05706080400006,3.515838262000045],[102.03846524800008,3.538458666000054],[102.03614080400007,3.548318669000025],[102.02800524800006,3.563398471000028],[102.02161302500008,3.552378640000029],[102.01286028900006,3.558790558000055],[102.00476080300007,3.559338549000074],[101.99836858000003,3.565138432000026],[101.99081413600004,3.565138432000026],[101.98267858000008,3.555278608000037],[101.97570524600008,3.557018585000037],[101.97105635700007,3.561078518000045],[101.97512413500004,3.570358296000052],[101.96233969000008,3.580217958000048],[101.96117746800007,3.590077514000029],[101.95420413400007,3.597037137000029],[101.95246080100009,3.605156629000021],[101.94606857900004,3.613856005000059],[101.94548746800007,3.634154223000053],[101.93967635600006,3.641693445000044],[101.93677080100008,3.659091409000041],[101.92747302300006,3.66315088500005],[101.91585080000004,3.661991037000064],[101.91003968900009,3.666630421000036],[101.89609302200006,3.66605050000004],[101.88330857700004,3.685187720000044],[101.87575413200005,3.689826984000035],[101.87226746500005,3.695046128000058],[101.86413191000008,3.691566702000046],[101.86761857600004,3.677648864000048],[101.88214635500003,3.651552333000041],[101.85018524200007,3.635894049000058],[101.84030635300007,3.641693445000044],[101.82577857500007,3.630094616000065],[101.82519746400004,3.626034990000051],[101.81996746400006,3.620235494000042],[101.80397466200009,3.609365910000065],[101.81220191200003,3.594116911000071],[101.81078318400006,3.581373381000049],[101.80227081400005,3.560133769000061],[101.76680260500007,3.519069134000063],[101.76112769200006,3.489331543000048],[101.78808353100004,3.427021168000067],[101.78240861700004,3.417107777000069],[101.77247751900006,3.411442937000061],[101.76538387700003,3.40152938600005],[101.76418079500007,3.392448891000072],[101.76604035100007,3.383909887000073],[101.75735622600007,3.374006406000035]]]}},{"type":"Feature","properties":{"state":"Pahang","district":"Bera"},"geometry":{"type":"Polygon","coordinates":[[[102.31449303400007,3.356900152000037],[102.32727747900009,3.325573494000025],[102.33192636800004,3.324413228000026],[102.33715636800008,3.32789402100002],[102.34122414600006,3.322672827000076],[102.32611525700008,3.312230355000054],[102.31856081200004,3.296566441000039],[102.30287081100005,3.293665689000022],[102.30170858900004,3.273360189000073],[102.29008636700007,3.262337031000072],[102.28834303300005,3.255955147000066],[102.29764081100006,3.246672335000028],[102.29589747800009,3.241450716000031],[102.28950525600004,3.236229070000036],[102.28776192200007,3.229266833000054],[102.29764081100006,3.216502608000042],[102.29182970000005,3.208960036000065],[102.27613970000004,3.19793617800002],[102.27207192200007,3.18749241300003],[102.28195081100006,3.18749241300003],[102.28718081100004,3.177628760000061],[102.29473525600008,3.172406788000046],[102.30926303400008,3.175307887000031],[102.31158747800004,3.171826567000039],[102.30693858900008,3.166604566000046],[102.31158747800004,3.160222084000054],[102.30926303400008,3.154419793000045],[102.29822192200004,3.150938403000055],[102.28543747800006,3.141074402000072],[102.39178081400007,3.119206451000025],[102.46895963600008,3.016751087000046],[102.66962457200003,2.887081384000055],[102.67870443400005,2.897963336000032],[102.69141624000008,2.880733531000033],[102.69414019800007,2.873478798000065],[102.69595617000004,2.855341764000059],[102.69414019800007,2.839925060000041],[102.69868012900008,2.832670069000073],[102.76151385712328,2.818555336465124],[102.75991244400007,2.819293561000052],[102.76314714500006,2.842645670000024],[102.76239024700004,2.986209164000059],[102.77838242600006,3.009236101000056],[102.78916784800003,3.046003909000035],[102.77020038100005,3.05565989300004],[102.76573744700005,3.054917128000056],[102.76015878100009,3.062344754000037],[102.76164642500004,3.073114721000024],[102.75123291400007,3.081284968000034],[102.74379469100006,3.093540221000069],[102.74453851300007,3.100224845000071],[102.75383629200007,3.109880338000039],[102.75011718000007,3.113965328000063],[102.74974526900007,3.118050302000029],[102.75383629200007,3.121763900000076],[102.75086100300007,3.12622020200007],[102.74081940200006,3.11619349700004],[102.73152162400004,3.116564858000061],[102.72780251300009,3.12102118200005],[102.73486882400005,3.129562415000066],[102.73486882400005,3.146273323000059],[102.73747220200005,3.151472217000048],[102.74714189100007,3.151472217000048],[102.75941495800004,3.144787920000056],[102.78433300400008,3.161869928000044],[102.79623415900005,3.167811430000029],[102.80962296000007,3.170410827000069],[102.80813531500007,3.175238260000071],[102.77466331400007,3.204573715000038],[102.75532393600008,3.210143644000027],[102.75197673600007,3.218312817000026],[102.74156322400006,3.221283409000023],[102.73561264700004,3.228709852000065],[102.73375309100004,3.244305204000057],[102.72891824600003,3.253216727000051],[102.71962046800007,3.261385553000025],[102.71181033500005,3.261385553000025],[102.70362829000004,3.268440395000027],[102.69767771200009,3.296287969000048],[102.70176873400004,3.298144446000038],[102.70511593500004,3.306312905000027],[102.70191749900005,3.316783286000032],[102.69453971200005,3.316871467000055],[102.68872860100004,3.348198403000026],[102.68059304500008,3.352259229000026],[102.67129526700006,3.351679112000056],[102.66083526700004,3.359800718000031],[102.65560526600007,3.370822790000034],[102.63991526600006,3.384165130000042],[102.63352304300008,3.392866558000037],[102.62364415400003,3.396927197000025],[102.60504859800005,3.393446650000044],[102.59458859800009,3.398087377000024],[102.58935859800005,3.406208595000066],[102.58761526400008,3.417230138000036],[102.59168304200006,3.425931266000021],[102.59168304200006,3.434632316000034],[102.57657415300008,3.447393712000064],[102.57192526400007,3.454934456000046],[102.50335415100005,3.465375388000041],[102.50393526200008,3.414909823000073],[102.48185303900004,3.417810215000031],[102.47429859400006,3.365021715000069],[102.38713192500006,3.370242684000061],[102.37725303600007,3.371983001000046],[102.37144192500006,3.378944236000052],[102.36156303500007,3.380104437000057],[102.35110303500005,3.37256310600003],[102.34064303500008,3.371983001000046],[102.32553414500006,3.374883522000061],[102.31972303400005,3.370242684000061],[102.31449303400007,3.356900152000037]]]}},{"type":"Feature","properties":{"state":"Pahang","district":"Rompin"},"geometry":{"type":"MultiPolygon","coordinates":[[[[103.90346178100003,2.701385172000073],[103.90154942300006,2.698126535000029],[103.90604908800009,2.683855852000022],[103.90537413900006,2.676439525000035],[103.91178616200006,2.67452925200007],[103.90942383700008,2.683069274000047],[103.91099872000007,2.684530061000032],[103.92011054300008,2.674304514000028],[103.92483519200005,2.680372431000023],[103.92168542600007,2.691946338000037],[103.92303532500006,2.694867890000069],[103.91707326900007,2.697789434000072],[103.91201114500006,2.695317359000057],[103.91156117900005,2.69868837000007],[103.90762397100008,2.700823339000067],[103.90357427200007,2.699025470000038],[103.90346178100003,2.701385172000073]]],[[[103.89648729900006,2.697115232000044],[103.88805042700005,2.702171738000061],[103.88152591200009,2.698463636000042],[103.88141342000006,2.688575309000043],[103.88523813600005,2.682507432000023],[103.88726298500006,2.684192956000061],[103.89063773400005,2.682844537000051],[103.89345002500005,2.687901102000069],[103.89704975800004,2.68756399800003],[103.89468743300006,2.694867890000069],[103.89648729900006,2.697115232000044]]],[[[104.17929127200006,2.891943668000067],[104.16905453300006,2.897336377000045],[104.15665364800009,2.893177305000052],[104.15335799500008,2.88741724800002],[104.15528045900004,2.878914254000051],[104.14759060100005,2.869588316000034],[104.15198480600009,2.86437673000006],[104.14841451500007,2.854227782000066],[104.15528045900004,2.850936213000068],[104.15912538800006,2.845724541000038],[104.16351959300005,2.828717872000027],[104.16242104200006,2.824329013000067],[104.12864059400005,2.800189995000039],[104.11710580700009,2.779616575000034],[104.12287320100006,2.763706218000038],[104.11985218500007,2.753830717000028],[104.12232392500005,2.745601069000031],[104.13138697200009,2.740388930000051],[104.14045001900007,2.728592953000032],[104.15665364800009,2.718717161000029],[104.16544205700006,2.716248201000042],[104.18384278900004,2.721460445000048],[104.20444062200005,2.719265818000054],[104.21377830700004,2.721460445000048],[104.21982033800003,2.738194339000074],[104.21432758200007,2.745601069000031],[104.21982033800003,2.755202319000034],[104.21899642500006,2.760414393000076],[104.22284135400008,2.768095303000052],[104.21982033800003,2.777147741000022],[104.21048265300004,2.77797068600006],[104.21103192900006,2.780439519000026],[104.20389134700008,2.78373128800007],[104.20526453600007,2.797721204000027],[104.21020801600008,2.797172583000076],[104.21295439300008,2.800738614000068],[104.20746163800004,2.804030327000021],[104.20663772400007,2.809242185000073],[104.20856018900008,2.810613723000074],[104.19812395300005,2.825974837000047],[104.19894786700007,2.829815084000074],[104.19455366200003,2.830912295000076],[104.19400438700006,2.833381016000033],[104.19757467800008,2.835026827000036],[104.19290583500003,2.839689945000032],[104.19144036800009,2.854081637000036],[104.18536582000007,2.863856228000031],[104.18570329500005,2.866327950000027],[104.18964050200009,2.867900862000056],[104.18300349500004,2.873743086000047],[104.18919053500008,2.877113586000064],[104.18232854600006,2.880371727000067],[104.17794137200008,2.887899119000053],[104.17929127200006,2.891943668000067]]],[[[104.10734648100004,2.914513961000068],[104.10333781900005,2.919713867000041],[104.10066537800009,2.919391750000045],[104.10476619300005,2.912673281000025],[104.09707140500007,2.910924632000047],[104.09794686000004,2.908301653000024],[104.10126437300005,2.906184858000074],[104.10845231900004,2.908209618000058],[104.11388935400004,2.913317519000032],[104.11176983200005,2.916216588000054],[104.10734648100004,2.914513961000068]]],[[[102.70191749900005,3.316783286000032],[102.70511593500004,3.306312905000027],[102.70176873400004,3.298144446000038],[102.69767771200009,3.296287969000048],[102.70362829000004,3.268440395000027],[102.71181033500005,3.261385553000025],[102.71962046800007,3.261385553000025],[102.72891824600003,3.253216727000051],[102.73375309100004,3.244305204000057],[102.73561264700004,3.228709852000065],[102.74156322400006,3.221283409000023],[102.75197673600007,3.218312817000026],[102.75532393600008,3.210143644000027],[102.77466331400007,3.204573715000038],[102.80813531500007,3.175238260000071],[102.80962296000007,3.170410827000069],[102.79623415900005,3.167811430000029],[102.78433300400008,3.161869928000044],[102.75941495800004,3.144787920000056],[102.74714189100007,3.151472217000048],[102.73747220200005,3.151472217000048],[102.73486882400005,3.146273323000059],[102.73486882400005,3.129562415000066],[102.72780251300009,3.12102118200005],[102.73152162400004,3.116564858000061],[102.74081940200006,3.11619349700004],[102.75086100300007,3.12622020200007],[102.75383629200007,3.121763900000076],[102.74974526900007,3.118050302000029],[102.75011718000007,3.113965328000063],[102.75383629200007,3.109880338000039],[102.74453851300007,3.100224845000071],[102.74379469100006,3.093540221000069],[102.75123291400007,3.081284968000034],[102.76164642500004,3.073114721000024],[102.76015878100009,3.062344754000037],[102.76573744700005,3.054917128000056],[102.77020038100005,3.05565989300004],[102.78916784800003,3.046003909000035],[102.77838242600006,3.009236101000056],[102.76239024700004,2.986209164000059],[102.76314714500006,2.842645670000024],[102.75991244400007,2.819293561000052],[102.79679938100008,2.802289303000066],[102.97414042300005,2.593967551000048],[103.15148146600006,2.523101853000071],[103.28484193000008,2.576960142000075],[103.35484466500009,2.591708164000067],[103.41621,2.558269961000065],[103.42848306700006,2.56012766200007],[103.44707862300004,2.554183010000031],[103.45563257900005,2.548238330000061],[103.47236857900003,2.52557398600004],[103.60923187200007,2.459064872000056],[103.60774422800006,2.467610924000041],[103.61071951700006,2.472812841000064],[103.61443862800007,2.465381524000065],[103.61778582800008,2.463523688000066],[103.62708360600004,2.465381524000065],[103.63005889500005,2.47318440600003],[103.63526565100005,2.47801473800007],[103.63861285100006,2.488418471000045],[103.63043080600005,2.488790031000065],[103.62745551700004,2.506996360000073],[103.61815773900008,2.519257623000044],[103.61852965000008,2.524087786000052],[103.62336449500003,2.531147222000072],[103.62187685100008,2.533004962000064],[103.61257907300006,2.529289479000056],[103.60253747200005,2.53077567400004],[103.59361160500004,2.527060185000039],[103.59100822700003,2.529661028000021],[103.59658689400004,2.543779802000074],[103.59323969400003,2.548609873000032],[103.59658689400004,2.556783799000073],[103.61183525000007,2.566072287000054],[103.61295098400007,2.559384582000064],[103.61555436200007,2.557155339000076],[103.61815773900008,2.559384582000064],[103.61443862800007,2.568673052000065],[103.61518245000008,2.57610377900005],[103.61146333900007,2.577961454000047],[103.60811613900006,2.57610377900005],[103.60662849500005,2.569787663000056],[103.60328129400006,2.567186901000071],[103.59807453900004,2.570159201000024],[103.60067791700004,2.582791396000061],[103.60476893900005,2.587621320000039],[103.60923187200007,2.58910744700006],[103.62038920600008,2.585763659000065],[103.62299258400009,2.587621320000039],[103.62076111700009,2.593194286000028],[103.61295098400007,2.595794995000062],[103.61518245000008,2.600996398000063],[103.62745551700004,2.60619777900007],[103.62671169500004,2.609541512000021],[103.61443862800007,2.619201137000061],[103.61555436200007,2.62588852500005],[103.62410831700004,2.63034676500007],[103.61295098400007,2.635919541000021],[103.61257907300006,2.648922590000041],[103.60402511700005,2.649665617000039],[103.60476893900005,2.632947397000066],[103.60067791700004,2.631832841000062],[103.58840485000007,2.649665617000039],[103.59212396100008,2.65858190900002],[103.59695880500004,2.663783050000063],[103.60290938300005,2.666012103000071],[103.62187685100008,2.656724354000062],[103.63303418400005,2.663040031000037],[103.62936592000005,2.673955976000059],[103.58669057200007,2.710235337000029],[103.54129126500004,2.753769134000038],[103.49226001300008,2.819066839000072],[103.47613418000009,2.831763192000039],[103.45870084600006,2.853237849000038],[103.44359195600003,2.887480391000054],[103.43080751200006,2.948998287000052],[103.36514195400008,2.965828066000029],[103.22044528300006,2.967569063000042],[103.16698305900007,2.961765729000035],[103.16291528100004,2.966408398000056],[103.15768528100006,2.983818235000058],[103.15013083700006,2.989621453000041],[103.13618417000004,2.988460812000028],[103.12746750300005,2.991362412000058],[103.12979194700006,2.99832622200006],[103.11758861300007,3.010512782000035],[103.11584528000009,3.022699206000027],[103.10945305800004,3.028502216000049],[103.09899305700009,3.031984008000052],[103.09318194600007,3.038947558000075],[103.09608750200005,3.048812509000072],[103.09434416800008,3.05461538000003],[103.08388416800005,3.056356235000067],[103.08039750100005,3.061578783000073],[103.08969527900007,3.06796186300005],[103.06296416700008,3.080727908000028],[103.07342416800009,3.113222604000043],[103.08039750100005,3.118444872000055],[103.10596639100004,3.12076587200005],[103.11061528000005,3.128309086000058],[103.10422305700007,3.138753447000056],[103.10189861300006,3.14803723600005],[103.11410194700005,3.152098868000053],[103.12107528000007,3.163703442000042],[103.11816972500009,3.170666125000025],[103.12339972500007,3.179369411000039],[103.12223750200008,3.184011134000059],[103.11410194700005,3.189233048000062],[103.12049416900004,3.19793617800002],[103.12630528000005,3.21360162600007],[103.10887194600008,3.231587584000067],[103.10945305800004,3.242611078000039],[103.09783083500008,3.254214627000067],[103.08737083500006,3.257695665000028],[103.08678972400008,3.262337031000072],[103.07749194600007,3.273360189000073],[103.07458639000004,3.284383226000045],[103.07691083400005,3.29598629100002],[103.07458639000004,3.307009078000021],[103.06238305600004,3.327313890000028],[103.05424750000009,3.316291329000023],[103.04727416700007,3.31397077500003],[103.02751638900008,3.29830688800007],[103.01996194400004,3.28728400500006],[103.00892083200006,3.285543539000059],[103.00136638800006,3.28728400500006],[102.98800083200007,3.27974196200006],[102.97579749800008,3.276261],[102.95894527500008,3.297146590000068],[102.95371527500004,3.315711191000048],[102.94616083100004,3.308749507000073],[102.93628194100006,3.309909791000052],[102.93221416300008,3.306428934000053],[102.93279527500005,3.302367919000062],[102.92001083000008,3.275100677000069],[102.90955082900007,3.269299040000021],[102.90257749600005,3.277421322000066],[102.89502305100007,3.279161803000022],[102.88921194000005,3.277421322000066],[102.86422416100004,3.310489932000053],[102.85085860500004,3.320352287000048],[102.82238416000007,3.360380830000054],[102.82609371872054,3.378157522660455],[102.81889749300007,3.375463625000066],[102.80669416000006,3.377203932000043],[102.78403082600005,3.36908247100007],[102.77182749200006,3.368502364000051],[102.75904304700003,3.378364135000027],[102.75032638000005,3.381844737000051],[102.73405526900007,3.377203932000043],[102.72998749100009,3.333115188000022],[102.71836526800007,3.322092692000069],[102.70191749900005,3.316783286000032]]]]}}]}