{"type":"FeatureCollection","features":[{"type":"Feature","properties":{"state":"Penang","district":"Seberang Perai Selatan"},"geometry":{"type":"Polygon","coordinates":[[[100.55071454200004,5.143213542000069],[100.53215825900008,5.290385142000048],[100.52073315000007,5.298443401000043],[100.50121525400004,5.298206395000022],[100.49050421400005,5.291570186000058],[100.47837379400005,5.292829555000026],[100.47739885100003,5.289334716000042],[100.47398655200004,5.290014270000029],[100.47135420700005,5.287004813000067],[100.47157259400007,5.291967496000041],[100.46895194800004,5.289606538000044],[100.46595692400007,5.292091757000037],[100.46988789300008,5.286313606000022],[100.45965489400004,5.286437868000064],[100.45472558400007,5.283269183000073],[100.45235452300005,5.28886097000003],[100.45042023700006,5.285878690000061],[100.44318226300004,5.285257379000029],[100.44311986600007,5.278485058000058],[100.43586629300006,5.273801861000038],[100.43030911900007,5.285354459000075],[100.42738429100007,5.285451539000064],[100.41617245000003,5.277199706000033],[100.40593555200007,5.26584112200004],[100.40642302300006,5.262734465000051],[100.41207769100004,5.260404461000064],[100.42457181000003,5.226152333000073],[100.42338169400006,5.215485728000033],[100.42885622600005,5.210033838000072],[100.42195355600006,5.205055984000069],[100.42052541700008,5.185144174000072],[100.41766914000004,5.176373297000055],[100.42457181000003,5.17258044700003],[100.42552390200007,5.169261685000038],[100.41254688200007,5.157778635000057],[100.40294979000004,5.14033082800006],[100.39746573700006,5.135930870000038],[100.39480404400007,5.127746063000075],[100.40484564400003,5.122189698000057],[100.49249024200009,5.134744529000045],[100.49800670200005,5.142454934000057],[100.50867013800007,5.145337639000047],[100.53989877100008,5.138206714000034],[100.55071454200004,5.143213542000069]]]}},{"type":"Feature","properties":{"state":"Penang","district":"Seberang Perai Tengah"},"geometry":{"type":"Polygon","coordinates":[[[100.53227012000008,5.289654951000045],[100.52358942700005,5.367882268000074],[100.52549361200005,5.428782890000036],[100.52073315000007,5.433521981000069],[100.51478257200006,5.432574166000052],[100.49764490700005,5.436365418000037],[100.49217037600005,5.429019846000074],[100.48907607500007,5.429019846000074],[100.47074829500008,5.438734938000039],[100.46479771700007,5.438497987000062],[100.46029133700006,5.445999156000028],[100.45290361100007,5.443772962000025],[100.45158580100008,5.447390523000024],[100.44871057800003,5.446078663000037],[100.44635449200007,5.44850361500005],[100.44679376200008,5.450610532000042],[100.44315980000005,5.449894976000053],[100.44523635000007,5.451882630000057],[100.44144265300008,5.454108794000035],[100.43864729700005,5.45212114800006],[100.43984530700004,5.444925813000054],[100.43653081400004,5.445363101000055],[100.43732948700006,5.440274640000041],[100.44072384700007,5.441546759000062],[100.44367893700007,5.439797594000026],[100.44439774300008,5.444409018000044],[100.44643435900008,5.440711931000067],[100.44252086100005,5.436418511000056],[100.43920636800004,5.439042271000062],[100.43693015000008,5.432482849000053],[100.43501333500006,5.432920146000072],[100.43752915500005,5.437213591000045],[100.43513313600005,5.437889408000046],[100.43138155600008,5.431636207000054],[100.42728679700008,5.436780179000039],[100.42426447500009,5.429306846000031],[100.42036470400006,5.433480277000058],[100.41529500200005,5.434450839000021],[100.41081026500007,5.426880419000042],[100.40106083800003,5.427753934000066],[100.40486311500007,5.407662774000073],[100.39862348200006,5.405139199000075],[100.39472371100004,5.412515772000063],[100.39150640000008,5.412030474000062],[100.38731414700004,5.408051015000069],[100.39189637700008,5.401256756000066],[100.39189637700008,5.397277226000028],[100.37756472000007,5.395141858000045],[100.37746722500003,5.388444518000028],[100.36887440000004,5.381626911000069],[100.37672916300005,5.364564549000022],[100.38029951000004,5.364327568000022],[100.38958241200004,5.352004449000049],[100.40600600700009,5.339681082000027],[100.40219763700009,5.322143556000071],[100.41052844600006,5.314559605000056],[100.42060391900009,5.280307840000035],[100.42738429100007,5.285451539000064],[100.43157654500004,5.284966140000051],[100.43586629300006,5.273801861000038],[100.44311986600007,5.278485058000058],[100.44318226300004,5.285257379000029],[100.45042023700006,5.285878690000061],[100.45235452300005,5.28886097000003],[100.45472558400007,5.283269183000073],[100.45965489400004,5.286437868000064],[100.46826558800007,5.285754428000075],[100.46970070400005,5.288053270000034],[100.46739203900006,5.287929009000038],[100.46520816800006,5.291905366000037],[100.46895194800004,5.289606538000044],[100.47157259400007,5.291967496000041],[100.47135420700005,5.287004813000067],[100.47398655200004,5.290014270000029],[100.47739885100003,5.289334716000042],[100.47837379400005,5.292829555000026],[100.49050421400005,5.291570186000058],[100.50407153100008,5.298680407000063],[100.52073315000007,5.298443401000043],[100.53227012000008,5.289654951000045]]]}},{"type":"Feature","properties":{"state":"Penang","district":"Seberang Perai Utara"},"geometry":{"type":"Polygon","coordinates":[[[100.52549361200005,5.428782890000036],[100.52943587000004,5.557287814000063],[100.52660615900004,5.550747619000049],[100.52336155000006,5.550126581000029],[100.52367353100004,5.559317875000033],[100.51312855100008,5.561180957000033],[100.50925997800005,5.559628389000068],[100.50589057600007,5.566770169000051],[100.49312246800008,5.567385777000027],[100.48812398300004,5.570702372000028],[100.48574375100009,5.562173947000076],[100.48026922000008,5.564779867000027],[100.47360457200006,5.563121556000056],[100.46408364800004,5.566911976000029],[100.45789504700008,5.564779867000027],[100.45313458400005,5.568807177000053],[100.44766005200006,5.562173947000076],[100.44575586800005,5.566911976000029],[100.43337866500008,5.563121556000056],[100.43171250400007,5.566201274000036],[100.42338169400006,5.563595359000033],[100.41195658500004,5.566201274000036],[100.40433984500004,5.574729640000044],[100.39624705900007,5.57828309000007],[100.38982043500005,5.57828309000007],[100.38386985700004,5.583968564000031],[100.37982346400008,5.580652044000033],[100.37101660800005,5.584679245000075],[100.36268579900008,5.574018948000059],[100.33983558000006,5.577572402000044],[100.33816941800006,5.572597560000077],[100.35483103600006,5.561226336000061],[100.36601812300006,5.538720141000056],[100.37125463200005,5.522136080000053],[100.37339684000005,5.521425324000063],[100.37196870100007,5.517871532000072],[100.37553904800006,5.498443760000043],[100.37720520900007,5.498443760000043],[100.38077555600006,5.45603215400007],[100.37806794600004,5.437690639000039],[100.37131915900005,5.419085505000055],[100.36261362200008,5.41900599500002],[100.36273342300007,5.425645073000055],[100.36105621000007,5.425684828000044],[100.36001793500009,5.412287333000052],[100.36528044200008,5.413098129000048],[100.36723032700007,5.409215737000068],[100.36294057900005,5.398927278000031],[100.36606039600008,5.384853160000034],[100.36887440000004,5.381626911000069],[100.37746722500003,5.388444518000028],[100.37756472000007,5.395141858000045],[100.39189637700008,5.397277226000028],[100.39189637700008,5.401256756000066],[100.38731414700004,5.408051015000069],[100.39150640000008,5.412030474000062],[100.39472371100004,5.412515772000063],[100.39862348200006,5.405139199000075],[100.40486311500007,5.407662774000073],[100.40106083800003,5.427753934000066],[100.41081026500007,5.426880419000042],[100.41529500200005,5.434450839000021],[100.42036470400006,5.433480277000058],[100.42426447500009,5.429306846000031],[100.42728679700008,5.436780179000039],[100.43040661300006,5.431539150000049],[100.43513313600005,5.437889408000046],[100.43752915500005,5.437213591000045],[100.43501333500006,5.432920146000072],[100.43693015000008,5.432482849000053],[100.43920636800004,5.439042271000062],[100.44296013200005,5.436617281000053],[100.44643435900008,5.440711931000067],[100.44531621700008,5.443971729000054],[100.44367893700007,5.439797594000026],[100.44072384700007,5.441546759000062],[100.43732948700006,5.440274640000041],[100.43653081400004,5.445363101000055],[100.43984530700004,5.444925813000054],[100.43864729700005,5.45212114800006],[100.44144265300008,5.454108794000035],[100.44523635000007,5.451882630000057],[100.44315980000005,5.449894976000053],[100.44679376200008,5.450610532000042],[100.44635449200007,5.44850361500005],[100.44871057800003,5.446078663000037],[100.45158580100008,5.447390523000024],[100.45290361100007,5.443772962000025],[100.46029133700006,5.445999156000028],[100.46479771700007,5.438497987000062],[100.47074829500008,5.438734938000039],[100.48907607500007,5.429019846000074],[100.49217037600005,5.429019846000074],[100.49764490700005,5.436365418000037],[100.51478257200006,5.432574166000052],[100.52073315000007,5.433521981000069],[100.52549361200005,5.428782890000036]]]}},{"type":"Feature","properties":{"state":"Penang","district":"Barat Daya"},"geometry":{"type":"Polygon","coordinates":[[[100.30722065400005,5.327318668000032],[100.30503678300005,5.326945907000038],[100.30678388000007,5.342725925000025],[100.30316489300009,5.345459430000062],[100.29475995200005,5.332926824000026],[100.27802395100008,5.331075314000032],[100.27132955100006,5.337000124000042],[100.25868457300004,5.355144498000072],[100.25533737300003,5.368474716000037],[100.25831266200004,5.374769439000033],[100.25756884000003,5.378842461000033],[100.24306430600006,5.384026267000024],[100.24120475000007,5.381804641000031],[100.23674181700005,5.396245065000073],[100.24157666100007,5.404761051000037],[100.24232048400006,5.414387673000022],[100.24641150600007,5.418460429000049],[100.24083283900006,5.42068192000005],[100.24306430600006,5.429938047000064],[100.23971710600006,5.444377321000047],[100.24083283900006,5.463999368000032],[100.22391832100004,5.465035986000032],[100.21582553500008,5.460534087000042],[100.20939891100005,5.460060201000033],[100.20416240300005,5.463851279000039],[100.20535251800004,5.468116214000077],[100.19892589400007,5.46787927400004],[100.19559357000009,5.472144180000043],[100.18892892300005,5.470722548000026],[100.18631066900008,5.472854994000045],[100.18631066900008,5.477830674000074],[100.17678974400008,5.475224371000024],[100.17536160500003,5.473565808000046],[100.18036009100007,5.466694572000051],[100.18369241400006,5.456269098000064],[100.18345439100005,5.452004080000052],[100.17774183600005,5.444658698000069],[100.18012206800006,5.443237001000057],[100.17678974400008,5.435417607000034],[100.17750381300004,5.432811120000054],[100.18797683100007,5.430204622000076],[100.18940496900007,5.41954155600007],[100.18393043800006,5.379968091000023],[100.19487950100006,5.343472914000074],[100.19654566300005,5.325461504000032],[100.19630764000004,5.309819589000028],[100.19392740800004,5.30792357200005],[100.18940496900007,5.309108584000057],[100.18345439100005,5.30318350500005],[100.18393043800006,5.294414285000073],[100.17726579000004,5.283037813000021],[100.18226427600007,5.275690398000052],[100.18274032200009,5.269053948000021],[100.18583462200007,5.266209733000039],[100.18702473800005,5.277586513000074],[100.19154717700007,5.281141714000057],[100.19654566300005,5.28185275200002],[100.20749472600005,5.278297555000051],[100.21130309600005,5.282563789000051],[100.22153809000008,5.28066768900004],[100.22225216000004,5.286355972000024],[100.22820273700006,5.287304015000075],[100.23772366200006,5.284459884000057],[100.24296017100005,5.276164427000026],[100.24676854100005,5.274742338000067],[100.24772063300009,5.278297555000051],[100.25700353500008,5.280430676000037],[100.26224004300008,5.278534569000044],[100.27271306100005,5.264550602000043],[100.27342713000007,5.257439990000023],[100.28199596200005,5.257677012000045],[100.28366212400005,5.258862119000071],[100.28342410100004,5.27047605000007],[100.29080281800003,5.280193663000034],[100.29032677100008,5.285881951000022],[100.30722065400005,5.327318668000032]]]}},{"type":"Feature","properties":{"state":"Penang","district":"Timur Laut"},"geometry":{"type":"MultiPolygon","coordinates":[[[[100.31170124700009,5.301742517000037],[100.31276759100007,5.311905201000059],[100.32480204000007,5.318579111000076],[100.32678239200004,5.326314688000025],[100.32327869200009,5.33693198900005],[100.32084133500007,5.33693198900005],[100.31200591700008,5.32525294800007],[100.30652186400005,5.312056881000046],[100.30880688600007,5.302045884000052],[100.31170124700009,5.301742517000037]]],[[[100.30722065400005,5.327318668000032],[100.31317699100003,5.341103022000027],[100.31365303700005,5.356507156000021],[100.31817547600008,5.367645288000062],[100.31698536100004,5.386603343000047],[100.31960361500006,5.389683971000068],[100.32722035500007,5.388736087000041],[100.32555419300007,5.393238523000036],[100.33507511800008,5.400347563000025],[100.34459604200003,5.41954155600007],[100.34340592700005,5.422858974000064],[100.32936256300007,5.424754634000067],[100.31627129100008,5.434469795000041],[100.31246292100008,5.446080392000056],[100.31460512900009,5.456269098000064],[100.31341501400004,5.461955743000033],[100.29532525700006,5.466457632000072],[100.29437316400004,5.469300913000041],[100.28009177700005,5.468116214000077],[100.27390317600003,5.477830674000074],[100.26533434400005,5.478304546000061],[100.25557539600004,5.482332443000075],[100.23530721800006,5.464314662000049],[100.24083283900006,5.463999368000032],[100.23971710600006,5.444377321000047],[100.24306430600006,5.429938047000064],[100.24083283900006,5.42068192000005],[100.24641150600007,5.418460429000049],[100.24232048400006,5.414387673000022],[100.24157666100007,5.404761051000037],[100.23674181700005,5.396245065000073],[100.24120475000007,5.381804641000031],[100.24306430600006,5.384026267000024],[100.25756884000003,5.378842461000033],[100.25831266200004,5.374769439000033],[100.25533737300003,5.368474716000037],[100.25868457300004,5.355144498000072],[100.27132955100006,5.337000124000042],[100.27802395100008,5.331075314000032],[100.29475995200005,5.332926824000026],[100.30316489300009,5.345459430000062],[100.30678388000007,5.342725925000025],[100.30503678300005,5.326945907000038],[100.30722065400005,5.327318668000032]]]]}}]}