{"type":"FeatureCollection","features":[{"type":"Feature","properties":{"state":"Perlis","district":"Perlis"},"geometry":{"type":"Polygon","coordinates":[[[100.35078464300005,6.573062141000037],[100.34650022700004,6.571643388000041],[100.33721732600009,6.582520392000049],[100.32769640100008,6.584648474000062],[100.32079373000005,6.590796214000022],[100.31698536100004,6.603091465000034],[100.30698839000007,6.604510128000072],[100.30603629700005,6.610894063000046],[100.31912756900005,6.616095726000026],[100.32476853100007,6.622077755000021],[100.32302519700005,6.628427291000037],[100.31605186400009,6.634776744000021],[100.32128186400007,6.64285774800004],[100.32011964200007,6.64862981300007],[100.32534964200005,6.663059678000025],[100.32244408600008,6.665368417000025],[100.30666110800007,6.66740009800003],[100.30033861900006,6.679220622000059],[100.29773524100005,6.677743072000055],[100.29215657400005,6.680328782000061],[100.29066893000004,6.69325712400007],[100.29438804100005,6.703968919000033],[100.29215657400005,6.707293222000033],[100.28099924000009,6.708031953000045],[100.26835426200006,6.699536481000052],[100.26351941800004,6.700275223000062],[100.26203177300005,6.705815757000039],[100.25533737300003,6.709509411000056],[100.24641150600007,6.696212125000045],[100.23674181700005,6.692518371000062],[100.22818786100004,6.694365251000022],[100.22000581600008,6.699905852000029],[100.21703052700008,6.712833676000059],[100.21293950500007,6.719851493000021],[100.20810466000006,6.719851493000021],[100.20215408300004,6.724653099000022],[100.18802146000007,6.718743423000035],[100.17835177100005,6.696581499000047],[100.17202928200004,6.691779616000076],[100.17277310400004,6.686238923000076],[100.17872368200005,6.681067553000048],[100.17835177100005,6.669616468000072],[100.18132706000006,6.657056905000047],[100.17016972600004,6.648929958000053],[100.17016972600004,6.638586377000024],[100.16756634800004,6.631936817000053],[100.17165737000005,6.606076564000034],[100.18058323700006,6.602751577000049],[100.17946750400006,6.589451402000066],[100.18393043800006,6.580155846000025],[100.18226427600007,6.576609007000059],[100.18393043800006,6.573298600000044],[100.17702776700008,6.571879847000048],[100.17655172100007,6.56667772000003],[100.17036312000005,6.574953806000053],[100.16988707400009,6.571643388000041],[100.16560265700008,6.570224631000031],[100.15703382500004,6.57968293600004],[100.16084219500004,6.563603711000042],[100.15536766300005,6.560766147000038],[100.15441557100007,6.557455634000064],[100.15750987100006,6.532626094000022],[100.15750987100006,6.522930415000076],[100.15465359400008,6.520565587000021],[100.16084219500004,6.503774985000064],[100.16012812600007,6.488639315000057],[100.15631975600007,6.487693320000062],[100.15512964000004,6.483436323000035],[100.15750987100006,6.479179290000047],[100.15298743200003,6.477523767000037],[100.15108324700009,6.471138129000053],[100.14560871500004,6.465698447000022],[100.14822697000005,6.453163306000022],[100.13584976800007,6.44488521300002],[100.13323151300006,6.430457356000034],[100.11966419600009,6.421942363000028],[100.11905519100009,6.419427383000027],[100.13125852500008,6.395173167000053],[100.15508408100004,6.334532601000035],[100.16612519300008,6.298722441000052],[100.19322821600008,6.252026904000047],[100.20326981600005,6.266444972000045],[100.20215408300004,6.281602],[100.20475746000005,6.290843873000028],[100.21889008300008,6.301194577000047],[100.21889008300008,6.307109171000036],[100.23116315000004,6.320786413000064],[100.25124635100008,6.336681132000024],[100.25509935000008,6.347666684000046],[100.27342713000007,6.366591446000029],[100.27913968500008,6.369430100000045],[100.30746443600003,6.410352283000066],[100.31055873600008,6.409642678000068],[100.36316184500004,6.454345880000062],[100.37030253900008,6.529788354000061],[100.35387894400009,6.55296276200005],[100.34840441200004,6.567150643000048],[100.35078464300005,6.573062141000037]]]}}]}