{"type":"FeatureCollection","features":[{"type":"Feature","properties":{"state":"Selangor","district":"Sabak Bernam"},"geometry":{"type":"Polygon","coordinates":[[[101.24408633600007,3.721141383000031],[101.21212522400003,3.708963693000044],[101.21328744600004,3.713602833000039],[101.21038189000006,3.717662060000066],[101.20398966800008,3.719401723000033],[101.19992189000004,3.728099988000054],[101.19643522300004,3.717662060000066],[101.18946189000008,3.719401723000033],[101.17667744500005,3.710703373000058],[101.17086633300005,3.713022942000066],[101.169123,3.719401723000033],[101.18132633400006,3.718821836000075],[101.19062411200008,3.730419510000047],[101.17551522200006,3.728099988000054],[101.17086633300005,3.730419510000047],[101.16447411100006,3.749555337000061],[101.16214966700005,3.727520106000043],[101.15285188800004,3.74549625700007],[101.14994633300006,3.741437159000043],[101.153433,3.729839630000072],[101.13483744300004,3.735058537000043],[101.13425633200006,3.739697539000076],[101.14355411000008,3.744916387000046],[101.14297299900005,3.748395602000073],[101.13658077700006,3.751874803000021],[101.13367522100003,3.761152605000063],[101.12379633200004,3.744916387000046],[101.12321522100007,3.737957916000028],[101.11624188700006,3.737957916000028],[101.11101188700007,3.74549625700007],[101.10636299800007,3.742596903000049],[101.10578188700003,3.73389878200004],[101.09590299800004,3.744916387000046],[101.08253744200005,3.737378041000056],[101.07963188600007,3.730999390000022],[101.07498299700006,3.728099988000054],[101.07091521900009,3.732159148000051],[101.07265855300005,3.739117665000038],[101.07846966400007,3.746655997000062],[101.07556410800004,3.758833164000066],[101.09880855400007,3.751294937000068],[101.09764633100008,3.759992885000031],[101.09009188700009,3.76521161200003],[101.09474077600004,3.77970791100006],[101.08602410900005,3.780287758000043],[101.07556410800004,3.76521161200003],[101.06684744100005,3.76289218200003],[101.06277966400006,3.754194263000045],[101.05754966300003,3.754774127000076],[101.05813077500005,3.769270600000027],[101.05406299700007,3.775648972000056],[101.05522521900008,3.784346676000041],[101.06045521900006,3.79130477700005],[101.06045521900006,3.796523315000059],[101.03953521800008,3.785506363000025],[101.02558855100006,3.784926520000056],[101.02791299600005,3.798262821000037],[101.02558855100006,3.80580063900004],[101.01396632900008,3.801741822000054],[100.99420855000005,3.800002324000047],[100.98781632800006,3.79536364300003],[100.98258632800008,3.771010161000049],[100.97503188300004,3.768110891000049],[100.96224743800008,3.775069122000048],[100.95701743800004,3.784346676000041],[100.95992299400007,3.794203969000023],[100.96573410500008,3.800002324000047],[100.98026188300008,3.807540127000038],[100.98084299400006,3.813338392000048],[100.96980188300006,3.824354988000039],[100.95876077200006,3.828993512000068],[100.94132743800009,3.831892577000076],[100.93784077100008,3.839430100000072],[100.94307077100007,3.856244334000053],[100.94248966000004,3.870739096000023],[100.93377299300005,3.870159311000066],[100.90355521400005,3.858563513000036],[100.88495965800007,3.855084742000031],[100.86520188000009,3.856824129000074],[100.84602521300008,3.851026159000071],[100.82510521200004,3.853345352000076],[100.81057970400008,3.817807106000032],[100.80774224700008,3.800819979000039],[100.81199843200005,3.783832517000064],[100.85456028200008,3.773923011000022],[100.87725993600009,3.764013391000049],[100.89712213300004,3.754103659000066],[100.90847195900005,3.741362409000033],[100.92407797100009,3.705969079000056],[100.94535889600007,3.666326869000045],[100.96380236500005,3.67623758700006],[101.01345785700005,3.645089246000055],[101.04183242300007,3.616771636000067],[101.07730063200006,3.554469790000041],[101.09858155700005,3.485083239000062],[101.11515230400005,3.493579829000055],[101.17689536100005,3.535268642000062],[101.34949989400008,3.599217807000059],[101.34094593800006,3.65563504000005],[101.34615269400007,3.661202339000056],[101.34595930000006,3.675172394000072],[101.34857755500008,3.682773437000037],[101.34595930000006,3.690611946000047],[101.33904834600008,3.697176477000028],[101.33706411600008,3.693306417000031],[101.32369856000008,3.691566702000046],[101.31381967100003,3.686347538000064],[101.30103522600007,3.671849701000042],[101.29231855900008,3.677068949000045],[101.27256078100004,3.668950105000022],[101.26616855900005,3.670689864000053],[101.25164078000006,3.675329203000047],[101.24931633600005,3.679388606000032],[101.24582966900005,3.700845140000069],[101.24989744700008,3.715342504000034],[101.24408633600007,3.721141383000031]]]}},{"type":"Feature","properties":{"state":"Selangor","district":"Kuala Selangor"},"geometry":{"type":"Polygon","coordinates":[[[101.09858155700005,3.485083239000062],[101.11624188700006,3.463055191000024],[101.11798522100008,3.454354401000046],[101.13832411000004,3.441013035000026],[101.16214966700005,3.402728081000021],[101.17319077800005,3.392286465000041],[101.18713744500008,3.353419462000033],[101.20398966800008,3.34297731700002],[101.23013966900004,3.336595951000049],[101.24873522500008,3.31397077500003],[101.25396522500006,3.312810495000065],[101.25861411400007,3.308169364000037],[101.28708855900004,3.269299040000021],[101.29929189300003,3.250153400000045],[101.29987300400006,3.238549805000048],[101.30742744900004,3.220563970000057],[101.30644746300004,3.165523956000072],[101.31573036400005,3.169088849000048],[101.32620338200007,3.161008407000054],[101.32739349700006,3.162909694000064],[101.34334104600003,3.163622675000056],[101.34334104600003,3.175980940000045],[101.36883927300005,3.17635228000006],[101.36921118400005,3.186007069000027],[101.40045171800006,3.187121077000029],[101.40045171800006,3.193062434000069],[101.46293278700006,3.191948432000061],[101.47409012000008,3.197147097000027],[101.47706540900003,3.192691100000047],[101.48710700900006,3.191948432000061],[101.49156994300006,3.184893059000046],[101.49268567600006,3.275123883000049],[101.47446203100009,3.275123883000049],[101.46256087500007,3.277723006000031],[101.46218896400006,3.300372215000039],[101.43764283000007,3.298144446000038],[101.43169225200006,3.304456443000049],[101.44545296400008,3.337872227000048],[101.44694060800003,3.355693514000052],[101.44433723000009,3.355693514000052],[101.44396531900009,3.398017766000066],[101.45623838600005,3.401730332000056],[101.45958558600006,3.400245307000034],[101.46070132000006,3.450734849000071],[101.46851145300008,3.483403126000042],[101.34941411200003,3.599783597000055],[101.17689536100005,3.535268642000062],[101.11515230400005,3.493579829000055],[101.09858155700005,3.485083239000062]]]}},{"type":"Feature","properties":{"state":"Selangor","district":"Hulu Selangor"},"geometry":{"type":"Polygon","coordinates":[[[101.33904834600008,3.697176477000028],[101.34595930000006,3.690611946000047],[101.34857755500008,3.682773437000037],[101.34595930000006,3.675172394000072],[101.34615269400007,3.661202339000056],[101.34094593800006,3.65563504000005],[101.34941411200003,3.599783597000055],[101.46851145300008,3.483403126000042],[101.46070132000006,3.450734849000071],[101.45960259600008,3.40101508500004],[101.48059856500004,3.380104437000057],[101.47827412000004,3.373143210000023],[101.48757189800006,3.367922257000032],[101.49396412100003,3.367342149000024],[101.49919412100007,3.353419462000033],[101.50849189900003,3.353419462000033],[101.52011412200005,3.347038164000026],[101.52941190000007,3.345877924000035],[101.53696634400006,3.35051887700007],[101.54452078900005,3.351098995000029],[101.57531967900007,3.340076701000044],[101.58054967900006,3.339496577000034],[101.58403634600006,3.343557439000051],[101.58926634600004,3.337756202000037],[101.59217190200008,3.329634413000065],[101.61309190200006,3.324993361000054],[101.63924190300008,3.324413228000026],[101.65260745900008,3.335435698000026],[101.66887857000006,3.331374802000028],[101.67933857100007,3.340076701000044],[101.68166301500008,3.33427544400007],[101.69619079300008,3.348778522000032],[101.71827301600007,3.388225806000037],[101.72996497200006,3.379454725000073],[101.75265155100004,3.371658142000058],[101.75785830600006,3.374257010000065],[101.76604035100007,3.383909887000073],[101.76418079500007,3.392448891000072],[101.76538387700003,3.40152938600005],[101.77247751900006,3.411442937000061],[101.78240861700004,3.417107777000069],[101.78808353100004,3.427021168000067],[101.76112769200006,3.489331543000048],[101.76680260500007,3.519069134000063],[101.80227081400005,3.560133769000061],[101.81078318400006,3.581373381000049],[101.81220191200003,3.594116911000071],[101.80227081400005,3.612523918000022],[101.78666480200008,3.623851122000076],[101.77531497600006,3.65075266100007],[101.74410295200005,3.69322713300005],[101.73842803900004,3.710216354000067],[101.72424075500004,3.713047859000028],[101.68593509000004,3.705969079000056],[101.66465416500006,3.722958055000049],[101.65188561000008,3.728620975000069],[101.62471412500008,3.778548216000047],[101.60146968000004,3.771590014000026],[101.59217190200008,3.759413025000072],[101.57822523400006,3.746655997000062],[101.56660301200009,3.697945639000068],[101.55091301100003,3.696785835000071],[101.54393967800007,3.693886321000036],[101.54161523300007,3.685767630000043],[101.53638523300003,3.682288168000071],[101.53115523300005,3.679968519000056],[101.52360078800007,3.680548432000023],[101.49628856500004,3.698525540000048],[101.48699078700008,3.698525540000048],[101.47769300900006,3.706644114000028],[101.47420634200006,3.714182724000068],[101.46258412000009,3.715342504000034],[101.44108300800008,3.75013520400006],[101.42190634100007,3.753614399000071],[101.41551411800003,3.759413025000072],[101.40679745200003,3.759992885000031],[101.39924300700005,3.764051898000048],[101.38587745100006,3.775648972000056],[101.38064745100007,3.794783806000055],[101.37425522800004,3.800582157000065],[101.36437633900005,3.803481318000024],[101.35798411700006,3.802321655000071],[101.32834744900003,3.784926520000056],[101.32427967100006,3.772749718000057],[101.32311744900005,3.766951181000024],[101.33648300500005,3.74549625700007],[101.33822633800008,3.726360342000021],[101.34403745000009,3.715922394000074],[101.34345633900006,3.704324529000075],[101.33904834600008,3.697176477000028]]]}},{"type":"Feature","properties":{"state":"Selangor","district":"Sepang"},"geometry":{"type":"Polygon","coordinates":[[[101.79116215000005,2.870155254000053],[101.78800635200008,2.876453244000061],[101.77231635100009,2.883998145000021],[101.76941079600005,2.897346695000067],[101.75895079500003,2.911275448000026],[101.75583511000008,2.918091188000062],[101.75654917900005,2.92997685000006],[101.75131267100005,2.953272379000055],[101.74631418500007,2.959928155000057],[101.73298489100006,2.96254291300005],[101.73250884400005,2.977518227000076],[101.74226779200006,2.982034552000073],[101.73441302900005,2.996771903000024],[101.72798640500008,3.001763542000049],[101.72655826600004,3.002238935000037],[101.72608222000008,2.997247298000048],[101.72822442800003,2.989878651000026],[101.66372016300005,2.977755929000068],[101.65443726200004,2.981559150000066],[101.57850788700006,2.978944437000052],[101.59278927400004,2.945903438000073],[101.64516923600007,2.844323013000064],[101.65892994800004,2.827978968000025],[101.66562434800005,2.823150001000045],[101.67231874800007,2.823150001000045],[101.68236034900008,2.813863471000047],[101.63215234700004,2.755170896000038],[101.63140852500004,2.727309480000031],[101.59607696800003,2.728423950000035],[101.59756461300003,2.645950477000042],[101.58938256800008,2.642235325000058],[101.60277136800005,2.63517650600005],[101.62211074700008,2.632575878000068],[101.68050079300008,2.614742858000056],[101.68831092700003,2.606940831000031],[101.68942666000004,2.598024170000031],[101.70950986100007,2.593194286000028],[101.71021374590536,2.598497931286411],[101.70281546000007,2.60768388300005],[101.71806381600004,2.619201137000061],[101.72141101600005,2.620315704000063],[101.72624586100005,2.616228952000029],[101.73070879400007,2.617715045000068],[101.73182452800006,2.622916357000065],[101.72513012800005,2.635919541000021],[101.73368408300007,2.648179562000053],[101.74744479500004,2.654866795000032],[101.74781670600004,2.66006795100003],[101.74037848400008,2.669355676000066],[101.74075039500008,2.673442252000029],[101.76083359500007,2.703533895000021],[101.76452323403824,2.725075014384551],[101.76127524000003,2.742377943000065],[101.75081524000007,2.871229821000043],[101.79116215000005,2.870155254000053]]]}},{"type":"Feature","properties":{"state":"Selangor","district":"Klang"},"geometry":{"type":"MultiPolygon","coordinates":[[[[101.25652211400006,2.911182590000067],[101.25949740300007,2.921582614000044],[101.25912549200007,2.947582253000064],[101.25391873600006,2.966153052000038],[101.23123215700008,2.95055360200007],[101.23048833500008,2.92826829400002],[101.23420744600008,2.920468331000052],[101.23383553500008,2.904125376000025],[101.25652211400006,2.911182590000067]]],[[[101.35545047200009,2.99363726100006],[101.33759873800005,2.986209164000059],[101.32420993800008,2.976923972000066],[101.30338291500004,2.951296438000043],[101.27920869200005,2.905611109000063],[101.28144015900006,2.904496809000022],[101.27995251400006,2.898182425000073],[101.27363002500005,2.894839501000035],[101.28553118100007,2.884439230000055],[101.29445704800008,2.889639378000027],[101.31230878200006,2.908954001000041],[101.32123464900008,2.914896896000073],[101.33164816000004,2.908954001000041],[101.33983020500006,2.896696682000027],[101.34838416100007,2.898182425000073],[101.33648300500005,2.919725474000074],[101.33759873800005,2.922696897000037],[101.34801225000007,2.929753995000056],[101.35805385000003,2.944239476000064],[101.37590558400007,2.981009467000035],[101.39041011800003,2.989180409000028],[101.38966629500004,2.992151646000025],[101.35545047200009,2.99363726100006]]],[[[101.26396033600008,3.004036512000027],[101.27028282500004,3.021120781000036],[101.26061313600007,3.015921250000076],[101.24685242500004,3.016292645000021],[101.22267820200005,3.004779312000039],[101.21709953500005,2.984352132000026],[101.19887589000007,2.957981939000035],[101.19813206800006,2.95055360200007],[101.20185117900007,2.949439347000066],[101.21486806800004,2.955010610000045],[101.24350522400005,2.988437599000065],[101.26396033600008,3.004036512000027]]],[[[101.21338042400004,3.004779312000039],[101.24313331300004,3.017406833000052],[101.25800975800007,3.020749387000023],[101.27511767000004,3.033376722000071],[101.27920869200005,3.040804497000067],[101.27065473600004,3.05120329600004],[101.26916709200003,3.057516803000055],[101.26470415800009,3.060116472000061],[101.25615020300006,3.059745091000025],[101.24610860200005,3.05565989300004],[101.23420744600008,3.046746680000069],[101.23048833500008,3.037462004000076],[101.22193437900006,3.031891160000043],[101.20891749000003,3.01072169300005],[101.21338042400004,3.004779312000039]]],[[[101.27734913700004,2.922696897000037],[101.30077953700004,2.963924573000043],[101.30598629300005,2.982123690000037],[101.31156496000006,2.982495097000026],[101.31416833800006,2.988437599000065],[101.33722682700005,2.999579703000052],[101.33462344900005,3.04154727100007],[101.33797065000005,3.059745091000025],[101.32755713800003,3.067915440000036],[101.31751553800007,3.069400952000024],[101.30598629300005,3.063087514000074],[101.28181207000006,3.007379108000066],[101.26470415800009,2.97840960800005],[101.26172886900008,2.957610523000028],[101.26470415800009,2.918611189000046],[101.27214238100004,2.918239760000063],[101.27734913700004,2.922696897000037]]],[[[101.30644746300004,3.165523956000072],[101.31714362700006,3.114336690000073],[101.32160656000008,3.10950897500004],[101.32904478300009,3.10950897500004],[101.35507856100008,3.079056725000044],[101.36065722800004,3.069029574000069],[101.36140105000004,3.05677404000005],[101.35656620600008,3.027434465000056],[101.35656620600008,3.013692871000046],[101.36028531700003,3.01072169300005],[101.36512016100005,3.000322505000042],[101.37850896200007,3.00180811000007],[101.39189776200004,2.998094095000056],[101.39152585100004,2.980638059000057],[101.36846736200005,2.957981939000035],[101.36586398400004,2.940525268000044],[101.35842576100003,2.92455403200006],[101.36995500600005,2.908211137000023],[101.37553367300006,2.907096840000065],[101.38483145100008,2.914525466000043],[101.38669100700008,2.937182470000039],[101.40454274000007,2.95686769100007],[101.40863376300007,2.970981409000046],[101.41718771900008,2.977295382000023],[101.42574167400005,2.976552563000041],[101.43875856400007,2.96689587700007],[101.43801474100007,2.960581845000036],[101.42685740800005,2.955382026000052],[101.42313829600005,2.95055360200007],[101.43950238600007,2.949810765000052],[101.45251927500004,2.952410691000068],[101.52429812200006,2.949810765000052],[101.54884425600005,2.963553159000071],[101.54884425600005,2.958353354000053],[101.56297687800009,2.963924573000043],[101.56074541200007,2.969124351000062],[101.57318569000006,2.977565767000044],[101.56526428100005,2.97680512200003],[101.55702630000008,2.981752282000059],[101.55033190000006,2.994380068000055],[101.55405101100007,2.999579703000052],[101.54772852200006,3.00700770900005],[101.54730096100008,3.016151123000043],[101.55803789900006,3.015549853000039],[101.55089720500007,3.020066021000048],[101.55637173700006,3.019590636000032],[101.55470557500007,3.024106787000051],[101.53304547100004,3.038368192000064],[101.52995117100005,3.039081257000021],[101.51805001500009,3.030524442000058],[101.51090932100004,3.039556634000064],[101.49662793400006,3.040745075000075],[101.49781805000003,3.046211885000048],[101.49091537900006,3.04573651100003],[101.49115340300006,3.063087514000074],[101.48901119400006,3.064275929000075],[101.48020433900007,3.060710681000046],[101.47972829300005,3.069980301000044],[101.47591992300005,3.074020879000045],[101.47520585400008,3.085191810000026],[101.46758911400008,3.091609100000028],[101.44473889400007,3.093035159000067],[101.44173385300007,3.111365791000026],[101.44619678600009,3.112108516000035],[101.44991589700004,3.118793022000034],[101.45251927500004,3.118793022000034],[101.45475074200004,3.12733427400002],[101.45140354200004,3.136246810000046],[101.46032940900005,3.151472217000048],[101.47334629800008,3.160755893000044],[101.42647055800006,3.192598533000023],[101.40045171800006,3.193062434000069],[101.40045171800006,3.187121077000029],[101.36921118400005,3.186007069000027],[101.36883927300005,3.17635228000006],[101.34334104600003,3.175980940000045],[101.34334104600003,3.163622675000056],[101.32739349700006,3.162909694000064],[101.32620338200007,3.161008407000054],[101.31573036400005,3.169088849000048],[101.30644746300004,3.165523956000072]]]]}},{"type":"Feature","properties":{"state":"Selangor","district":"Kuala Langat"},"geometry":{"type":"MultiPolygon","coordinates":[[[[101.58938256800008,2.642235325000058],[101.58986131700004,2.641982920000032],[101.58955609300006,2.642309614000055],[101.58938256800008,2.642235325000058]]],[[[101.57850788700006,2.978944437000052],[101.56074541200007,2.969124351000062],[101.56297687800009,2.963924573000043],[101.54884425600005,2.958353354000053],[101.54884425600005,2.963553159000071],[101.52429812200006,2.949810765000052],[101.45251927500004,2.952410691000068],[101.43950238600007,2.949810765000052],[101.42313829600005,2.95055360200007],[101.42685740800005,2.955382026000052],[101.43801474100007,2.960581845000036],[101.43875856400007,2.96689587700007],[101.42574167400005,2.976552563000041],[101.41718771900008,2.977295382000023],[101.40863376300007,2.970981409000046],[101.40454274000007,2.95686769100007],[101.39233063867974,2.943941103986187],[101.38689927700005,2.914763181000069],[101.38142474500006,2.906443119000073],[101.36928556600009,2.903590512000051],[101.34857755500008,2.921656900000073],[101.34238895400006,2.923320895000074],[101.34238895400006,2.919042046000072],[101.35143383200005,2.905254533000061],[101.35167185500006,2.896696682000027],[101.34905360100004,2.893368611000028],[101.34119883800008,2.891942292000067],[101.33810453800004,2.893844051000031],[101.32049082700007,2.910959731000048],[101.30359118500007,2.887663324000073],[101.28407329000004,2.87435087700004],[101.28526340500008,2.860800548000043],[101.29240409900007,2.837740848000067],[101.30668548600005,2.832035284000028],[101.32072885000008,2.831797552000069],[101.35809847900003,2.813492008000026],[101.37214184300007,2.809212749000039],[101.40118066400004,2.805171211000072],[101.40808333400008,2.799940966000065],[101.40546508000006,2.795899396000038],[101.40808333400008,2.788767181000026],[101.42569704500005,2.774740365000071],[101.44997540300005,2.739078222000046],[101.46187655900007,2.709596714000043],[101.48292300900005,2.687814819000039],[101.50384301000008,2.677946758000076],[101.52243856600006,2.674463894000041],[101.53522301100008,2.664595726000073],[101.58229301200004,2.650083570000049],[101.58955609300006,2.642309614000055],[101.59756461300003,2.645950477000042],[101.59607696800003,2.728423950000035],[101.63140852500004,2.727309480000031],[101.63215234700004,2.755170896000038],[101.68236034900008,2.813863471000047],[101.67231874800007,2.823150001000045],[101.66562434800005,2.823150001000045],[101.65892994800004,2.827978968000025],[101.64516923600007,2.844323013000064],[101.59278927400004,2.945903438000073],[101.57850788700006,2.978944437000052]]]]}},{"type":"Feature","properties":{"state":"Selangor","district":"Petaling"},"geometry":{"type":"Polygon","coordinates":[[[101.42647055800006,3.192598533000023],[101.47334629800008,3.160755893000044],[101.46032940900005,3.151472217000048],[101.45140354200004,3.136246810000046],[101.45475074200004,3.12733427400002],[101.45251927500004,3.118793022000034],[101.44991589700004,3.118793022000034],[101.44619678600009,3.112108516000035],[101.44173385300007,3.111365791000026],[101.44473889400007,3.093035159000067],[101.46758911400008,3.091609100000028],[101.47520585400008,3.085191810000026],[101.47591992300005,3.074020879000045],[101.47972829300005,3.069980301000044],[101.48020433900007,3.060710681000046],[101.48901119400006,3.064275929000075],[101.49115340300006,3.063087514000074],[101.49091537900006,3.04573651100003],[101.49781805000003,3.046211885000048],[101.49662793400006,3.040745075000075],[101.51090932100004,3.039556634000064],[101.51805001500009,3.030524442000058],[101.52995117100005,3.039081257000021],[101.53304547100004,3.038368192000064],[101.55470557500007,3.024106787000051],[101.55637173700006,3.019590636000032],[101.55089720500007,3.020066021000048],[101.55803789900006,3.015549853000039],[101.54730096100008,3.016151123000043],[101.54772852200006,3.00700770900005],[101.55330718900007,3.00180811000007],[101.55405101100007,2.999579703000052],[101.55033190000006,2.994380068000055],[101.55702630000008,2.981752282000059],[101.56526428100005,2.97680512200003],[101.65443726200004,2.981559150000066],[101.66372016300005,2.977755929000068],[101.72822442800003,2.989878651000026],[101.72655826600004,3.002238935000037],[101.72203582700007,3.012697527000057],[101.72822442800003,3.024344478000046],[101.73060465900005,3.036704371000042],[101.72560617400006,3.036942060000058],[101.71441908700007,3.05405552000002],[101.71037269400006,3.053104779000023],[101.70727839400007,3.045974198000067],[101.70323200100006,3.050014867000073],[101.69704340000004,3.045498824000049],[101.69061677600007,3.043597327000043],[101.68633235900006,3.04573651100003],[101.67966771200008,3.04193351400005],[101.67609736500003,3.04193351400005],[101.67490725000005,3.04478576300005],[101.65396121500004,3.046211885000048],[101.65443726200004,3.050252552000075],[101.65800760800005,3.049064122000061],[101.65895970100007,3.057620790000044],[101.65134296100007,3.059522263000076],[101.65181900700009,3.067841165000061],[101.64801063700008,3.072357113000066],[101.65657947000005,3.079012160000048],[101.66276807100007,3.088043943000059],[101.65753156200009,3.11276211400002],[101.65277110000005,3.110147720000043],[101.64943877600007,3.11846622500002],[101.64396424400007,3.121080599000038],[101.64848668400003,3.127497671000071],[101.63515738900009,3.132726368000021],[101.62920681100007,3.13058735900006],[101.62706460300006,3.13985636600006],[101.62230414100009,3.142946017000043],[101.61492542400003,3.153640891000066],[101.61897181700004,3.173842020000052],[101.61920984000005,3.198082854000063],[101.62658855700005,3.200934679000056],[101.62968285700003,3.209965406000038],[101.61873379400004,3.208777157000043],[101.60707066100008,3.199508768000044],[101.59231322800008,3.201172331000066],[101.57707974800007,3.208064207000064],[101.55922801400004,3.229927783000051],[101.54994511300004,3.223986641000067],[101.54780290500008,3.218996054000058],[101.52876105500007,3.216381927000043],[101.52804698600005,3.221610174000034],[101.52019222300004,3.21733252000007],[101.50900513600004,3.222798408000074],[101.50067432700007,3.221372527000028],[101.49210031700005,3.227786106000053],[101.49156994300006,3.184893059000046],[101.48710700900006,3.191948432000061],[101.47706540900003,3.192691100000047],[101.47409012000008,3.197147097000027],[101.46293278700006,3.191948432000061],[101.42647055800006,3.192598533000023]]]}},{"type":"Feature","properties":{"state":"Selangor","district":"Gombak"},"geometry":{"type":"Polygon","coordinates":[[[101.49210031700005,3.227786106000053],[101.50067432700007,3.221372527000028],[101.50900513600004,3.222798408000074],[101.52019222300004,3.21733252000007],[101.52804698600005,3.221610174000034],[101.52876105500007,3.216381927000043],[101.54780290500008,3.218996054000058],[101.54994511300004,3.223986641000067],[101.55922801400004,3.229927783000051],[101.56351243000006,3.222560761000068],[101.57945997900003,3.206400655000039],[101.59231322800008,3.201172331000066],[101.60707066100008,3.199508768000044],[101.61873379400004,3.208777157000043],[101.62968285700003,3.209965406000038],[101.63349122700004,3.216619575000038],[101.63753762000005,3.21733252000007],[101.63753762000005,3.228977203000056],[101.65253307700004,3.234918316000062],[101.66419620900007,3.244424025000058],[101.67109888000005,3.235631247000072],[101.67252701900009,3.227788976000056],[101.69466316900008,3.228264267000043],[101.69632933000008,3.223273701000039],[101.69989967700008,3.223748994000061],[101.69942363100006,3.219233701000064],[101.70204188500009,3.216619575000038],[101.71275292600006,3.21353014500005],[101.71608524900006,3.214956037000036],[101.71370501800004,3.219946644000061],[101.71775141100005,3.225887810000074],[101.71965559600005,3.223273701000039],[101.72989059000008,3.233254808000027],[101.73822139900005,3.231591297000023],[101.73845942200006,3.234680672000025],[101.74321988500009,3.22873955700004],[101.74012558400005,3.216619575000038],[101.74560011600005,3.210440706000043],[101.74750430100005,3.202835891000063],[101.75083662400004,3.202835891000063],[101.75464499400005,3.198795811000025],[101.75773929500008,3.18620016400007],[101.74988453200007,3.175743283000031],[101.73250884400005,3.176456255000062],[101.73631721400005,3.162672033000035],[101.74940688800007,3.158323952000046],[101.75274080900004,3.161246068000025],[101.76464196500007,3.160533085000054],[101.77011649700006,3.151739588000055],[101.77942915200003,3.148501424000074],[101.78537972900006,3.160013202000073],[101.80211573000008,3.149986821000027],[101.81141350800004,3.154814350000038],[101.80360337400003,3.184150386000056],[101.81327306400004,3.207915676000027],[101.81215733000005,3.217198843000062],[101.81737836700006,3.230222463000075],[101.83002215500005,3.24923388000002],[101.83078382900004,3.257294613000056],[101.84099026100006,3.265203194000037],[101.84434162600007,3.272047108000038],[101.85013034800005,3.27250336700007],[101.85435502045776,3.277427053507426],[101.84844190900009,3.285543539000059],[101.84088746400005,3.285543539000059],[101.83391413100009,3.289024468000036],[101.81066968600004,3.309909791000052],[101.79788524100007,3.334855571000048],[101.78219524000008,3.343557439000051],[101.78335746300007,3.355159809000043],[101.77754635100007,3.360380830000054],[101.75735622600007,3.374006406000035],[101.75265155100004,3.371658142000058],[101.72996497200006,3.379454725000073],[101.71827301600007,3.388225806000037],[101.69619079300008,3.348778522000032],[101.68166301500008,3.33427544400007],[101.67933857100007,3.340076701000044],[101.66887857000006,3.331374802000028],[101.65260745900008,3.335435698000026],[101.63924190300008,3.324413228000026],[101.62122745800008,3.324413228000026],[101.59217190200008,3.329634413000065],[101.58926634600004,3.337756202000037],[101.58403634600006,3.343557439000051],[101.58054967900006,3.339496577000034],[101.57531967900007,3.340076701000044],[101.54452078900005,3.351098995000029],[101.53696634400006,3.35051887700007],[101.52941190000007,3.345877924000035],[101.52011412200005,3.347038164000026],[101.50849189900003,3.353419462000033],[101.49919412100007,3.353419462000033],[101.49396412100003,3.367342149000024],[101.48757189800006,3.367922257000032],[101.47827412000004,3.373143210000023],[101.48059856500004,3.380104437000057],[101.47536856500005,3.386485519000075],[101.45960259600008,3.40101508500004],[101.44880016400003,3.400616563000028],[101.44396531900009,3.398017766000066],[101.44433723000009,3.355693514000052],[101.44694060800003,3.355693514000052],[101.44545296400008,3.337872227000048],[101.43169225200006,3.304456443000049],[101.43764283000007,3.298144446000038],[101.46218896400006,3.300372215000039],[101.46256087500007,3.277723006000031],[101.47446203100009,3.275123883000049],[101.49268567600006,3.275123883000049],[101.49210031700005,3.227786106000053]]]}},{"type":"Feature","properties":{"state":"Selangor","district":"Hulu Langat"},"geometry":{"type":"Polygon","coordinates":[[[101.85435502045776,3.277427053507426],[101.85013034800005,3.27250336700007],[101.84434162600007,3.272047108000038],[101.84099026100006,3.265203194000037],[101.83078382900004,3.257294613000056],[101.83002215500005,3.24923388000002],[101.81737836700006,3.230222463000075],[101.81215733000005,3.217198843000062],[101.81327306400004,3.207915676000027],[101.80360337400003,3.184150386000056],[101.81141350800004,3.154814350000038],[101.80211573000008,3.149986821000027],[101.78537972900006,3.160013202000073],[101.77942915200003,3.148501424000074],[101.77011649700006,3.151739588000055],[101.76464196500007,3.160533085000054],[101.75274080900004,3.161246068000025],[101.74940688800007,3.158323952000046],[101.74940848600005,3.153640891000066],[101.74512407000009,3.149838282000076],[101.74107767700008,3.15055127200003],[101.73917349200008,3.141995356000052],[101.73584116800004,3.139381034000053],[101.74107767700008,3.123694967000063],[101.73869744500007,3.11347513000004],[101.74393395400006,3.109197029000029],[101.74702825500003,3.116327187000024],[101.75226476300008,3.11680252900004],[101.75440697100004,3.114663488000076],[101.75178871700007,3.108246338000072],[101.75393092500008,3.104918911000027],[101.75131267100005,3.10040310100004],[101.75226476300008,3.09422354000003],[101.74321988500009,3.08257734700004],[101.74988453200007,3.072594794000054],[101.74940848600005,3.054768575000026],[101.73060465900005,3.054768575000026],[101.72965256700007,3.028622919000043],[101.72203582700007,3.012697527000057],[101.72655826600004,3.002238935000037],[101.73441302900005,2.996771903000024],[101.74226779200006,2.982034552000073],[101.73250884400005,2.977518227000076],[101.73298489100006,2.96254291300005],[101.74631418500007,2.959928155000057],[101.75131267100005,2.953272379000055],[101.75654917900005,2.92997685000006],[101.75583511000008,2.918091188000062],[101.75895079500003,2.911275448000026],[101.76941079600005,2.897346695000067],[101.77231635100009,2.883998145000021],[101.78800635200008,2.876453244000061],[101.79116215000005,2.870155254000053],[101.88156524300007,2.867747526000073],[101.92398635600006,2.967569063000042],[101.92447448900003,2.97320987400002],[101.92893742300004,2.97952383400002],[101.93116888900005,2.995865681000055],[101.94083857900006,3.002179511000065],[101.94232622300007,3.005893511000068],[101.93972284500006,3.01666404100007],[101.94753297900007,3.016292645000021],[101.95459929000003,3.025577503000022],[101.96798809000006,3.027805857000033],[101.96910382400006,3.032262551000031],[101.96501280100006,3.045261137000068],[101.96612853500005,3.056402658000025],[101.95906222300005,3.065315791000046],[101.96203751200005,3.074228849000065],[101.95757457900004,3.082399088000045],[101.95645884600003,3.092797483000027],[101.95013635700008,3.110251701000038],[101.96092177900005,3.119535743000029],[101.96389706800005,3.135875456000065],[101.96724426800006,3.13996034500002],[101.95645884600003,3.145901972000047],[101.95645884600003,3.156671086000074],[101.94790489000007,3.165954715000055],[101.94232622300007,3.184150386000056],[101.94864871200008,3.197147097000027],[101.94678915600008,3.202717066000048],[101.94939253400008,3.208658332000027],[101.94307004500007,3.230195134000041],[101.93191271200004,3.243933889000061],[101.93340035600005,3.250617541000054],[101.92782168900004,3.256558527000038],[101.92744977800004,3.260271626000076],[101.91468857800004,3.260596521000025],[101.89957968800007,3.267558542000074],[101.89318746600009,3.261756861000038],[101.88447079900004,3.26117669100006],[101.87924079900006,3.268138708000038],[101.85657746500004,3.273940352000068],[101.85435502045776,3.277427053507426]]]}}]}